<?xml version="1.0" encoding="UTF-8"?>
<gpx version="1.1" creator="5k-9am-osm-route-cache v0.6.11" xmlns="http://www.topografix.com/GPX/1/1">
  <metadata><desc>Derived from OpenStreetMap ((c) OpenStreetMap contributors, ODbL). source=osm_relation; built_by=v0.6.11</desc></metadata>
  <trk><name>Exeter Riverside parkrun</name><trkseg>
    <trkpt lat="50.709504" lon="-3.521738"/>
    <trkpt lat="50.709325" lon="-3.521515"/>
    <trkpt lat="50.708930" lon="-3.520993"/>
    <trkpt lat="50.708443" lon="-3.520453"/>
    <trkpt lat="50.708022" lon="-3.520031"/>
    <trkpt lat="50.707472" lon="-3.519524"/>
    <trkpt lat="50.707444" lon="-3.519498"/>
    <trkpt lat="50.707074" lon="-3.519072"/>
    <trkpt lat="50.706924" lon="-3.518981"/>
    <trkpt lat="50.706893" lon="-3.518987"/>
    <trkpt lat="50.706850" lon="-3.519136"/>
    <trkpt lat="50.706850" lon="-3.519136"/>
    <trkpt lat="50.706718" lon="-3.519655"/>
    <trkpt lat="50.706693" lon="-3.519897"/>
    <trkpt lat="50.706693" lon="-3.519897"/>
    <trkpt lat="50.706806" lon="-3.520011"/>
    <trkpt lat="50.707439" lon="-3.520637"/>
    <trkpt lat="50.708102" lon="-3.521389"/>
    <trkpt lat="50.708604" lon="-3.522060"/>
    <trkpt lat="50.708777" lon="-3.522333"/>
    <trkpt lat="50.708956" lon="-3.522705"/>
    <trkpt lat="50.709093" lon="-3.523033"/>
    <trkpt lat="50.709273" lon="-3.523388"/>
    <trkpt lat="50.709376" lon="-3.523485"/>
    <trkpt lat="50.709402" lon="-3.523464"/>
    <trkpt lat="50.709548" lon="-3.523002"/>
    <trkpt lat="50.709796" lon="-3.522253"/>
    <trkpt lat="50.709800" lon="-3.522191"/>
    <trkpt lat="50.709780" lon="-3.522121"/>
    <trkpt lat="50.709504" lon="-3.521738"/>
    <trkpt lat="50.709504" lon="-3.521738"/>
    <trkpt lat="50.709325" lon="-3.521515"/>
    <trkpt lat="50.708930" lon="-3.520993"/>
    <trkpt lat="50.708443" lon="-3.520453"/>
    <trkpt lat="50.708022" lon="-3.520031"/>
    <trkpt lat="50.707472" lon="-3.519524"/>
    <trkpt lat="50.707444" lon="-3.519498"/>
    <trkpt lat="50.707074" lon="-3.519072"/>
    <trkpt lat="50.706924" lon="-3.518981"/>
    <trkpt lat="50.706893" lon="-3.518987"/>
    <trkpt lat="50.706850" lon="-3.519136"/>
    <trkpt lat="50.706850" lon="-3.519136"/>
    <trkpt lat="50.706703" lon="-3.519383"/>
    <trkpt lat="50.706617" lon="-3.519447"/>
    <trkpt lat="50.706548" lon="-3.519463"/>
    <trkpt lat="50.706426" lon="-3.519350"/>
    <trkpt lat="50.706321" lon="-3.519223"/>
    <trkpt lat="50.706321" lon="-3.519223"/>
    <trkpt lat="50.706349" lon="-3.519048"/>
    <trkpt lat="50.706349" lon="-3.519048"/>
    <trkpt lat="50.706371" lon="-3.518963"/>
    <trkpt lat="50.706442" lon="-3.518735"/>
    <trkpt lat="50.706537" lon="-3.518523"/>
    <trkpt lat="50.706605" lon="-3.518428"/>
    <trkpt lat="50.706605" lon="-3.518428"/>
    <trkpt lat="50.706631" lon="-3.518361"/>
    <trkpt lat="50.706649" lon="-3.518288"/>
    <trkpt lat="50.706660" lon="-3.518231"/>
    <trkpt lat="50.706657" lon="-3.518191"/>
    <trkpt lat="50.706657" lon="-3.518191"/>
    <trkpt lat="50.706639" lon="-3.518159"/>
    <trkpt lat="50.706462" lon="-3.517996"/>
    <trkpt lat="50.706259" lon="-3.517789"/>
    <trkpt lat="50.705949" lon="-3.517489"/>
    <trkpt lat="50.705762" lon="-3.517312"/>
    <trkpt lat="50.705762" lon="-3.517312"/>
    <trkpt lat="50.705605" lon="-3.517162"/>
    <trkpt lat="50.705597" lon="-3.517140"/>
    <trkpt lat="50.705592" lon="-3.517110"/>
    <trkpt lat="50.705617" lon="-3.517011"/>
    <trkpt lat="50.705617" lon="-3.517011"/>
    <trkpt lat="50.705698" lon="-3.516827"/>
    <trkpt lat="50.705841" lon="-3.516484"/>
    <trkpt lat="50.705996" lon="-3.516080"/>
    <trkpt lat="50.705996" lon="-3.516080"/>
    <trkpt lat="50.706217" lon="-3.515553"/>
    <trkpt lat="50.706217" lon="-3.515553"/>
    <trkpt lat="50.706622" lon="-3.514997"/>
    <trkpt lat="50.706932" lon="-3.514574"/>
    <trkpt lat="50.706997" lon="-3.514560"/>
    <trkpt lat="50.706997" lon="-3.514560"/>
    <trkpt lat="50.707022" lon="-3.514515"/>
    <trkpt lat="50.707030" lon="-3.514476"/>
    <trkpt lat="50.707030" lon="-3.514476"/>
    <trkpt lat="50.707030" lon="-3.514425"/>
    <trkpt lat="50.707023" lon="-3.514372"/>
    <trkpt lat="50.706424" lon="-3.513214"/>
    <trkpt lat="50.706026" lon="-3.512463"/>
    <trkpt lat="50.705774" lon="-3.511994"/>
    <trkpt lat="50.705239" lon="-3.510737"/>
    <trkpt lat="50.704783" lon="-3.509559"/>
    <trkpt lat="50.704448" lon="-3.508912"/>
    <trkpt lat="50.704350" lon="-3.508591"/>
    <trkpt lat="50.704091" lon="-3.507987"/>
    <trkpt lat="50.704091" lon="-3.507987"/>
    <trkpt lat="50.703999" lon="-3.508030"/>
    <trkpt lat="50.703935" lon="-3.508301"/>
    <trkpt lat="50.703921" lon="-3.508331"/>
    <trkpt lat="50.703921" lon="-3.508331"/>
    <trkpt lat="50.703902" lon="-3.508345"/>
    <trkpt lat="50.703885" lon="-3.508348"/>
    <trkpt lat="50.703626" lon="-3.508262"/>
    <trkpt lat="50.703178" lon="-3.508183"/>
    <trkpt lat="50.703045" lon="-3.508148"/>
    <trkpt lat="50.702978" lon="-3.508108"/>
    <trkpt lat="50.702947" lon="-3.508066"/>
    <trkpt lat="50.702902" lon="-3.507965"/>
    <trkpt lat="50.702825" lon="-3.507663"/>
    <trkpt lat="50.702812" lon="-3.507503"/>
    <trkpt lat="50.702805" lon="-3.507137"/>
    <trkpt lat="50.702794" lon="-3.507053"/>
    <trkpt lat="50.702771" lon="-3.506986"/>
    <trkpt lat="50.702708" lon="-3.506860"/>
    <trkpt lat="50.702540" lon="-3.506623"/>
    <trkpt lat="50.702448" lon="-3.506527"/>
    <trkpt lat="50.702375" lon="-3.506503"/>
    <trkpt lat="50.702317" lon="-3.506522"/>
    <trkpt lat="50.702220" lon="-3.506642"/>
    <trkpt lat="50.701823" lon="-3.507203"/>
    <trkpt lat="50.701668" lon="-3.507329"/>
    <trkpt lat="50.701457" lon="-3.507522"/>
    <trkpt lat="50.701444" lon="-3.507550"/>
    <trkpt lat="50.701444" lon="-3.507565"/>
    <trkpt lat="50.701451" lon="-3.507578"/>
    <trkpt lat="50.701467" lon="-3.507580"/>
    <trkpt lat="50.701488" lon="-3.507553"/>
    <trkpt lat="50.701831" lon="-3.507236"/>
    <trkpt lat="50.702236" lon="-3.506670"/>
    <trkpt lat="50.702326" lon="-3.506558"/>
    <trkpt lat="50.702373" lon="-3.506544"/>
    <trkpt lat="50.702440" lon="-3.506556"/>
    <trkpt lat="50.702524" lon="-3.506640"/>
    <trkpt lat="50.702692" lon="-3.506884"/>
    <trkpt lat="50.702755" lon="-3.506992"/>
    <trkpt lat="50.702777" lon="-3.507063"/>
    <trkpt lat="50.702788" lon="-3.507136"/>
    <trkpt lat="50.702794" lon="-3.507506"/>
    <trkpt lat="50.702806" lon="-3.507672"/>
    <trkpt lat="50.702880" lon="-3.507975"/>
    <trkpt lat="50.702925" lon="-3.508091"/>
    <trkpt lat="50.702963" lon="-3.508142"/>
    <trkpt lat="50.703035" lon="-3.508178"/>
    <trkpt lat="50.703172" lon="-3.508214"/>
    <trkpt lat="50.703623" lon="-3.508305"/>
    <trkpt lat="50.703885" lon="-3.508383"/>
    <trkpt lat="50.703991" lon="-3.508465"/>
    <trkpt lat="50.704166" lon="-3.508657"/>
    <trkpt lat="50.704305" lon="-3.508860"/>
    <trkpt lat="50.704480" lon="-3.509287"/>
    <trkpt lat="50.704698" lon="-3.509771"/>
    <trkpt lat="50.704886" lon="-3.510212"/>
    <trkpt lat="50.705175" lon="-3.510965"/>
    <trkpt lat="50.705485" lon="-3.511612"/>
    <trkpt lat="50.705845" lon="-3.512323"/>
    <trkpt lat="50.706303" lon="-3.513167"/>
    <trkpt lat="50.706614" lon="-3.513857"/>
    <trkpt lat="50.706859" lon="-3.514297"/>
    <trkpt lat="50.706859" lon="-3.514297"/>
    <trkpt lat="50.706904" lon="-3.514321"/>
    <trkpt lat="50.706967" lon="-3.514393"/>
    <trkpt lat="50.707030" lon="-3.514476"/>
    <trkpt lat="50.707030" lon="-3.514476"/>
    <trkpt lat="50.707022" lon="-3.514515"/>
    <trkpt lat="50.706997" lon="-3.514560"/>
    <trkpt lat="50.706997" lon="-3.514560"/>
    <trkpt lat="50.706932" lon="-3.514574"/>
    <trkpt lat="50.706622" lon="-3.514997"/>
    <trkpt lat="50.706217" lon="-3.515553"/>
    <trkpt lat="50.706217" lon="-3.515553"/>
    <trkpt lat="50.705996" lon="-3.516080"/>
    <trkpt lat="50.705996" lon="-3.516080"/>
    <trkpt lat="50.705841" lon="-3.516484"/>
    <trkpt lat="50.705698" lon="-3.516827"/>
    <trkpt lat="50.705617" lon="-3.517011"/>
    <trkpt lat="50.705617" lon="-3.517011"/>
    <trkpt lat="50.705592" lon="-3.517110"/>
    <trkpt lat="50.705597" lon="-3.517140"/>
    <trkpt lat="50.705605" lon="-3.517162"/>
    <trkpt lat="50.705762" lon="-3.517312"/>
    <trkpt lat="50.705762" lon="-3.517312"/>
    <trkpt lat="50.705949" lon="-3.517489"/>
    <trkpt lat="50.706259" lon="-3.517789"/>
    <trkpt lat="50.706462" lon="-3.517996"/>
    <trkpt lat="50.706639" lon="-3.518159"/>
    <trkpt lat="50.706657" lon="-3.518191"/>
    <trkpt lat="50.706657" lon="-3.518191"/>
    <trkpt lat="50.706710" lon="-3.518289"/>
    <trkpt lat="50.706749" lon="-3.518350"/>
    <trkpt lat="50.706778" lon="-3.518388"/>
    <trkpt lat="50.706778" lon="-3.518388"/>
    <trkpt lat="50.706857" lon="-3.518409"/>
    <trkpt lat="50.706950" lon="-3.518462"/>
    <trkpt lat="50.707138" lon="-3.518630"/>
    <trkpt lat="50.707641" lon="-3.519117"/>
    <trkpt lat="50.708459" lon="-3.519942"/>
    <trkpt lat="50.708876" lon="-3.520343"/>
    <trkpt lat="50.708925" lon="-3.520399"/>
    <trkpt lat="50.709339" lon="-3.520960"/>
    <trkpt lat="50.709494" lon="-3.521177"/>
    <trkpt lat="50.709677" lon="-3.521480"/>
    <trkpt lat="50.710070" lon="-3.522111"/>
    <trkpt lat="50.710156" lon="-3.522254"/>
    <trkpt lat="50.710224" lon="-3.522363"/>
    <trkpt lat="50.710679" lon="-3.523120"/>
    <trkpt lat="50.710978" lon="-3.523572"/>
    <trkpt lat="50.710978" lon="-3.523572"/>
    <trkpt lat="50.711029" lon="-3.523766"/>
    <trkpt lat="50.711055" lon="-3.523902"/>
    <trkpt lat="50.711055" lon="-3.523902"/>
    <trkpt lat="50.711142" lon="-3.524004"/>
    <trkpt lat="50.711389" lon="-3.524310"/>
    <trkpt lat="50.711816" lon="-3.524779"/>
    <trkpt lat="50.712104" lon="-3.525120"/>
    <trkpt lat="50.712245" lon="-3.525324"/>
  </trkseg></trk>
</gpx>
