<?xml version="1.0" encoding="UTF-8"?>
<gpx version="1.1" creator="5k-9am-osm-route-cache v0.8.3" xmlns="http://www.topografix.com/GPX/1/1">
  <metadata><desc>Derived from OpenStreetMap ((c) OpenStreetMap contributors, ODbL). source=osm_9am_trace; built_by=v0.8.3</desc></metadata>
  <trk><name>Hoblingwell parkrun</name><trkseg>
    <trkpt lat="51.401395" lon="0.099063"/>
    <trkpt lat="51.401395" lon="0.099063"/>
    <trkpt lat="51.401394" lon="0.099063"/>
    <trkpt lat="51.401394" lon="0.099063"/>
    <trkpt lat="51.401390" lon="0.099063"/>
    <trkpt lat="51.401367" lon="0.099057"/>
    <trkpt lat="51.401342" lon="0.099056"/>
    <trkpt lat="51.401312" lon="0.099055"/>
    <trkpt lat="51.401283" lon="0.099050"/>
    <trkpt lat="51.401254" lon="0.099041"/>
    <trkpt lat="51.401225" lon="0.099031"/>
    <trkpt lat="51.401197" lon="0.099022"/>
    <trkpt lat="51.401166" lon="0.099015"/>
    <trkpt lat="51.401137" lon="0.099010"/>
    <trkpt lat="51.401112" lon="0.099012"/>
    <trkpt lat="51.401085" lon="0.099011"/>
    <trkpt lat="51.401061" lon="0.099007"/>
    <trkpt lat="51.401036" lon="0.099003"/>
    <trkpt lat="51.401013" lon="0.098994"/>
    <trkpt lat="51.400991" lon="0.098986"/>
    <trkpt lat="51.400967" lon="0.098980"/>
    <trkpt lat="51.400944" lon="0.098977"/>
    <trkpt lat="51.400923" lon="0.098974"/>
    <trkpt lat="51.400898" lon="0.098971"/>
    <trkpt lat="51.400877" lon="0.098968"/>
    <trkpt lat="51.400857" lon="0.098966"/>
    <trkpt lat="51.400835" lon="0.098966"/>
    <trkpt lat="51.400814" lon="0.098967"/>
    <trkpt lat="51.400793" lon="0.098966"/>
    <trkpt lat="51.400772" lon="0.098969"/>
    <trkpt lat="51.400753" lon="0.098970"/>
    <trkpt lat="51.400736" lon="0.098972"/>
    <trkpt lat="51.400722" lon="0.098983"/>
    <trkpt lat="51.400714" lon="0.099006"/>
    <trkpt lat="51.400710" lon="0.099040"/>
    <trkpt lat="51.400710" lon="0.099077"/>
    <trkpt lat="51.400708" lon="0.099117"/>
    <trkpt lat="51.400708" lon="0.099154"/>
    <trkpt lat="51.400707" lon="0.099194"/>
    <trkpt lat="51.400705" lon="0.099232"/>
    <trkpt lat="51.400703" lon="0.099269"/>
    <trkpt lat="51.400700" lon="0.099308"/>
    <trkpt lat="51.400698" lon="0.099348"/>
    <trkpt lat="51.400693" lon="0.099385"/>
    <trkpt lat="51.400690" lon="0.099425"/>
    <trkpt lat="51.400689" lon="0.099465"/>
    <trkpt lat="51.400688" lon="0.099502"/>
    <trkpt lat="51.400689" lon="0.099541"/>
    <trkpt lat="51.400688" lon="0.099576"/>
    <trkpt lat="51.400687" lon="0.099612"/>
    <trkpt lat="51.400688" lon="0.099652"/>
    <trkpt lat="51.400688" lon="0.099695"/>
    <trkpt lat="51.400687" lon="0.099734"/>
    <trkpt lat="51.400687" lon="0.099784"/>
    <trkpt lat="51.400687" lon="0.099821"/>
    <trkpt lat="51.400687" lon="0.099862"/>
    <trkpt lat="51.400690" lon="0.099900"/>
    <trkpt lat="51.400692" lon="0.099943"/>
    <trkpt lat="51.400692" lon="0.099984"/>
    <trkpt lat="51.400693" lon="0.100021"/>
    <trkpt lat="51.400693" lon="0.100062"/>
    <trkpt lat="51.400693" lon="0.100099"/>
    <trkpt lat="51.400696" lon="0.100133"/>
    <trkpt lat="51.400696" lon="0.100173"/>
    <trkpt lat="51.400694" lon="0.100210"/>
    <trkpt lat="51.400698" lon="0.100256"/>
    <trkpt lat="51.400701" lon="0.100287"/>
    <trkpt lat="51.400700" lon="0.100325"/>
    <trkpt lat="51.400698" lon="0.100364"/>
    <trkpt lat="51.400699" lon="0.100406"/>
    <trkpt lat="51.400701" lon="0.100446"/>
    <trkpt lat="51.400704" lon="0.100484"/>
    <trkpt lat="51.400704" lon="0.100524"/>
    <trkpt lat="51.400707" lon="0.100565"/>
    <trkpt lat="51.400712" lon="0.100604"/>
    <trkpt lat="51.400718" lon="0.100645"/>
    <trkpt lat="51.400724" lon="0.100686"/>
    <trkpt lat="51.400733" lon="0.100725"/>
    <trkpt lat="51.400740" lon="0.100764"/>
    <trkpt lat="51.400745" lon="0.100803"/>
    <trkpt lat="51.400749" lon="0.100840"/>
    <trkpt lat="51.400754" lon="0.100886"/>
    <trkpt lat="51.400760" lon="0.100918"/>
    <trkpt lat="51.400768" lon="0.100953"/>
    <trkpt lat="51.400776" lon="0.100992"/>
    <trkpt lat="51.400783" lon="0.101031"/>
    <trkpt lat="51.400789" lon="0.101073"/>
    <trkpt lat="51.400798" lon="0.101108"/>
    <trkpt lat="51.400809" lon="0.101145"/>
    <trkpt lat="51.400820" lon="0.101180"/>
    <trkpt lat="51.400833" lon="0.101214"/>
    <trkpt lat="51.400846" lon="0.101251"/>
    <trkpt lat="51.400857" lon="0.101289"/>
    <trkpt lat="51.400868" lon="0.101324"/>
    <trkpt lat="51.400873" lon="0.101365"/>
    <trkpt lat="51.400879" lon="0.101405"/>
    <trkpt lat="51.400889" lon="0.101442"/>
    <trkpt lat="51.400900" lon="0.101479"/>
    <trkpt lat="51.400912" lon="0.101518"/>
    <trkpt lat="51.400923" lon="0.101553"/>
    <trkpt lat="51.400935" lon="0.101585"/>
    <trkpt lat="51.400946" lon="0.101619"/>
    <trkpt lat="51.400954" lon="0.101654"/>
    <trkpt lat="51.400965" lon="0.101687"/>
    <trkpt lat="51.400980" lon="0.101719"/>
    <trkpt lat="51.400992" lon="0.101752"/>
    <trkpt lat="51.401002" lon="0.101787"/>
    <trkpt lat="51.401012" lon="0.101823"/>
    <trkpt lat="51.401021" lon="0.101859"/>
    <trkpt lat="51.401029" lon="0.101897"/>
    <trkpt lat="51.401038" lon="0.101933"/>
    <trkpt lat="51.401042" lon="0.101970"/>
    <trkpt lat="51.401047" lon="0.102012"/>
    <trkpt lat="51.401057" lon="0.102048"/>
    <trkpt lat="51.401066" lon="0.102089"/>
    <trkpt lat="51.401074" lon="0.102131"/>
    <trkpt lat="51.401082" lon="0.102172"/>
    <trkpt lat="51.401089" lon="0.102212"/>
    <trkpt lat="51.401093" lon="0.102244"/>
    <trkpt lat="51.401099" lon="0.102284"/>
    <trkpt lat="51.401108" lon="0.102324"/>
    <trkpt lat="51.401118" lon="0.102360"/>
    <trkpt lat="51.401128" lon="0.102398"/>
    <trkpt lat="51.401139" lon="0.102436"/>
    <trkpt lat="51.401148" lon="0.102466"/>
    <trkpt lat="51.401162" lon="0.102490"/>
    <trkpt lat="51.401178" lon="0.102510"/>
    <trkpt lat="51.401203" lon="0.102515"/>
    <trkpt lat="51.401224" lon="0.102506"/>
    <trkpt lat="51.401240" lon="0.102494"/>
    <trkpt lat="51.401262" lon="0.102479"/>
    <trkpt lat="51.401287" lon="0.102463"/>
    <trkpt lat="51.401309" lon="0.102451"/>
    <trkpt lat="51.401330" lon="0.102436"/>
    <trkpt lat="51.401345" lon="0.102423"/>
    <trkpt lat="51.401360" lon="0.102405"/>
    <trkpt lat="51.401373" lon="0.102381"/>
    <trkpt lat="51.401382" lon="0.102350"/>
    <trkpt lat="51.401390" lon="0.102321"/>
    <trkpt lat="51.401397" lon="0.102284"/>
    <trkpt lat="51.401402" lon="0.102259"/>
    <trkpt lat="51.401409" lon="0.102228"/>
    <trkpt lat="51.401412" lon="0.102196"/>
    <trkpt lat="51.401415" lon="0.102163"/>
    <trkpt lat="51.401420" lon="0.102124"/>
    <trkpt lat="51.401427" lon="0.102087"/>
    <trkpt lat="51.401433" lon="0.102051"/>
    <trkpt lat="51.401436" lon="0.102016"/>
    <trkpt lat="51.401439" lon="0.101980"/>
    <trkpt lat="51.401446" lon="0.101947"/>
    <trkpt lat="51.401450" lon="0.101916"/>
    <trkpt lat="51.401454" lon="0.101881"/>
    <trkpt lat="51.401458" lon="0.101847"/>
    <trkpt lat="51.401460" lon="0.101818"/>
    <trkpt lat="51.401463" lon="0.101786"/>
    <trkpt lat="51.401468" lon="0.101752"/>
    <trkpt lat="51.401468" lon="0.101716"/>
    <trkpt lat="51.401469" lon="0.101682"/>
    <trkpt lat="51.401469" lon="0.101643"/>
    <trkpt lat="51.401472" lon="0.101601"/>
    <trkpt lat="51.401476" lon="0.101562"/>
    <trkpt lat="51.401480" lon="0.101529"/>
    <trkpt lat="51.401484" lon="0.101493"/>
    <trkpt lat="51.401488" lon="0.101450"/>
    <trkpt lat="51.401491" lon="0.101423"/>
    <trkpt lat="51.401496" lon="0.101385"/>
    <trkpt lat="51.401502" lon="0.101347"/>
    <trkpt lat="51.401508" lon="0.101311"/>
    <trkpt lat="51.401512" lon="0.101278"/>
    <trkpt lat="51.401516" lon="0.101241"/>
    <trkpt lat="51.401520" lon="0.101199"/>
    <trkpt lat="51.401524" lon="0.101159"/>
    <trkpt lat="51.401527" lon="0.101120"/>
    <trkpt lat="51.401531" lon="0.101081"/>
    <trkpt lat="51.401537" lon="0.101046"/>
    <trkpt lat="51.401538" lon="0.101014"/>
    <trkpt lat="51.401540" lon="0.100979"/>
    <trkpt lat="51.401546" lon="0.100945"/>
    <trkpt lat="51.401551" lon="0.100909"/>
    <trkpt lat="51.401557" lon="0.100876"/>
    <trkpt lat="51.401560" lon="0.100842"/>
    <trkpt lat="51.401565" lon="0.100806"/>
    <trkpt lat="51.401569" lon="0.100772"/>
    <trkpt lat="51.401573" lon="0.100737"/>
    <trkpt lat="51.401579" lon="0.100700"/>
    <trkpt lat="51.401583" lon="0.100667"/>
    <trkpt lat="51.401584" lon="0.100633"/>
    <trkpt lat="51.401587" lon="0.100594"/>
    <trkpt lat="51.401590" lon="0.100557"/>
    <trkpt lat="51.401590" lon="0.100524"/>
    <trkpt lat="51.401590" lon="0.100487"/>
    <trkpt lat="51.401595" lon="0.100449"/>
    <trkpt lat="51.401599" lon="0.100412"/>
    <trkpt lat="51.401601" lon="0.100375"/>
    <trkpt lat="51.401601" lon="0.100337"/>
    <trkpt lat="51.401604" lon="0.100300"/>
    <trkpt lat="51.401609" lon="0.100267"/>
    <trkpt lat="51.401612" lon="0.100231"/>
    <trkpt lat="51.401618" lon="0.100190"/>
    <trkpt lat="51.401621" lon="0.100145"/>
    <trkpt lat="51.401627" lon="0.100106"/>
    <trkpt lat="51.401628" lon="0.100074"/>
    <trkpt lat="51.401634" lon="0.100030"/>
    <trkpt lat="51.401637" lon="0.099981"/>
    <trkpt lat="51.401640" lon="0.099949"/>
    <trkpt lat="51.401644" lon="0.099908"/>
    <trkpt lat="51.401653" lon="0.099874"/>
    <trkpt lat="51.401659" lon="0.099838"/>
    <trkpt lat="51.401665" lon="0.099799"/>
    <trkpt lat="51.401671" lon="0.099758"/>
    <trkpt lat="51.401676" lon="0.099723"/>
    <trkpt lat="51.401680" lon="0.099689"/>
    <trkpt lat="51.401684" lon="0.099649"/>
    <trkpt lat="51.401692" lon="0.099614"/>
    <trkpt lat="51.401698" lon="0.099582"/>
    <trkpt lat="51.401704" lon="0.099548"/>
    <trkpt lat="51.401708" lon="0.099512"/>
    <trkpt lat="51.401709" lon="0.099473"/>
    <trkpt lat="51.401710" lon="0.099439"/>
    <trkpt lat="51.401709" lon="0.099409"/>
    <trkpt lat="51.401713" lon="0.099372"/>
    <trkpt lat="51.401716" lon="0.099338"/>
    <trkpt lat="51.401720" lon="0.099297"/>
    <trkpt lat="51.401722" lon="0.099264"/>
    <trkpt lat="51.401721" lon="0.099228"/>
    <trkpt lat="51.401714" lon="0.099195"/>
    <trkpt lat="51.401701" lon="0.099166"/>
    <trkpt lat="51.401682" lon="0.099156"/>
    <trkpt lat="51.401654" lon="0.099151"/>
    <trkpt lat="51.401630" lon="0.099148"/>
    <trkpt lat="51.401611" lon="0.099144"/>
    <trkpt lat="51.401584" lon="0.099140"/>
    <trkpt lat="51.401560" lon="0.099142"/>
    <trkpt lat="51.401535" lon="0.099141"/>
    <trkpt lat="51.401511" lon="0.099138"/>
    <trkpt lat="51.401486" lon="0.099135"/>
    <trkpt lat="51.401462" lon="0.099132"/>
    <trkpt lat="51.401437" lon="0.099129"/>
    <trkpt lat="51.401415" lon="0.099125"/>
    <trkpt lat="51.401387" lon="0.099121"/>
    <trkpt lat="51.401369" lon="0.099120"/>
    <trkpt lat="51.401341" lon="0.099119"/>
    <trkpt lat="51.401318" lon="0.099111"/>
    <trkpt lat="51.401295" lon="0.099106"/>
    <trkpt lat="51.401272" lon="0.099100"/>
    <trkpt lat="51.401249" lon="0.099096"/>
    <trkpt lat="51.401226" lon="0.099093"/>
    <trkpt lat="51.401202" lon="0.099089"/>
    <trkpt lat="51.401177" lon="0.099086"/>
    <trkpt lat="51.401154" lon="0.099082"/>
    <trkpt lat="51.401132" lon="0.099078"/>
    <trkpt lat="51.401108" lon="0.099071"/>
    <trkpt lat="51.401084" lon="0.099063"/>
    <trkpt lat="51.401060" lon="0.099057"/>
    <trkpt lat="51.401036" lon="0.099054"/>
    <trkpt lat="51.401011" lon="0.099047"/>
    <trkpt lat="51.400992" lon="0.099042"/>
    <trkpt lat="51.400970" lon="0.099038"/>
    <trkpt lat="51.400942" lon="0.099035"/>
    <trkpt lat="51.400918" lon="0.099029"/>
    <trkpt lat="51.400899" lon="0.099027"/>
    <trkpt lat="51.400870" lon="0.099021"/>
    <trkpt lat="51.400845" lon="0.099018"/>
    <trkpt lat="51.400822" lon="0.099010"/>
    <trkpt lat="51.400802" lon="0.099005"/>
    <trkpt lat="51.400779" lon="0.099003"/>
    <trkpt lat="51.400762" lon="0.099000"/>
    <trkpt lat="51.400737" lon="0.099007"/>
    <trkpt lat="51.400723" lon="0.099021"/>
    <trkpt lat="51.400711" lon="0.099050"/>
    <trkpt lat="51.400708" lon="0.099089"/>
    <trkpt lat="51.400704" lon="0.099130"/>
    <trkpt lat="51.400702" lon="0.099166"/>
    <trkpt lat="51.400705" lon="0.099193"/>
    <trkpt lat="51.400713" lon="0.099219"/>
    <trkpt lat="51.400714" lon="0.099255"/>
    <trkpt lat="51.400716" lon="0.099289"/>
    <trkpt lat="51.400715" lon="0.099328"/>
    <trkpt lat="51.400714" lon="0.099369"/>
    <trkpt lat="51.400712" lon="0.099406"/>
    <trkpt lat="51.400710" lon="0.099435"/>
    <trkpt lat="51.400710" lon="0.099471"/>
    <trkpt lat="51.400709" lon="0.099508"/>
    <trkpt lat="51.400708" lon="0.099552"/>
    <trkpt lat="51.400707" lon="0.099592"/>
    <trkpt lat="51.400706" lon="0.099634"/>
    <trkpt lat="51.400705" lon="0.099667"/>
    <trkpt lat="51.400703" lon="0.099716"/>
    <trkpt lat="51.400702" lon="0.099763"/>
    <trkpt lat="51.400701" lon="0.099811"/>
    <trkpt lat="51.400701" lon="0.099850"/>
    <trkpt lat="51.400700" lon="0.099886"/>
    <trkpt lat="51.400696" lon="0.099925"/>
    <trkpt lat="51.400694" lon="0.099968"/>
    <trkpt lat="51.400695" lon="0.100007"/>
    <trkpt lat="51.400695" lon="0.100051"/>
    <trkpt lat="51.400694" lon="0.100096"/>
    <trkpt lat="51.400694" lon="0.100136"/>
    <trkpt lat="51.400694" lon="0.100174"/>
    <trkpt lat="51.400692" lon="0.100214"/>
    <trkpt lat="51.400690" lon="0.100252"/>
    <trkpt lat="51.400695" lon="0.100291"/>
    <trkpt lat="51.400698" lon="0.100328"/>
    <trkpt lat="51.400699" lon="0.100371"/>
    <trkpt lat="51.400700" lon="0.100409"/>
    <trkpt lat="51.400703" lon="0.100444"/>
    <trkpt lat="51.400704" lon="0.100483"/>
    <trkpt lat="51.400708" lon="0.100524"/>
    <trkpt lat="51.400709" lon="0.100567"/>
    <trkpt lat="51.400713" lon="0.100604"/>
    <trkpt lat="51.400722" lon="0.100643"/>
    <trkpt lat="51.400730" lon="0.100684"/>
    <trkpt lat="51.400737" lon="0.100720"/>
    <trkpt lat="51.400744" lon="0.100756"/>
    <trkpt lat="51.400754" lon="0.100792"/>
    <trkpt lat="51.400767" lon="0.100827"/>
    <trkpt lat="51.400777" lon="0.100863"/>
    <trkpt lat="51.400786" lon="0.100901"/>
    <trkpt lat="51.400794" lon="0.100939"/>
    <trkpt lat="51.400802" lon="0.100978"/>
    <trkpt lat="51.400814" lon="0.101015"/>
    <trkpt lat="51.400826" lon="0.101055"/>
    <trkpt lat="51.400833" lon="0.101094"/>
    <trkpt lat="51.400842" lon="0.101130"/>
    <trkpt lat="51.400853" lon="0.101170"/>
    <trkpt lat="51.400863" lon="0.101208"/>
    <trkpt lat="51.400871" lon="0.101245"/>
    <trkpt lat="51.400879" lon="0.101285"/>
    <trkpt lat="51.400886" lon="0.101327"/>
    <trkpt lat="51.400897" lon="0.101366"/>
    <trkpt lat="51.400909" lon="0.101405"/>
    <trkpt lat="51.400915" lon="0.101449"/>
    <trkpt lat="51.400922" lon="0.101492"/>
    <trkpt lat="51.400930" lon="0.101533"/>
    <trkpt lat="51.400940" lon="0.101575"/>
    <trkpt lat="51.400950" lon="0.101617"/>
    <trkpt lat="51.400962" lon="0.101655"/>
    <trkpt lat="51.400974" lon="0.101693"/>
    <trkpt lat="51.400988" lon="0.101732"/>
    <trkpt lat="51.401000" lon="0.101772"/>
    <trkpt lat="51.401010" lon="0.101807"/>
    <trkpt lat="51.401028" lon="0.101858"/>
    <trkpt lat="51.401041" lon="0.101902"/>
    <trkpt lat="51.401052" lon="0.101945"/>
    <trkpt lat="51.401064" lon="0.101988"/>
    <trkpt lat="51.401074" lon="0.102034"/>
    <trkpt lat="51.401082" lon="0.102076"/>
    <trkpt lat="51.401091" lon="0.102117"/>
    <trkpt lat="51.401100" lon="0.102161"/>
    <trkpt lat="51.401111" lon="0.102203"/>
    <trkpt lat="51.401121" lon="0.102241"/>
    <trkpt lat="51.401129" lon="0.102282"/>
    <trkpt lat="51.401141" lon="0.102322"/>
    <trkpt lat="51.401151" lon="0.102361"/>
    <trkpt lat="51.401159" lon="0.102388"/>
    <trkpt lat="51.401176" lon="0.102430"/>
    <trkpt lat="51.401193" lon="0.102462"/>
    <trkpt lat="51.401213" lon="0.102476"/>
    <trkpt lat="51.401233" lon="0.102477"/>
    <trkpt lat="51.401253" lon="0.102473"/>
    <trkpt lat="51.401274" lon="0.102464"/>
    <trkpt lat="51.401292" lon="0.102452"/>
    <trkpt lat="51.401313" lon="0.102438"/>
    <trkpt lat="51.401338" lon="0.102423"/>
    <trkpt lat="51.401357" lon="0.102407"/>
    <trkpt lat="51.401374" lon="0.102391"/>
    <trkpt lat="51.401393" lon="0.102369"/>
    <trkpt lat="51.401411" lon="0.102343"/>
    <trkpt lat="51.401427" lon="0.102315"/>
    <trkpt lat="51.401443" lon="0.102289"/>
    <trkpt lat="51.401457" lon="0.102263"/>
    <trkpt lat="51.401473" lon="0.102238"/>
    <trkpt lat="51.401488" lon="0.102206"/>
    <trkpt lat="51.401504" lon="0.102174"/>
    <trkpt lat="51.401521" lon="0.102143"/>
    <trkpt lat="51.401535" lon="0.102108"/>
    <trkpt lat="51.401542" lon="0.102068"/>
    <trkpt lat="51.401549" lon="0.102024"/>
    <trkpt lat="51.401555" lon="0.101980"/>
    <trkpt lat="51.401559" lon="0.101940"/>
    <trkpt lat="51.401565" lon="0.101901"/>
    <trkpt lat="51.401571" lon="0.101863"/>
    <trkpt lat="51.401575" lon="0.101825"/>
    <trkpt lat="51.401580" lon="0.101787"/>
    <trkpt lat="51.401585" lon="0.101747"/>
    <trkpt lat="51.401589" lon="0.101709"/>
    <trkpt lat="51.401594" lon="0.101673"/>
    <trkpt lat="51.401599" lon="0.101634"/>
    <trkpt lat="51.401603" lon="0.101597"/>
    <trkpt lat="51.401606" lon="0.101561"/>
    <trkpt lat="51.401609" lon="0.101522"/>
    <trkpt lat="51.401614" lon="0.101486"/>
    <trkpt lat="51.401619" lon="0.101451"/>
    <trkpt lat="51.401624" lon="0.101413"/>
    <trkpt lat="51.401629" lon="0.101379"/>
    <trkpt lat="51.401634" lon="0.101347"/>
    <trkpt lat="51.401638" lon="0.101311"/>
    <trkpt lat="51.401641" lon="0.101268"/>
    <trkpt lat="51.401644" lon="0.101233"/>
    <trkpt lat="51.401646" lon="0.101195"/>
    <trkpt lat="51.401647" lon="0.101157"/>
    <trkpt lat="51.401651" lon="0.101121"/>
    <trkpt lat="51.401655" lon="0.101085"/>
    <trkpt lat="51.401658" lon="0.101047"/>
    <trkpt lat="51.401663" lon="0.101006"/>
    <trkpt lat="51.401669" lon="0.100971"/>
    <trkpt lat="51.401672" lon="0.100937"/>
    <trkpt lat="51.401674" lon="0.100899"/>
    <trkpt lat="51.401678" lon="0.100863"/>
    <trkpt lat="51.401681" lon="0.100830"/>
    <trkpt lat="51.401685" lon="0.100795"/>
    <trkpt lat="51.401689" lon="0.100756"/>
    <trkpt lat="51.401693" lon="0.100720"/>
    <trkpt lat="51.401696" lon="0.100685"/>
    <trkpt lat="51.401702" lon="0.100647"/>
    <trkpt lat="51.401707" lon="0.100610"/>
    <trkpt lat="51.401709" lon="0.100576"/>
    <trkpt lat="51.401711" lon="0.100540"/>
    <trkpt lat="51.401716" lon="0.100501"/>
    <trkpt lat="51.401721" lon="0.100465"/>
    <trkpt lat="51.401725" lon="0.100430"/>
    <trkpt lat="51.401729" lon="0.100389"/>
    <trkpt lat="51.401732" lon="0.100349"/>
    <trkpt lat="51.401736" lon="0.100313"/>
    <trkpt lat="51.401741" lon="0.100280"/>
    <trkpt lat="51.401747" lon="0.100249"/>
    <trkpt lat="51.401757" lon="0.100217"/>
    <trkpt lat="51.401766" lon="0.100188"/>
    <trkpt lat="51.401772" lon="0.100155"/>
    <trkpt lat="51.401779" lon="0.100120"/>
    <trkpt lat="51.401786" lon="0.100087"/>
    <trkpt lat="51.401791" lon="0.100053"/>
    <trkpt lat="51.401797" lon="0.100017"/>
    <trkpt lat="51.401805" lon="0.099982"/>
    <trkpt lat="51.401812" lon="0.099949"/>
    <trkpt lat="51.401818" lon="0.099916"/>
    <trkpt lat="51.401826" lon="0.099878"/>
    <trkpt lat="51.401840" lon="0.099843"/>
    <trkpt lat="51.401859" lon="0.099811"/>
    <trkpt lat="51.401881" lon="0.099794"/>
    <trkpt lat="51.401908" lon="0.099789"/>
    <trkpt lat="51.401934" lon="0.099792"/>
    <trkpt lat="51.401958" lon="0.099798"/>
    <trkpt lat="51.401985" lon="0.099801"/>
    <trkpt lat="51.402012" lon="0.099802"/>
    <trkpt lat="51.402038" lon="0.099805"/>
    <trkpt lat="51.402064" lon="0.099808"/>
    <trkpt lat="51.402090" lon="0.099813"/>
    <trkpt lat="51.402114" lon="0.099820"/>
    <trkpt lat="51.402137" lon="0.099824"/>
    <trkpt lat="51.402162" lon="0.099829"/>
    <trkpt lat="51.402185" lon="0.099834"/>
    <trkpt lat="51.402208" lon="0.099840"/>
    <trkpt lat="51.402230" lon="0.099843"/>
    <trkpt lat="51.402255" lon="0.099844"/>
    <trkpt lat="51.402282" lon="0.099847"/>
    <trkpt lat="51.402305" lon="0.099851"/>
    <trkpt lat="51.402330" lon="0.099854"/>
    <trkpt lat="51.402357" lon="0.099856"/>
    <trkpt lat="51.402384" lon="0.099856"/>
    <trkpt lat="51.402409" lon="0.099856"/>
    <trkpt lat="51.402434" lon="0.099856"/>
    <trkpt lat="51.402456" lon="0.099857"/>
    <trkpt lat="51.402479" lon="0.099856"/>
    <trkpt lat="51.402507" lon="0.099855"/>
    <trkpt lat="51.402535" lon="0.099858"/>
    <trkpt lat="51.402559" lon="0.099866"/>
    <trkpt lat="51.402583" lon="0.099873"/>
    <trkpt lat="51.402607" lon="0.099879"/>
    <trkpt lat="51.402633" lon="0.099879"/>
    <trkpt lat="51.402659" lon="0.099882"/>
    <trkpt lat="51.402685" lon="0.099890"/>
    <trkpt lat="51.402711" lon="0.099899"/>
    <trkpt lat="51.402735" lon="0.099907"/>
    <trkpt lat="51.402762" lon="0.099911"/>
    <trkpt lat="51.402789" lon="0.099914"/>
    <trkpt lat="51.402814" lon="0.099917"/>
    <trkpt lat="51.402841" lon="0.099920"/>
    <trkpt lat="51.402868" lon="0.099925"/>
    <trkpt lat="51.402895" lon="0.099930"/>
    <trkpt lat="51.402921" lon="0.099930"/>
    <trkpt lat="51.402949" lon="0.099934"/>
    <trkpt lat="51.402977" lon="0.099938"/>
    <trkpt lat="51.403006" lon="0.099939"/>
    <trkpt lat="51.403034" lon="0.099944"/>
    <trkpt lat="51.403063" lon="0.099946"/>
    <trkpt lat="51.403088" lon="0.099950"/>
    <trkpt lat="51.403112" lon="0.099955"/>
    <trkpt lat="51.403139" lon="0.099959"/>
    <trkpt lat="51.403167" lon="0.099962"/>
    <trkpt lat="51.403192" lon="0.099969"/>
    <trkpt lat="51.403218" lon="0.099975"/>
    <trkpt lat="51.403245" lon="0.099976"/>
    <trkpt lat="51.403269" lon="0.099971"/>
    <trkpt lat="51.403292" lon="0.099957"/>
    <trkpt lat="51.403313" lon="0.099939"/>
    <trkpt lat="51.403332" lon="0.099925"/>
    <trkpt lat="51.403345" lon="0.099910"/>
    <trkpt lat="51.403360" lon="0.099893"/>
    <trkpt lat="51.403377" lon="0.099873"/>
    <trkpt lat="51.403389" lon="0.099849"/>
    <trkpt lat="51.403399" lon="0.099825"/>
    <trkpt lat="51.403415" lon="0.099801"/>
    <trkpt lat="51.403435" lon="0.099779"/>
    <trkpt lat="51.403456" lon="0.099762"/>
    <trkpt lat="51.403474" lon="0.099745"/>
    <trkpt lat="51.403492" lon="0.099724"/>
    <trkpt lat="51.403508" lon="0.099704"/>
    <trkpt lat="51.403523" lon="0.099681"/>
    <trkpt lat="51.403532" lon="0.099652"/>
    <trkpt lat="51.403539" lon="0.099618"/>
    <trkpt lat="51.403544" lon="0.099587"/>
    <trkpt lat="51.403547" lon="0.099556"/>
    <trkpt lat="51.403548" lon="0.099521"/>
    <trkpt lat="51.403553" lon="0.099486"/>
    <trkpt lat="51.403556" lon="0.099454"/>
    <trkpt lat="51.403560" lon="0.099419"/>
    <trkpt lat="51.403565" lon="0.099386"/>
    <trkpt lat="51.403567" lon="0.099352"/>
    <trkpt lat="51.403566" lon="0.099320"/>
    <trkpt lat="51.403560" lon="0.099286"/>
    <trkpt lat="51.403552" lon="0.099258"/>
    <trkpt lat="51.403540" lon="0.099232"/>
    <trkpt lat="51.403525" lon="0.099211"/>
    <trkpt lat="51.403507" lon="0.099188"/>
    <trkpt lat="51.403487" lon="0.099168"/>
    <trkpt lat="51.403467" lon="0.099149"/>
    <trkpt lat="51.403448" lon="0.099129"/>
    <trkpt lat="51.403430" lon="0.099106"/>
    <trkpt lat="51.403414" lon="0.099084"/>
    <trkpt lat="51.403399" lon="0.099064"/>
    <trkpt lat="51.403384" lon="0.099043"/>
    <trkpt lat="51.403367" lon="0.099025"/>
    <trkpt lat="51.403352" lon="0.099005"/>
    <trkpt lat="51.403338" lon="0.098987"/>
    <trkpt lat="51.403325" lon="0.098970"/>
    <trkpt lat="51.403308" lon="0.098953"/>
    <trkpt lat="51.403291" lon="0.098935"/>
    <trkpt lat="51.403273" lon="0.098915"/>
    <trkpt lat="51.403252" lon="0.098894"/>
    <trkpt lat="51.403233" lon="0.098873"/>
    <trkpt lat="51.403219" lon="0.098851"/>
    <trkpt lat="51.403208" lon="0.098830"/>
    <trkpt lat="51.403198" lon="0.098812"/>
    <trkpt lat="51.403186" lon="0.098796"/>
    <trkpt lat="51.403174" lon="0.098777"/>
    <trkpt lat="51.403161" lon="0.098755"/>
    <trkpt lat="51.403144" lon="0.098733"/>
    <trkpt lat="51.403131" lon="0.098711"/>
    <trkpt lat="51.403121" lon="0.098694"/>
    <trkpt lat="51.403109" lon="0.098681"/>
    <trkpt lat="51.403094" lon="0.098668"/>
    <trkpt lat="51.403078" lon="0.098655"/>
    <trkpt lat="51.403061" lon="0.098643"/>
    <trkpt lat="51.403045" lon="0.098629"/>
    <trkpt lat="51.403025" lon="0.098614"/>
    <trkpt lat="51.403006" lon="0.098602"/>
    <trkpt lat="51.402985" lon="0.098593"/>
    <trkpt lat="51.402964" lon="0.098583"/>
    <trkpt lat="51.402945" lon="0.098571"/>
    <trkpt lat="51.402926" lon="0.098564"/>
    <trkpt lat="51.402907" lon="0.098558"/>
    <trkpt lat="51.402887" lon="0.098558"/>
    <trkpt lat="51.402866" lon="0.098563"/>
    <trkpt lat="51.402847" lon="0.098567"/>
    <trkpt lat="51.402833" lon="0.098568"/>
    <trkpt lat="51.402813" lon="0.098567"/>
    <trkpt lat="51.402791" lon="0.098564"/>
    <trkpt lat="51.402772" lon="0.098563"/>
    <trkpt lat="51.402756" lon="0.098566"/>
    <trkpt lat="51.402734" lon="0.098572"/>
    <trkpt lat="51.402713" lon="0.098579"/>
    <trkpt lat="51.402695" lon="0.098587"/>
    <trkpt lat="51.402676" lon="0.098595"/>
    <trkpt lat="51.402655" lon="0.098602"/>
    <trkpt lat="51.402636" lon="0.098607"/>
    <trkpt lat="51.402615" lon="0.098616"/>
    <trkpt lat="51.402594" lon="0.098631"/>
    <trkpt lat="51.402572" lon="0.098642"/>
    <trkpt lat="51.402551" lon="0.098648"/>
    <trkpt lat="51.402527" lon="0.098655"/>
    <trkpt lat="51.402503" lon="0.098660"/>
    <trkpt lat="51.402482" lon="0.098665"/>
    <trkpt lat="51.402460" lon="0.098671"/>
    <trkpt lat="51.402438" lon="0.098674"/>
    <trkpt lat="51.402413" lon="0.098677"/>
    <trkpt lat="51.402387" lon="0.098678"/>
    <trkpt lat="51.402365" lon="0.098678"/>
    <trkpt lat="51.402343" lon="0.098676"/>
    <trkpt lat="51.402321" lon="0.098672"/>
    <trkpt lat="51.402297" lon="0.098663"/>
    <trkpt lat="51.402276" lon="0.098652"/>
    <trkpt lat="51.402256" lon="0.098641"/>
    <trkpt lat="51.402234" lon="0.098629"/>
    <trkpt lat="51.402211" lon="0.098617"/>
    <trkpt lat="51.402194" lon="0.098604"/>
    <trkpt lat="51.402176" lon="0.098588"/>
    <trkpt lat="51.402159" lon="0.098570"/>
    <trkpt lat="51.402144" lon="0.098552"/>
    <trkpt lat="51.402137" lon="0.098527"/>
    <trkpt lat="51.402133" lon="0.098498"/>
    <trkpt lat="51.402134" lon="0.098467"/>
    <trkpt lat="51.402136" lon="0.098437"/>
    <trkpt lat="51.402139" lon="0.098408"/>
    <trkpt lat="51.402141" lon="0.098374"/>
    <trkpt lat="51.402142" lon="0.098340"/>
    <trkpt lat="51.402144" lon="0.098316"/>
    <trkpt lat="51.402148" lon="0.098291"/>
    <trkpt lat="51.402145" lon="0.098262"/>
    <trkpt lat="51.402140" lon="0.098226"/>
    <trkpt lat="51.402137" lon="0.098189"/>
    <trkpt lat="51.402134" lon="0.098157"/>
    <trkpt lat="51.402132" lon="0.098120"/>
    <trkpt lat="51.402130" lon="0.098082"/>
    <trkpt lat="51.402129" lon="0.098048"/>
    <trkpt lat="51.402125" lon="0.098015"/>
    <trkpt lat="51.402119" lon="0.097982"/>
    <trkpt lat="51.402117" lon="0.097945"/>
    <trkpt lat="51.402115" lon="0.097909"/>
    <trkpt lat="51.402116" lon="0.097872"/>
    <trkpt lat="51.402118" lon="0.097834"/>
    <trkpt lat="51.402122" lon="0.097797"/>
    <trkpt lat="51.402126" lon="0.097762"/>
    <trkpt lat="51.402128" lon="0.097729"/>
    <trkpt lat="51.402132" lon="0.097693"/>
    <trkpt lat="51.402136" lon="0.097656"/>
    <trkpt lat="51.402140" lon="0.097621"/>
    <trkpt lat="51.402144" lon="0.097587"/>
    <trkpt lat="51.402151" lon="0.097549"/>
    <trkpt lat="51.402160" lon="0.097509"/>
    <trkpt lat="51.402168" lon="0.097471"/>
    <trkpt lat="51.402176" lon="0.097442"/>
    <trkpt lat="51.402188" lon="0.097398"/>
    <trkpt lat="51.402198" lon="0.097365"/>
    <trkpt lat="51.402210" lon="0.097334"/>
    <trkpt lat="51.402222" lon="0.097298"/>
    <trkpt lat="51.402236" lon="0.097267"/>
    <trkpt lat="51.402250" lon="0.097232"/>
    <trkpt lat="51.402265" lon="0.097198"/>
    <trkpt lat="51.402283" lon="0.097165"/>
    <trkpt lat="51.402302" lon="0.097139"/>
    <trkpt lat="51.402320" lon="0.097109"/>
    <trkpt lat="51.402338" lon="0.097081"/>
    <trkpt lat="51.402357" lon="0.097052"/>
    <trkpt lat="51.402377" lon="0.097030"/>
    <trkpt lat="51.402396" lon="0.097012"/>
    <trkpt lat="51.402416" lon="0.096990"/>
    <trkpt lat="51.402435" lon="0.096964"/>
    <trkpt lat="51.402454" lon="0.096939"/>
    <trkpt lat="51.402472" lon="0.096914"/>
    <trkpt lat="51.402491" lon="0.096887"/>
    <trkpt lat="51.402513" lon="0.096864"/>
    <trkpt lat="51.402530" lon="0.096845"/>
    <trkpt lat="51.402551" lon="0.096825"/>
    <trkpt lat="51.402571" lon="0.096803"/>
    <trkpt lat="51.402588" lon="0.096777"/>
    <trkpt lat="51.402606" lon="0.096753"/>
    <trkpt lat="51.402622" lon="0.096730"/>
    <trkpt lat="51.402640" lon="0.096706"/>
    <trkpt lat="51.402655" lon="0.096683"/>
    <trkpt lat="51.402668" lon="0.096661"/>
    <trkpt lat="51.402684" lon="0.096642"/>
    <trkpt lat="51.402700" lon="0.096623"/>
    <trkpt lat="51.402715" lon="0.096596"/>
    <trkpt lat="51.402729" lon="0.096572"/>
    <trkpt lat="51.402745" lon="0.096546"/>
    <trkpt lat="51.402761" lon="0.096525"/>
    <trkpt lat="51.402777" lon="0.096505"/>
    <trkpt lat="51.402791" lon="0.096486"/>
    <trkpt lat="51.402807" lon="0.096465"/>
    <trkpt lat="51.402824" lon="0.096444"/>
    <trkpt lat="51.402839" lon="0.096425"/>
    <trkpt lat="51.402854" lon="0.096408"/>
    <trkpt lat="51.402868" lon="0.096389"/>
    <trkpt lat="51.402882" lon="0.096367"/>
    <trkpt lat="51.402897" lon="0.096349"/>
    <trkpt lat="51.402908" lon="0.096328"/>
    <trkpt lat="51.402922" lon="0.096307"/>
    <trkpt lat="51.402937" lon="0.096284"/>
    <trkpt lat="51.402953" lon="0.096266"/>
    <trkpt lat="51.402967" lon="0.096247"/>
    <trkpt lat="51.402982" lon="0.096224"/>
    <trkpt lat="51.402999" lon="0.096197"/>
    <trkpt lat="51.403014" lon="0.096173"/>
    <trkpt lat="51.403028" lon="0.096149"/>
    <trkpt lat="51.403041" lon="0.096127"/>
    <trkpt lat="51.403055" lon="0.096106"/>
    <trkpt lat="51.403069" lon="0.096086"/>
    <trkpt lat="51.403082" lon="0.096061"/>
    <trkpt lat="51.403093" lon="0.096037"/>
    <trkpt lat="51.403105" lon="0.096012"/>
    <trkpt lat="51.403116" lon="0.095991"/>
    <trkpt lat="51.403125" lon="0.095969"/>
    <trkpt lat="51.403134" lon="0.095942"/>
    <trkpt lat="51.403143" lon="0.095913"/>
    <trkpt lat="51.403152" lon="0.095886"/>
    <trkpt lat="51.403159" lon="0.095856"/>
    <trkpt lat="51.403166" lon="0.095827"/>
    <trkpt lat="51.403172" lon="0.095798"/>
    <trkpt lat="51.403180" lon="0.095772"/>
    <trkpt lat="51.403184" lon="0.095746"/>
    <trkpt lat="51.403187" lon="0.095722"/>
    <trkpt lat="51.403188" lon="0.095691"/>
    <trkpt lat="51.403189" lon="0.095658"/>
    <trkpt lat="51.403190" lon="0.095627"/>
    <trkpt lat="51.403190" lon="0.095593"/>
    <trkpt lat="51.403192" lon="0.095559"/>
    <trkpt lat="51.403195" lon="0.095526"/>
    <trkpt lat="51.403194" lon="0.095495"/>
    <trkpt lat="51.403192" lon="0.095464"/>
    <trkpt lat="51.403189" lon="0.095431"/>
    <trkpt lat="51.403187" lon="0.095399"/>
    <trkpt lat="51.403185" lon="0.095370"/>
    <trkpt lat="51.403184" lon="0.095342"/>
    <trkpt lat="51.403183" lon="0.095311"/>
    <trkpt lat="51.403184" lon="0.095281"/>
    <trkpt lat="51.403184" lon="0.095248"/>
    <trkpt lat="51.403187" lon="0.095219"/>
    <trkpt lat="51.403194" lon="0.095193"/>
    <trkpt lat="51.403201" lon="0.095167"/>
    <trkpt lat="51.403206" lon="0.095137"/>
    <trkpt lat="51.403212" lon="0.095108"/>
    <trkpt lat="51.403219" lon="0.095086"/>
    <trkpt lat="51.403233" lon="0.095078"/>
    <trkpt lat="51.403252" lon="0.095080"/>
    <trkpt lat="51.403273" lon="0.095085"/>
    <trkpt lat="51.403296" lon="0.095092"/>
    <trkpt lat="51.403322" lon="0.095106"/>
    <trkpt lat="51.403348" lon="0.095121"/>
    <trkpt lat="51.403377" lon="0.095133"/>
    <trkpt lat="51.403404" lon="0.095137"/>
    <trkpt lat="51.403426" lon="0.095142"/>
    <trkpt lat="51.403447" lon="0.095146"/>
    <trkpt lat="51.403473" lon="0.095150"/>
    <trkpt lat="51.403503" lon="0.095151"/>
    <trkpt lat="51.403529" lon="0.095157"/>
    <trkpt lat="51.403559" lon="0.095165"/>
    <trkpt lat="51.403587" lon="0.095179"/>
    <trkpt lat="51.403612" lon="0.095195"/>
    <trkpt lat="51.403636" lon="0.095215"/>
    <trkpt lat="51.403661" lon="0.095236"/>
    <trkpt lat="51.403687" lon="0.095253"/>
    <trkpt lat="51.403709" lon="0.095271"/>
    <trkpt lat="51.403736" lon="0.095285"/>
    <trkpt lat="51.403763" lon="0.095298"/>
    <trkpt lat="51.403791" lon="0.095312"/>
    <trkpt lat="51.403818" lon="0.095325"/>
    <trkpt lat="51.403843" lon="0.095335"/>
    <trkpt lat="51.403866" lon="0.095352"/>
    <trkpt lat="51.403887" lon="0.095374"/>
    <trkpt lat="51.403900" lon="0.095405"/>
    <trkpt lat="51.403901" lon="0.095436"/>
    <trkpt lat="51.403899" lon="0.095469"/>
    <trkpt lat="51.403900" lon="0.095502"/>
    <trkpt lat="51.403903" lon="0.095549"/>
    <trkpt lat="51.403897" lon="0.095589"/>
    <trkpt lat="51.403895" lon="0.095621"/>
    <trkpt lat="51.403893" lon="0.095656"/>
    <trkpt lat="51.403887" lon="0.095695"/>
    <trkpt lat="51.403872" lon="0.095739"/>
    <trkpt lat="51.403860" lon="0.095776"/>
    <trkpt lat="51.403852" lon="0.095810"/>
    <trkpt lat="51.403847" lon="0.095841"/>
    <trkpt lat="51.403850" lon="0.095872"/>
    <trkpt lat="51.403845" lon="0.095903"/>
    <trkpt lat="51.403838" lon="0.095938"/>
    <trkpt lat="51.403836" lon="0.095972"/>
    <trkpt lat="51.403835" lon="0.096010"/>
    <trkpt lat="51.403830" lon="0.096047"/>
    <trkpt lat="51.403825" lon="0.096081"/>
    <trkpt lat="51.403820" lon="0.096115"/>
    <trkpt lat="51.403816" lon="0.096150"/>
    <trkpt lat="51.403810" lon="0.096186"/>
    <trkpt lat="51.403802" lon="0.096223"/>
    <trkpt lat="51.403796" lon="0.096264"/>
    <trkpt lat="51.403783" lon="0.096305"/>
    <trkpt lat="51.403772" lon="0.096339"/>
    <trkpt lat="51.403761" lon="0.096371"/>
    <trkpt lat="51.403748" lon="0.096407"/>
    <trkpt lat="51.403734" lon="0.096444"/>
    <trkpt lat="51.403722" lon="0.096479"/>
    <trkpt lat="51.403714" lon="0.096509"/>
    <trkpt lat="51.403704" lon="0.096540"/>
    <trkpt lat="51.403690" lon="0.096572"/>
    <trkpt lat="51.403676" lon="0.096604"/>
    <trkpt lat="51.403661" lon="0.096639"/>
    <trkpt lat="51.403646" lon="0.096672"/>
    <trkpt lat="51.403633" lon="0.096701"/>
    <trkpt lat="51.403620" lon="0.096728"/>
    <trkpt lat="51.403604" lon="0.096752"/>
    <trkpt lat="51.403588" lon="0.096774"/>
    <trkpt lat="51.403573" lon="0.096801"/>
    <trkpt lat="51.403557" lon="0.096830"/>
    <trkpt lat="51.403538" lon="0.096860"/>
    <trkpt lat="51.403520" lon="0.096887"/>
    <trkpt lat="51.403500" lon="0.096915"/>
    <trkpt lat="51.403480" lon="0.096946"/>
    <trkpt lat="51.403463" lon="0.096979"/>
    <trkpt lat="51.403444" lon="0.097006"/>
    <trkpt lat="51.403429" lon="0.097029"/>
    <trkpt lat="51.403416" lon="0.097058"/>
    <trkpt lat="51.403402" lon="0.097092"/>
    <trkpt lat="51.403389" lon="0.097124"/>
    <trkpt lat="51.403377" lon="0.097157"/>
    <trkpt lat="51.403364" lon="0.097189"/>
    <trkpt lat="51.403348" lon="0.097216"/>
    <trkpt lat="51.403330" lon="0.097241"/>
    <trkpt lat="51.403316" lon="0.097268"/>
    <trkpt lat="51.403300" lon="0.097289"/>
    <trkpt lat="51.403281" lon="0.097305"/>
    <trkpt lat="51.403264" lon="0.097319"/>
    <trkpt lat="51.403252" lon="0.097336"/>
    <trkpt lat="51.403238" lon="0.097353"/>
    <trkpt lat="51.403225" lon="0.097374"/>
    <trkpt lat="51.403204" lon="0.097400"/>
    <trkpt lat="51.403186" lon="0.097431"/>
    <trkpt lat="51.403171" lon="0.097468"/>
    <trkpt lat="51.403160" lon="0.097512"/>
    <trkpt lat="51.403155" lon="0.097552"/>
    <trkpt lat="51.403156" lon="0.097588"/>
    <trkpt lat="51.403168" lon="0.097611"/>
    <trkpt lat="51.403182" lon="0.097633"/>
    <trkpt lat="51.403195" lon="0.097658"/>
    <trkpt lat="51.403211" lon="0.097681"/>
    <trkpt lat="51.403231" lon="0.097696"/>
    <trkpt lat="51.403261" lon="0.097698"/>
    <trkpt lat="51.403283" lon="0.097709"/>
    <trkpt lat="51.403309" lon="0.097728"/>
    <trkpt lat="51.403333" lon="0.097751"/>
    <trkpt lat="51.403354" lon="0.097770"/>
    <trkpt lat="51.403374" lon="0.097783"/>
    <trkpt lat="51.403395" lon="0.097796"/>
    <trkpt lat="51.403420" lon="0.097808"/>
    <trkpt lat="51.403444" lon="0.097826"/>
    <trkpt lat="51.403466" lon="0.097851"/>
    <trkpt lat="51.403488" lon="0.097873"/>
    <trkpt lat="51.403510" lon="0.097896"/>
    <trkpt lat="51.403530" lon="0.097920"/>
    <trkpt lat="51.403551" lon="0.097950"/>
    <trkpt lat="51.403571" lon="0.097977"/>
    <trkpt lat="51.403587" lon="0.098005"/>
    <trkpt lat="51.403601" lon="0.098036"/>
    <trkpt lat="51.403611" lon="0.098074"/>
    <trkpt lat="51.403620" lon="0.098111"/>
    <trkpt lat="51.403632" lon="0.098147"/>
    <trkpt lat="51.403641" lon="0.098187"/>
    <trkpt lat="51.403645" lon="0.098230"/>
    <trkpt lat="51.403650" lon="0.098272"/>
    <trkpt lat="51.403654" lon="0.098314"/>
    <trkpt lat="51.403657" lon="0.098356"/>
    <trkpt lat="51.403658" lon="0.098396"/>
    <trkpt lat="51.403661" lon="0.098437"/>
    <trkpt lat="51.403661" lon="0.098478"/>
    <trkpt lat="51.403658" lon="0.098521"/>
    <trkpt lat="51.403659" lon="0.098563"/>
    <trkpt lat="51.403656" lon="0.098606"/>
    <trkpt lat="51.403650" lon="0.098647"/>
    <trkpt lat="51.403646" lon="0.098685"/>
    <trkpt lat="51.403645" lon="0.098723"/>
    <trkpt lat="51.403642" lon="0.098759"/>
    <trkpt lat="51.403638" lon="0.098795"/>
    <trkpt lat="51.403637" lon="0.098833"/>
    <trkpt lat="51.403637" lon="0.098877"/>
    <trkpt lat="51.403636" lon="0.098919"/>
    <trkpt lat="51.403635" lon="0.098958"/>
    <trkpt lat="51.403632" lon="0.098997"/>
    <trkpt lat="51.403629" lon="0.099037"/>
    <trkpt lat="51.403624" lon="0.099074"/>
    <trkpt lat="51.403620" lon="0.099109"/>
    <trkpt lat="51.403617" lon="0.099147"/>
    <trkpt lat="51.403613" lon="0.099186"/>
    <trkpt lat="51.403610" lon="0.099222"/>
    <trkpt lat="51.403607" lon="0.099259"/>
    <trkpt lat="51.403608" lon="0.099303"/>
    <trkpt lat="51.403609" lon="0.099345"/>
    <trkpt lat="51.403608" lon="0.099386"/>
    <trkpt lat="51.403610" lon="0.099427"/>
    <trkpt lat="51.403606" lon="0.099469"/>
    <trkpt lat="51.403600" lon="0.099509"/>
    <trkpt lat="51.403597" lon="0.099547"/>
    <trkpt lat="51.403595" lon="0.099585"/>
    <trkpt lat="51.403591" lon="0.099622"/>
    <trkpt lat="51.403588" lon="0.099656"/>
    <trkpt lat="51.403587" lon="0.099695"/>
    <trkpt lat="51.403588" lon="0.099734"/>
    <trkpt lat="51.403587" lon="0.099776"/>
    <trkpt lat="51.403585" lon="0.099818"/>
    <trkpt lat="51.403583" lon="0.099866"/>
    <trkpt lat="51.403584" lon="0.099911"/>
    <trkpt lat="51.403590" lon="0.099950"/>
    <trkpt lat="51.403596" lon="0.099994"/>
    <trkpt lat="51.403599" lon="0.100044"/>
    <trkpt lat="51.403598" lon="0.100096"/>
    <trkpt lat="51.403600" lon="0.100148"/>
    <trkpt lat="51.403602" lon="0.100194"/>
    <trkpt lat="51.403604" lon="0.100233"/>
    <trkpt lat="51.403606" lon="0.100273"/>
    <trkpt lat="51.403608" lon="0.100314"/>
    <trkpt lat="51.403611" lon="0.100356"/>
    <trkpt lat="51.403615" lon="0.100397"/>
    <trkpt lat="51.403619" lon="0.100439"/>
    <trkpt lat="51.403619" lon="0.100477"/>
    <trkpt lat="51.403623" lon="0.100512"/>
    <trkpt lat="51.403626" lon="0.100547"/>
    <trkpt lat="51.403626" lon="0.100586"/>
    <trkpt lat="51.403623" lon="0.100624"/>
    <trkpt lat="51.403623" lon="0.100660"/>
    <trkpt lat="51.403624" lon="0.100696"/>
    <trkpt lat="51.403625" lon="0.100732"/>
    <trkpt lat="51.403623" lon="0.100768"/>
    <trkpt lat="51.403625" lon="0.100802"/>
    <trkpt lat="51.403628" lon="0.100840"/>
    <trkpt lat="51.403630" lon="0.100878"/>
    <trkpt lat="51.403633" lon="0.100917"/>
    <trkpt lat="51.403633" lon="0.100954"/>
    <trkpt lat="51.403634" lon="0.100992"/>
    <trkpt lat="51.403632" lon="0.101031"/>
    <trkpt lat="51.403631" lon="0.101070"/>
    <trkpt lat="51.403631" lon="0.101112"/>
    <trkpt lat="51.403628" lon="0.101152"/>
    <trkpt lat="51.403627" lon="0.101188"/>
    <trkpt lat="51.403627" lon="0.101222"/>
    <trkpt lat="51.403626" lon="0.101257"/>
    <trkpt lat="51.403624" lon="0.101291"/>
    <trkpt lat="51.403624" lon="0.101326"/>
    <trkpt lat="51.403626" lon="0.101362"/>
    <trkpt lat="51.403626" lon="0.101396"/>
    <trkpt lat="51.403622" lon="0.101428"/>
    <trkpt lat="51.403617" lon="0.101463"/>
    <trkpt lat="51.403611" lon="0.101497"/>
    <trkpt lat="51.403602" lon="0.101529"/>
    <trkpt lat="51.403592" lon="0.101563"/>
    <trkpt lat="51.403584" lon="0.101602"/>
    <trkpt lat="51.403572" lon="0.101638"/>
    <trkpt lat="51.403563" lon="0.101669"/>
    <trkpt lat="51.403556" lon="0.101705"/>
    <trkpt lat="51.403550" lon="0.101741"/>
    <trkpt lat="51.403545" lon="0.101778"/>
    <trkpt lat="51.403538" lon="0.101815"/>
    <trkpt lat="51.403533" lon="0.101855"/>
    <trkpt lat="51.403528" lon="0.101892"/>
    <trkpt lat="51.403521" lon="0.101930"/>
    <trkpt lat="51.403513" lon="0.101968"/>
    <trkpt lat="51.403506" lon="0.102008"/>
    <trkpt lat="51.403497" lon="0.102044"/>
    <trkpt lat="51.403491" lon="0.102080"/>
    <trkpt lat="51.403485" lon="0.102120"/>
    <trkpt lat="51.403478" lon="0.102156"/>
    <trkpt lat="51.403472" lon="0.102187"/>
    <trkpt lat="51.403464" lon="0.102221"/>
    <trkpt lat="51.403459" lon="0.102252"/>
    <trkpt lat="51.403454" lon="0.102285"/>
    <trkpt lat="51.403452" lon="0.102321"/>
    <trkpt lat="51.403450" lon="0.102354"/>
    <trkpt lat="51.403446" lon="0.102380"/>
    <trkpt lat="51.403443" lon="0.102405"/>
    <trkpt lat="51.403439" lon="0.102431"/>
    <trkpt lat="51.403435" lon="0.102460"/>
    <trkpt lat="51.403432" lon="0.102493"/>
    <trkpt lat="51.403430" lon="0.102529"/>
    <trkpt lat="51.403428" lon="0.102566"/>
    <trkpt lat="51.403426" lon="0.102601"/>
    <trkpt lat="51.403425" lon="0.102638"/>
    <trkpt lat="51.403423" lon="0.102676"/>
    <trkpt lat="51.403418" lon="0.102710"/>
    <trkpt lat="51.403413" lon="0.102740"/>
    <trkpt lat="51.403407" lon="0.102772"/>
    <trkpt lat="51.403399" lon="0.102804"/>
    <trkpt lat="51.403393" lon="0.102837"/>
    <trkpt lat="51.403384" lon="0.102874"/>
    <trkpt lat="51.403379" lon="0.102914"/>
    <trkpt lat="51.403372" lon="0.102950"/>
    <trkpt lat="51.403367" lon="0.102981"/>
    <trkpt lat="51.403361" lon="0.103015"/>
    <trkpt lat="51.403352" lon="0.103047"/>
    <trkpt lat="51.403342" lon="0.103081"/>
    <trkpt lat="51.403335" lon="0.103106"/>
    <trkpt lat="51.403328" lon="0.103133"/>
    <trkpt lat="51.403315" lon="0.103152"/>
    <trkpt lat="51.403298" lon="0.103162"/>
    <trkpt lat="51.403278" lon="0.103160"/>
    <trkpt lat="51.403255" lon="0.103157"/>
    <trkpt lat="51.403232" lon="0.103151"/>
    <trkpt lat="51.403209" lon="0.103143"/>
    <trkpt lat="51.403190" lon="0.103139"/>
    <trkpt lat="51.403169" lon="0.103129"/>
    <trkpt lat="51.403146" lon="0.103119"/>
    <trkpt lat="51.403124" lon="0.103114"/>
    <trkpt lat="51.403104" lon="0.103101"/>
    <trkpt lat="51.403085" lon="0.103086"/>
    <trkpt lat="51.403066" lon="0.103075"/>
    <trkpt lat="51.403043" lon="0.103066"/>
    <trkpt lat="51.403021" lon="0.103054"/>
    <trkpt lat="51.403000" lon="0.103042"/>
    <trkpt lat="51.402980" lon="0.103035"/>
    <trkpt lat="51.402963" lon="0.103029"/>
    <trkpt lat="51.402945" lon="0.103022"/>
    <trkpt lat="51.402928" lon="0.103013"/>
    <trkpt lat="51.402911" lon="0.103004"/>
    <trkpt lat="51.402891" lon="0.102995"/>
    <trkpt lat="51.402868" lon="0.102988"/>
    <trkpt lat="51.402846" lon="0.102978"/>
    <trkpt lat="51.402828" lon="0.102969"/>
    <trkpt lat="51.402808" lon="0.102958"/>
    <trkpt lat="51.402789" lon="0.102949"/>
    <trkpt lat="51.402770" lon="0.102940"/>
    <trkpt lat="51.402753" lon="0.102929"/>
    <trkpt lat="51.402735" lon="0.102916"/>
    <trkpt lat="51.402718" lon="0.102903"/>
    <trkpt lat="51.402702" lon="0.102893"/>
    <trkpt lat="51.402685" lon="0.102883"/>
    <trkpt lat="51.402664" lon="0.102874"/>
    <trkpt lat="51.402643" lon="0.102868"/>
    <trkpt lat="51.402624" lon="0.102861"/>
    <trkpt lat="51.402607" lon="0.102851"/>
    <trkpt lat="51.402588" lon="0.102840"/>
    <trkpt lat="51.402569" lon="0.102830"/>
    <trkpt lat="51.402553" lon="0.102823"/>
    <trkpt lat="51.402535" lon="0.102815"/>
    <trkpt lat="51.402514" lon="0.102807"/>
    <trkpt lat="51.402495" lon="0.102798"/>
    <trkpt lat="51.402477" lon="0.102790"/>
    <trkpt lat="51.402462" lon="0.102780"/>
    <trkpt lat="51.402445" lon="0.102769"/>
    <trkpt lat="51.402428" lon="0.102761"/>
    <trkpt lat="51.402415" lon="0.102752"/>
    <trkpt lat="51.402399" lon="0.102746"/>
    <trkpt lat="51.402380" lon="0.102738"/>
    <trkpt lat="51.402361" lon="0.102730"/>
    <trkpt lat="51.402350" lon="0.102718"/>
    <trkpt lat="51.402347" lon="0.102695"/>
    <trkpt lat="51.402351" lon="0.102667"/>
    <trkpt lat="51.402357" lon="0.102634"/>
    <trkpt lat="51.402372" lon="0.102592"/>
    <trkpt lat="51.402382" lon="0.102560"/>
    <trkpt lat="51.402391" lon="0.102534"/>
    <trkpt lat="51.402401" lon="0.102506"/>
    <trkpt lat="51.402411" lon="0.102472"/>
    <trkpt lat="51.402419" lon="0.102436"/>
    <trkpt lat="51.402424" lon="0.102397"/>
    <trkpt lat="51.402429" lon="0.102357"/>
    <trkpt lat="51.402441" lon="0.102317"/>
    <trkpt lat="51.402448" lon="0.102280"/>
    <trkpt lat="51.402456" lon="0.102243"/>
    <trkpt lat="51.402462" lon="0.102208"/>
    <trkpt lat="51.402468" lon="0.102172"/>
    <trkpt lat="51.402472" lon="0.102136"/>
    <trkpt lat="51.402476" lon="0.102100"/>
    <trkpt lat="51.402484" lon="0.102063"/>
    <trkpt lat="51.402490" lon="0.102028"/>
    <trkpt lat="51.402496" lon="0.101993"/>
    <trkpt lat="51.402502" lon="0.101955"/>
    <trkpt lat="51.402510" lon="0.101918"/>
    <trkpt lat="51.402515" lon="0.101880"/>
    <trkpt lat="51.402519" lon="0.101843"/>
    <trkpt lat="51.402525" lon="0.101806"/>
    <trkpt lat="51.402532" lon="0.101772"/>
    <trkpt lat="51.402538" lon="0.101740"/>
    <trkpt lat="51.402546" lon="0.101704"/>
    <trkpt lat="51.402553" lon="0.101664"/>
    <trkpt lat="51.402558" lon="0.101627"/>
    <trkpt lat="51.402563" lon="0.101592"/>
    <trkpt lat="51.402569" lon="0.101557"/>
    <trkpt lat="51.402575" lon="0.101518"/>
    <trkpt lat="51.402581" lon="0.101482"/>
    <trkpt lat="51.402588" lon="0.101448"/>
    <trkpt lat="51.402598" lon="0.101415"/>
    <trkpt lat="51.402609" lon="0.101383"/>
    <trkpt lat="51.402617" lon="0.101353"/>
    <trkpt lat="51.402623" lon="0.101321"/>
    <trkpt lat="51.402627" lon="0.101288"/>
    <trkpt lat="51.402630" lon="0.101253"/>
    <trkpt lat="51.402634" lon="0.101220"/>
    <trkpt lat="51.402640" lon="0.101183"/>
    <trkpt lat="51.402647" lon="0.101150"/>
    <trkpt lat="51.402653" lon="0.101119"/>
    <trkpt lat="51.402659" lon="0.101088"/>
    <trkpt lat="51.402665" lon="0.101050"/>
    <trkpt lat="51.402669" lon="0.101017"/>
    <trkpt lat="51.402673" lon="0.100984"/>
    <trkpt lat="51.402679" lon="0.100952"/>
    <trkpt lat="51.402686" lon="0.100923"/>
    <trkpt lat="51.402690" lon="0.100891"/>
    <trkpt lat="51.402695" lon="0.100858"/>
    <trkpt lat="51.402700" lon="0.100821"/>
    <trkpt lat="51.402709" lon="0.100784"/>
    <trkpt lat="51.402716" lon="0.100748"/>
    <trkpt lat="51.402722" lon="0.100714"/>
    <trkpt lat="51.402728" lon="0.100678"/>
    <trkpt lat="51.402732" lon="0.100645"/>
    <trkpt lat="51.402735" lon="0.100613"/>
    <trkpt lat="51.402738" lon="0.100579"/>
    <trkpt lat="51.402744" lon="0.100544"/>
    <trkpt lat="51.402750" lon="0.100507"/>
    <trkpt lat="51.402758" lon="0.100474"/>
    <trkpt lat="51.402765" lon="0.100435"/>
    <trkpt lat="51.402774" lon="0.100396"/>
    <trkpt lat="51.402781" lon="0.100363"/>
    <trkpt lat="51.402786" lon="0.100330"/>
    <trkpt lat="51.402792" lon="0.100295"/>
    <trkpt lat="51.402799" lon="0.100262"/>
    <trkpt lat="51.402804" lon="0.100228"/>
    <trkpt lat="51.402808" lon="0.100190"/>
    <trkpt lat="51.402814" lon="0.100157"/>
    <trkpt lat="51.402820" lon="0.100127"/>
    <trkpt lat="51.402826" lon="0.100097"/>
    <trkpt lat="51.402833" lon="0.100065"/>
    <trkpt lat="51.402840" lon="0.100031"/>
    <trkpt lat="51.402850" lon="0.100001"/>
    <trkpt lat="51.402866" lon="0.099981"/>
    <trkpt lat="51.402889" lon="0.099967"/>
    <trkpt lat="51.402914" lon="0.099961"/>
    <trkpt lat="51.402938" lon="0.099955"/>
    <trkpt lat="51.402959" lon="0.099951"/>
    <trkpt lat="51.402981" lon="0.099955"/>
    <trkpt lat="51.403004" lon="0.099959"/>
    <trkpt lat="51.403027" lon="0.099963"/>
    <trkpt lat="51.403051" lon="0.099963"/>
    <trkpt lat="51.403075" lon="0.099967"/>
    <trkpt lat="51.403098" lon="0.099970"/>
    <trkpt lat="51.403122" lon="0.099975"/>
    <trkpt lat="51.403149" lon="0.099978"/>
    <trkpt lat="51.403174" lon="0.099981"/>
    <trkpt lat="51.403196" lon="0.099985"/>
    <trkpt lat="51.403219" lon="0.099988"/>
    <trkpt lat="51.403242" lon="0.099984"/>
    <trkpt lat="51.403263" lon="0.099973"/>
    <trkpt lat="51.403285" lon="0.099959"/>
    <trkpt lat="51.403304" lon="0.099942"/>
    <trkpt lat="51.403322" lon="0.099928"/>
    <trkpt lat="51.403337" lon="0.099910"/>
    <trkpt lat="51.403352" lon="0.099894"/>
    <trkpt lat="51.403366" lon="0.099874"/>
    <trkpt lat="51.403374" lon="0.099854"/>
    <trkpt lat="51.403383" lon="0.099834"/>
    <trkpt lat="51.403396" lon="0.099809"/>
    <trkpt lat="51.403414" lon="0.099788"/>
    <trkpt lat="51.403431" lon="0.099773"/>
    <trkpt lat="51.403447" lon="0.099758"/>
    <trkpt lat="51.403464" lon="0.099740"/>
    <trkpt lat="51.403479" lon="0.099721"/>
    <trkpt lat="51.403491" lon="0.099695"/>
    <trkpt lat="51.403501" lon="0.099664"/>
    <trkpt lat="51.403510" lon="0.099631"/>
    <trkpt lat="51.403518" lon="0.099598"/>
    <trkpt lat="51.403523" lon="0.099569"/>
    <trkpt lat="51.403526" lon="0.099536"/>
    <trkpt lat="51.403530" lon="0.099499"/>
    <trkpt lat="51.403532" lon="0.099469"/>
    <trkpt lat="51.403536" lon="0.099442"/>
    <trkpt lat="51.403541" lon="0.099409"/>
    <trkpt lat="51.403548" lon="0.099378"/>
    <trkpt lat="51.403550" lon="0.099347"/>
    <trkpt lat="51.403549" lon="0.099317"/>
    <trkpt lat="51.403542" lon="0.099283"/>
    <trkpt lat="51.403531" lon="0.099259"/>
    <trkpt lat="51.403515" lon="0.099235"/>
    <trkpt lat="51.403502" lon="0.099216"/>
    <trkpt lat="51.403484" lon="0.099194"/>
    <trkpt lat="51.403467" lon="0.099175"/>
    <trkpt lat="51.403447" lon="0.099157"/>
    <trkpt lat="51.403430" lon="0.099138"/>
    <trkpt lat="51.403411" lon="0.099118"/>
    <trkpt lat="51.403396" lon="0.099098"/>
    <trkpt lat="51.403383" lon="0.099079"/>
    <trkpt lat="51.403370" lon="0.099057"/>
    <trkpt lat="51.403359" lon="0.099036"/>
    <trkpt lat="51.403351" lon="0.099015"/>
    <trkpt lat="51.403340" lon="0.098996"/>
    <trkpt lat="51.403326" lon="0.098978"/>
    <trkpt lat="51.403317" lon="0.098962"/>
    <trkpt lat="51.403306" lon="0.098945"/>
    <trkpt lat="51.403294" lon="0.098925"/>
    <trkpt lat="51.403279" lon="0.098907"/>
    <trkpt lat="51.403264" lon="0.098887"/>
    <trkpt lat="51.403251" lon="0.098871"/>
    <trkpt lat="51.403239" lon="0.098855"/>
    <trkpt lat="51.403227" lon="0.098840"/>
    <trkpt lat="51.403214" lon="0.098822"/>
    <trkpt lat="51.403206" lon="0.098806"/>
    <trkpt lat="51.403196" lon="0.098792"/>
    <trkpt lat="51.403181" lon="0.098779"/>
    <trkpt lat="51.403166" lon="0.098764"/>
    <trkpt lat="51.403153" lon="0.098751"/>
    <trkpt lat="51.403140" lon="0.098736"/>
    <trkpt lat="51.403128" lon="0.098718"/>
    <trkpt lat="51.403115" lon="0.098702"/>
    <trkpt lat="51.403101" lon="0.098687"/>
    <trkpt lat="51.403085" lon="0.098675"/>
    <trkpt lat="51.403068" lon="0.098667"/>
    <trkpt lat="51.403052" lon="0.098654"/>
    <trkpt lat="51.403035" lon="0.098642"/>
    <trkpt lat="51.403017" lon="0.098630"/>
    <trkpt lat="51.402998" lon="0.098622"/>
    <trkpt lat="51.402981" lon="0.098616"/>
    <trkpt lat="51.402966" lon="0.098610"/>
    <trkpt lat="51.402951" lon="0.098606"/>
    <trkpt lat="51.402936" lon="0.098598"/>
    <trkpt lat="51.402921" lon="0.098591"/>
    <trkpt lat="51.402905" lon="0.098585"/>
    <trkpt lat="51.402885" lon="0.098582"/>
    <trkpt lat="51.402863" lon="0.098581"/>
    <trkpt lat="51.402843" lon="0.098581"/>
    <trkpt lat="51.402821" lon="0.098584"/>
    <trkpt lat="51.402800" lon="0.098587"/>
    <trkpt lat="51.402778" lon="0.098593"/>
    <trkpt lat="51.402758" lon="0.098596"/>
    <trkpt lat="51.402742" lon="0.098602"/>
    <trkpt lat="51.402725" lon="0.098610"/>
    <trkpt lat="51.402710" lon="0.098618"/>
    <trkpt lat="51.402698" lon="0.098623"/>
    <trkpt lat="51.402682" lon="0.098630"/>
    <trkpt lat="51.402665" lon="0.098636"/>
    <trkpt lat="51.402649" lon="0.098642"/>
    <trkpt lat="51.402630" lon="0.098647"/>
    <trkpt lat="51.402611" lon="0.098656"/>
    <trkpt lat="51.402592" lon="0.098664"/>
    <trkpt lat="51.402569" lon="0.098672"/>
    <trkpt lat="51.402547" lon="0.098678"/>
    <trkpt lat="51.402526" lon="0.098680"/>
    <trkpt lat="51.402507" lon="0.098677"/>
    <trkpt lat="51.402487" lon="0.098672"/>
    <trkpt lat="51.402467" lon="0.098670"/>
    <trkpt lat="51.402444" lon="0.098668"/>
    <trkpt lat="51.402418" lon="0.098668"/>
    <trkpt lat="51.402395" lon="0.098666"/>
    <trkpt lat="51.402374" lon="0.098660"/>
    <trkpt lat="51.402353" lon="0.098653"/>
    <trkpt lat="51.402333" lon="0.098644"/>
    <trkpt lat="51.402315" lon="0.098634"/>
    <trkpt lat="51.402297" lon="0.098625"/>
    <trkpt lat="51.402277" lon="0.098617"/>
    <trkpt lat="51.402257" lon="0.098606"/>
    <trkpt lat="51.402238" lon="0.098596"/>
    <trkpt lat="51.402218" lon="0.098585"/>
    <trkpt lat="51.402199" lon="0.098571"/>
    <trkpt lat="51.402182" lon="0.098550"/>
    <trkpt lat="51.402168" lon="0.098530"/>
    <trkpt lat="51.402158" lon="0.098505"/>
    <trkpt lat="51.402154" lon="0.098479"/>
    <trkpt lat="51.402153" lon="0.098451"/>
    <trkpt lat="51.402154" lon="0.098423"/>
    <trkpt lat="51.402155" lon="0.098397"/>
    <trkpt lat="51.402156" lon="0.098368"/>
    <trkpt lat="51.402157" lon="0.098341"/>
    <trkpt lat="51.402157" lon="0.098315"/>
    <trkpt lat="51.402158" lon="0.098282"/>
    <trkpt lat="51.402155" lon="0.098247"/>
    <trkpt lat="51.402152" lon="0.098214"/>
    <trkpt lat="51.402146" lon="0.098181"/>
    <trkpt lat="51.402138" lon="0.098148"/>
    <trkpt lat="51.402133" lon="0.098113"/>
    <trkpt lat="51.402130" lon="0.098080"/>
    <trkpt lat="51.402130" lon="0.098050"/>
    <trkpt lat="51.402130" lon="0.098014"/>
    <trkpt lat="51.402130" lon="0.097977"/>
    <trkpt lat="51.402128" lon="0.097940"/>
    <trkpt lat="51.402127" lon="0.097907"/>
    <trkpt lat="51.402128" lon="0.097874"/>
    <trkpt lat="51.402130" lon="0.097842"/>
    <trkpt lat="51.402133" lon="0.097811"/>
    <trkpt lat="51.402132" lon="0.097778"/>
    <trkpt lat="51.402134" lon="0.097742"/>
    <trkpt lat="51.402138" lon="0.097704"/>
    <trkpt lat="51.402142" lon="0.097668"/>
    <trkpt lat="51.402144" lon="0.097633"/>
    <trkpt lat="51.402149" lon="0.097599"/>
    <trkpt lat="51.402155" lon="0.097566"/>
    <trkpt lat="51.402161" lon="0.097534"/>
    <trkpt lat="51.402169" lon="0.097501"/>
    <trkpt lat="51.402178" lon="0.097466"/>
    <trkpt lat="51.402187" lon="0.097431"/>
    <trkpt lat="51.402196" lon="0.097393"/>
    <trkpt lat="51.402209" lon="0.097355"/>
    <trkpt lat="51.402222" lon="0.097320"/>
    <trkpt lat="51.402234" lon="0.097287"/>
    <trkpt lat="51.402249" lon="0.097256"/>
    <trkpt lat="51.402267" lon="0.097228"/>
    <trkpt lat="51.402281" lon="0.097203"/>
    <trkpt lat="51.402296" lon="0.097176"/>
    <trkpt lat="51.402313" lon="0.097148"/>
    <trkpt lat="51.402332" lon="0.097127"/>
    <trkpt lat="51.402351" lon="0.097102"/>
    <trkpt lat="51.402369" lon="0.097080"/>
    <trkpt lat="51.402387" lon="0.097058"/>
    <trkpt lat="51.402406" lon="0.097032"/>
    <trkpt lat="51.402424" lon="0.097006"/>
    <trkpt lat="51.402441" lon="0.096979"/>
    <trkpt lat="51.402459" lon="0.096954"/>
    <trkpt lat="51.402479" lon="0.096929"/>
    <trkpt lat="51.402495" lon="0.096903"/>
    <trkpt lat="51.402512" lon="0.096876"/>
    <trkpt lat="51.402533" lon="0.096852"/>
    <trkpt lat="51.402550" lon="0.096832"/>
    <trkpt lat="51.402565" lon="0.096815"/>
    <trkpt lat="51.402584" lon="0.096797"/>
    <trkpt lat="51.402601" lon="0.096774"/>
    <trkpt lat="51.402615" lon="0.096752"/>
    <trkpt lat="51.402629" lon="0.096734"/>
    <trkpt lat="51.402646" lon="0.096713"/>
    <trkpt lat="51.402661" lon="0.096691"/>
    <trkpt lat="51.402677" lon="0.096672"/>
    <trkpt lat="51.402692" lon="0.096655"/>
    <trkpt lat="51.402708" lon="0.096636"/>
    <trkpt lat="51.402723" lon="0.096616"/>
    <trkpt lat="51.402735" lon="0.096596"/>
    <trkpt lat="51.402751" lon="0.096580"/>
    <trkpt lat="51.402767" lon="0.096563"/>
    <trkpt lat="51.402782" lon="0.096540"/>
    <trkpt lat="51.402797" lon="0.096518"/>
    <trkpt lat="51.402811" lon="0.096498"/>
    <trkpt lat="51.402824" lon="0.096473"/>
    <trkpt lat="51.402839" lon="0.096454"/>
    <trkpt lat="51.402853" lon="0.096437"/>
    <trkpt lat="51.402868" lon="0.096419"/>
    <trkpt lat="51.402884" lon="0.096397"/>
    <trkpt lat="51.402898" lon="0.096377"/>
    <trkpt lat="51.402911" lon="0.096360"/>
    <trkpt lat="51.402927" lon="0.096348"/>
    <trkpt lat="51.402943" lon="0.096332"/>
    <trkpt lat="51.402957" lon="0.096313"/>
    <trkpt lat="51.402970" lon="0.096293"/>
    <trkpt lat="51.402983" lon="0.096274"/>
    <trkpt lat="51.402996" lon="0.096251"/>
    <trkpt lat="51.403007" lon="0.096230"/>
    <trkpt lat="51.403021" lon="0.096207"/>
    <trkpt lat="51.403032" lon="0.096183"/>
    <trkpt lat="51.403044" lon="0.096158"/>
    <trkpt lat="51.403058" lon="0.096137"/>
    <trkpt lat="51.403072" lon="0.096119"/>
    <trkpt lat="51.403086" lon="0.096096"/>
    <trkpt lat="51.403099" lon="0.096070"/>
    <trkpt lat="51.403111" lon="0.096041"/>
    <trkpt lat="51.403121" lon="0.096013"/>
    <trkpt lat="51.403131" lon="0.095983"/>
    <trkpt lat="51.403140" lon="0.095952"/>
    <trkpt lat="51.403151" lon="0.095925"/>
    <trkpt lat="51.403158" lon="0.095899"/>
    <trkpt lat="51.403163" lon="0.095872"/>
    <trkpt lat="51.403167" lon="0.095842"/>
    <trkpt lat="51.403173" lon="0.095809"/>
    <trkpt lat="51.403178" lon="0.095780"/>
    <trkpt lat="51.403182" lon="0.095749"/>
    <trkpt lat="51.403186" lon="0.095716"/>
    <trkpt lat="51.403188" lon="0.095683"/>
    <trkpt lat="51.403189" lon="0.095651"/>
    <trkpt lat="51.403187" lon="0.095620"/>
    <trkpt lat="51.403185" lon="0.095585"/>
    <trkpt lat="51.403187" lon="0.095551"/>
    <trkpt lat="51.403196" lon="0.095515"/>
    <trkpt lat="51.403203" lon="0.095480"/>
    <trkpt lat="51.403207" lon="0.095448"/>
    <trkpt lat="51.403209" lon="0.095417"/>
    <trkpt lat="51.403203" lon="0.095390"/>
    <trkpt lat="51.403195" lon="0.095359"/>
    <trkpt lat="51.403191" lon="0.095326"/>
    <trkpt lat="51.403189" lon="0.095296"/>
    <trkpt lat="51.403187" lon="0.095267"/>
    <trkpt lat="51.403189" lon="0.095232"/>
    <trkpt lat="51.403191" lon="0.095200"/>
    <trkpt lat="51.403196" lon="0.095174"/>
    <trkpt lat="51.403205" lon="0.095154"/>
    <trkpt lat="51.403218" lon="0.095132"/>
    <trkpt lat="51.403237" lon="0.095109"/>
    <trkpt lat="51.403263" lon="0.095094"/>
    <trkpt lat="51.403293" lon="0.095085"/>
    <trkpt lat="51.403320" lon="0.095086"/>
    <trkpt lat="51.403345" lon="0.095091"/>
    <trkpt lat="51.403369" lon="0.095096"/>
    <trkpt lat="51.403390" lon="0.095103"/>
    <trkpt lat="51.403415" lon="0.095114"/>
    <trkpt lat="51.403439" lon="0.095132"/>
    <trkpt lat="51.403460" lon="0.095150"/>
    <trkpt lat="51.403480" lon="0.095171"/>
    <trkpt lat="51.403505" lon="0.095185"/>
    <trkpt lat="51.403527" lon="0.095195"/>
    <trkpt lat="51.403547" lon="0.095203"/>
    <trkpt lat="51.403568" lon="0.095208"/>
    <trkpt lat="51.403588" lon="0.095218"/>
    <trkpt lat="51.403616" lon="0.095232"/>
    <trkpt lat="51.403643" lon="0.095247"/>
    <trkpt lat="51.403669" lon="0.095262"/>
    <trkpt lat="51.403696" lon="0.095276"/>
    <trkpt lat="51.403721" lon="0.095286"/>
    <trkpt lat="51.403747" lon="0.095291"/>
    <trkpt lat="51.403770" lon="0.095301"/>
    <trkpt lat="51.403793" lon="0.095315"/>
    <trkpt lat="51.403819" lon="0.095326"/>
    <trkpt lat="51.403844" lon="0.095343"/>
    <trkpt lat="51.403864" lon="0.095372"/>
    <trkpt lat="51.403879" lon="0.095407"/>
    <trkpt lat="51.403884" lon="0.095445"/>
    <trkpt lat="51.403880" lon="0.095484"/>
    <trkpt lat="51.403873" lon="0.095521"/>
    <trkpt lat="51.403862" lon="0.095551"/>
    <trkpt lat="51.403848" lon="0.095579"/>
    <trkpt lat="51.403838" lon="0.095608"/>
    <trkpt lat="51.403827" lon="0.095637"/>
    <trkpt lat="51.403813" lon="0.095666"/>
    <trkpt lat="51.403798" lon="0.095696"/>
    <trkpt lat="51.403784" lon="0.095732"/>
    <trkpt lat="51.403774" lon="0.095763"/>
    <trkpt lat="51.403770" lon="0.095790"/>
    <trkpt lat="51.403769" lon="0.095819"/>
    <trkpt lat="51.403765" lon="0.095847"/>
    <trkpt lat="51.403759" lon="0.095878"/>
    <trkpt lat="51.403753" lon="0.095911"/>
    <trkpt lat="51.403761" lon="0.095957"/>
    <trkpt lat="51.403766" lon="0.096005"/>
    <trkpt lat="51.403765" lon="0.096045"/>
    <trkpt lat="51.403767" lon="0.096083"/>
    <trkpt lat="51.403767" lon="0.096122"/>
    <trkpt lat="51.403757" lon="0.096160"/>
    <trkpt lat="51.403742" lon="0.096190"/>
    <trkpt lat="51.403727" lon="0.096219"/>
    <trkpt lat="51.403714" lon="0.096254"/>
    <trkpt lat="51.403709" lon="0.096291"/>
    <trkpt lat="51.403702" lon="0.096323"/>
    <trkpt lat="51.403684" lon="0.096354"/>
    <trkpt lat="51.403668" lon="0.096385"/>
    <trkpt lat="51.403647" lon="0.096424"/>
    <trkpt lat="51.403636" lon="0.096461"/>
    <trkpt lat="51.403627" lon="0.096492"/>
    <trkpt lat="51.403616" lon="0.096518"/>
    <trkpt lat="51.403604" lon="0.096541"/>
    <trkpt lat="51.403591" lon="0.096567"/>
    <trkpt lat="51.403580" lon="0.096594"/>
    <trkpt lat="51.403567" lon="0.096625"/>
    <trkpt lat="51.403556" lon="0.096656"/>
    <trkpt lat="51.403545" lon="0.096685"/>
    <trkpt lat="51.403529" lon="0.096709"/>
    <trkpt lat="51.403513" lon="0.096732"/>
    <trkpt lat="51.403501" lon="0.096762"/>
    <trkpt lat="51.403493" lon="0.096790"/>
    <trkpt lat="51.403484" lon="0.096815"/>
    <trkpt lat="51.403473" lon="0.096838"/>
    <trkpt lat="51.403459" lon="0.096869"/>
    <trkpt lat="51.403444" lon="0.096904"/>
    <trkpt lat="51.403429" lon="0.096941"/>
    <trkpt lat="51.403414" lon="0.096977"/>
    <trkpt lat="51.403399" lon="0.097010"/>
    <trkpt lat="51.403386" lon="0.097041"/>
    <trkpt lat="51.403374" lon="0.097071"/>
    <trkpt lat="51.403365" lon="0.097109"/>
    <trkpt lat="51.403358" lon="0.097139"/>
    <trkpt lat="51.403351" lon="0.097166"/>
    <trkpt lat="51.403337" lon="0.097200"/>
    <trkpt lat="51.403321" lon="0.097221"/>
    <trkpt lat="51.403302" lon="0.097243"/>
    <trkpt lat="51.403286" lon="0.097263"/>
    <trkpt lat="51.403273" lon="0.097279"/>
    <trkpt lat="51.403255" lon="0.097301"/>
    <trkpt lat="51.403236" lon="0.097315"/>
    <trkpt lat="51.403220" lon="0.097328"/>
    <trkpt lat="51.403208" lon="0.097348"/>
    <trkpt lat="51.403196" lon="0.097368"/>
    <trkpt lat="51.403182" lon="0.097392"/>
    <trkpt lat="51.403169" lon="0.097432"/>
    <trkpt lat="51.403162" lon="0.097472"/>
    <trkpt lat="51.403155" lon="0.097513"/>
    <trkpt lat="51.403155" lon="0.097554"/>
    <trkpt lat="51.403156" lon="0.097596"/>
    <trkpt lat="51.403167" lon="0.097622"/>
    <trkpt lat="51.403183" lon="0.097644"/>
    <trkpt lat="51.403199" lon="0.097661"/>
    <trkpt lat="51.403218" lon="0.097677"/>
    <trkpt lat="51.403238" lon="0.097692"/>
    <trkpt lat="51.403259" lon="0.097707"/>
    <trkpt lat="51.403277" lon="0.097719"/>
    <trkpt lat="51.403300" lon="0.097734"/>
    <trkpt lat="51.403323" lon="0.097750"/>
    <trkpt lat="51.403351" lon="0.097775"/>
    <trkpt lat="51.403376" lon="0.097799"/>
    <trkpt lat="51.403397" lon="0.097815"/>
    <trkpt lat="51.403420" lon="0.097832"/>
    <trkpt lat="51.403442" lon="0.097848"/>
    <trkpt lat="51.403463" lon="0.097867"/>
    <trkpt lat="51.403487" lon="0.097883"/>
    <trkpt lat="51.403510" lon="0.097902"/>
    <trkpt lat="51.403530" lon="0.097922"/>
    <trkpt lat="51.403549" lon="0.097946"/>
    <trkpt lat="51.403567" lon="0.097975"/>
    <trkpt lat="51.403581" lon="0.098013"/>
    <trkpt lat="51.403592" lon="0.098046"/>
    <trkpt lat="51.403599" lon="0.098087"/>
    <trkpt lat="51.403604" lon="0.098123"/>
    <trkpt lat="51.403610" lon="0.098159"/>
    <trkpt lat="51.403616" lon="0.098198"/>
    <trkpt lat="51.403620" lon="0.098240"/>
    <trkpt lat="51.403623" lon="0.098281"/>
    <trkpt lat="51.403626" lon="0.098321"/>
    <trkpt lat="51.403628" lon="0.098361"/>
    <trkpt lat="51.403628" lon="0.098404"/>
    <trkpt lat="51.403630" lon="0.098442"/>
    <trkpt lat="51.403629" lon="0.098481"/>
    <trkpt lat="51.403629" lon="0.098517"/>
    <trkpt lat="51.403626" lon="0.098553"/>
    <trkpt lat="51.403625" lon="0.098589"/>
    <trkpt lat="51.403625" lon="0.098628"/>
    <trkpt lat="51.403624" lon="0.098666"/>
    <trkpt lat="51.403623" lon="0.098702"/>
    <trkpt lat="51.403625" lon="0.098738"/>
    <trkpt lat="51.403626" lon="0.098777"/>
    <trkpt lat="51.403627" lon="0.098816"/>
    <trkpt lat="51.403626" lon="0.098855"/>
    <trkpt lat="51.403624" lon="0.098894"/>
    <trkpt lat="51.403622" lon="0.098932"/>
    <trkpt lat="51.403620" lon="0.098972"/>
    <trkpt lat="51.403617" lon="0.099010"/>
    <trkpt lat="51.403614" lon="0.099049"/>
    <trkpt lat="51.403612" lon="0.099089"/>
    <trkpt lat="51.403609" lon="0.099130"/>
    <trkpt lat="51.403605" lon="0.099171"/>
    <trkpt lat="51.403602" lon="0.099213"/>
    <trkpt lat="51.403598" lon="0.099255"/>
    <trkpt lat="51.403594" lon="0.099294"/>
    <trkpt lat="51.403593" lon="0.099335"/>
    <trkpt lat="51.403590" lon="0.099376"/>
    <trkpt lat="51.403590" lon="0.099416"/>
    <trkpt lat="51.403592" lon="0.099457"/>
    <trkpt lat="51.403591" lon="0.099496"/>
    <trkpt lat="51.403589" lon="0.099533"/>
    <trkpt lat="51.403588" lon="0.099574"/>
    <trkpt lat="51.403584" lon="0.099614"/>
    <trkpt lat="51.403580" lon="0.099649"/>
    <trkpt lat="51.403576" lon="0.099680"/>
    <trkpt lat="51.403573" lon="0.099715"/>
    <trkpt lat="51.403572" lon="0.099751"/>
    <trkpt lat="51.403572" lon="0.099786"/>
    <trkpt lat="51.403572" lon="0.099825"/>
    <trkpt lat="51.403574" lon="0.099867"/>
    <trkpt lat="51.403574" lon="0.099912"/>
    <trkpt lat="51.403574" lon="0.099954"/>
    <trkpt lat="51.403574" lon="0.100003"/>
    <trkpt lat="51.403577" lon="0.100054"/>
    <trkpt lat="51.403581" lon="0.100101"/>
    <trkpt lat="51.403586" lon="0.100144"/>
    <trkpt lat="51.403591" lon="0.100186"/>
    <trkpt lat="51.403595" lon="0.100225"/>
    <trkpt lat="51.403600" lon="0.100262"/>
    <trkpt lat="51.403605" lon="0.100302"/>
    <trkpt lat="51.403606" lon="0.100340"/>
    <trkpt lat="51.403603" lon="0.100375"/>
    <trkpt lat="51.403603" lon="0.100416"/>
    <trkpt lat="51.403603" lon="0.100457"/>
    <trkpt lat="51.403604" lon="0.100495"/>
    <trkpt lat="51.403606" lon="0.100535"/>
    <trkpt lat="51.403611" lon="0.100573"/>
    <trkpt lat="51.403614" lon="0.100609"/>
    <trkpt lat="51.403613" lon="0.100647"/>
    <trkpt lat="51.403616" lon="0.100686"/>
    <trkpt lat="51.403617" lon="0.100725"/>
    <trkpt lat="51.403619" lon="0.100760"/>
    <trkpt lat="51.403621" lon="0.100799"/>
    <trkpt lat="51.403621" lon="0.100840"/>
    <trkpt lat="51.403621" lon="0.100878"/>
    <trkpt lat="51.403624" lon="0.100919"/>
    <trkpt lat="51.403631" lon="0.100958"/>
    <trkpt lat="51.403635" lon="0.100995"/>
    <trkpt lat="51.403636" lon="0.101033"/>
    <trkpt lat="51.403636" lon="0.101073"/>
    <trkpt lat="51.403632" lon="0.101113"/>
    <trkpt lat="51.403630" lon="0.101153"/>
    <trkpt lat="51.403629" lon="0.101192"/>
    <trkpt lat="51.403628" lon="0.101231"/>
    <trkpt lat="51.403626" lon="0.101266"/>
    <trkpt lat="51.403623" lon="0.101297"/>
    <trkpt lat="51.403622" lon="0.101334"/>
    <trkpt lat="51.403620" lon="0.101371"/>
    <trkpt lat="51.403617" lon="0.101410"/>
    <trkpt lat="51.403611" lon="0.101448"/>
    <trkpt lat="51.403603" lon="0.101488"/>
    <trkpt lat="51.403596" lon="0.101522"/>
    <trkpt lat="51.403595" lon="0.101561"/>
    <trkpt lat="51.403586" lon="0.101595"/>
    <trkpt lat="51.403580" lon="0.101624"/>
    <trkpt lat="51.403573" lon="0.101656"/>
    <trkpt lat="51.403567" lon="0.101690"/>
    <trkpt lat="51.403559" lon="0.101723"/>
    <trkpt lat="51.403548" lon="0.101755"/>
    <trkpt lat="51.403539" lon="0.101789"/>
    <trkpt lat="51.403530" lon="0.101824"/>
    <trkpt lat="51.403522" lon="0.101859"/>
    <trkpt lat="51.403516" lon="0.101899"/>
    <trkpt lat="51.403512" lon="0.101934"/>
    <trkpt lat="51.403503" lon="0.101969"/>
    <trkpt lat="51.403496" lon="0.102001"/>
    <trkpt lat="51.403490" lon="0.102032"/>
    <trkpt lat="51.403482" lon="0.102067"/>
    <trkpt lat="51.403473" lon="0.102102"/>
    <trkpt lat="51.403468" lon="0.102136"/>
    <trkpt lat="51.403462" lon="0.102169"/>
    <trkpt lat="51.403457" lon="0.102202"/>
    <trkpt lat="51.403446" lon="0.102236"/>
    <trkpt lat="51.403436" lon="0.102269"/>
    <trkpt lat="51.403426" lon="0.102299"/>
    <trkpt lat="51.403417" lon="0.102328"/>
    <trkpt lat="51.403410" lon="0.102357"/>
    <trkpt lat="51.403404" lon="0.102386"/>
    <trkpt lat="51.403399" lon="0.102415"/>
    <trkpt lat="51.403395" lon="0.102446"/>
    <trkpt lat="51.403392" lon="0.102477"/>
    <trkpt lat="51.403392" lon="0.102510"/>
    <trkpt lat="51.403393" lon="0.102539"/>
    <trkpt lat="51.403392" lon="0.102566"/>
    <trkpt lat="51.403388" lon="0.102596"/>
    <trkpt lat="51.403390" lon="0.102631"/>
    <trkpt lat="51.403385" lon="0.102663"/>
    <trkpt lat="51.403383" lon="0.102695"/>
    <trkpt lat="51.403381" lon="0.102726"/>
    <trkpt lat="51.403377" lon="0.102751"/>
    <trkpt lat="51.403374" lon="0.102779"/>
    <trkpt lat="51.403366" lon="0.102812"/>
    <trkpt lat="51.403358" lon="0.102850"/>
    <trkpt lat="51.403350" lon="0.102891"/>
    <trkpt lat="51.403344" lon="0.102929"/>
    <trkpt lat="51.403339" lon="0.102962"/>
    <trkpt lat="51.403330" lon="0.102996"/>
    <trkpt lat="51.403318" lon="0.103033"/>
    <trkpt lat="51.403311" lon="0.103063"/>
    <trkpt lat="51.403310" lon="0.103096"/>
    <trkpt lat="51.403309" lon="0.103129"/>
    <trkpt lat="51.403305" lon="0.103161"/>
    <trkpt lat="51.403287" lon="0.103188"/>
    <trkpt lat="51.403266" lon="0.103195"/>
    <trkpt lat="51.403245" lon="0.103188"/>
    <trkpt lat="51.403222" lon="0.103177"/>
    <trkpt lat="51.403202" lon="0.103163"/>
    <trkpt lat="51.403182" lon="0.103153"/>
    <trkpt lat="51.403162" lon="0.103145"/>
    <trkpt lat="51.403142" lon="0.103135"/>
    <trkpt lat="51.403124" lon="0.103126"/>
    <trkpt lat="51.403104" lon="0.103117"/>
    <trkpt lat="51.403091" lon="0.103103"/>
    <trkpt lat="51.403078" lon="0.103086"/>
    <trkpt lat="51.403062" lon="0.103075"/>
    <trkpt lat="51.403041" lon="0.103070"/>
    <trkpt lat="51.403017" lon="0.103066"/>
    <trkpt lat="51.402998" lon="0.103061"/>
    <trkpt lat="51.402978" lon="0.103054"/>
    <trkpt lat="51.402958" lon="0.103047"/>
    <trkpt lat="51.402941" lon="0.103036"/>
    <trkpt lat="51.402922" lon="0.103029"/>
    <trkpt lat="51.402904" lon="0.103021"/>
    <trkpt lat="51.402884" lon="0.103010"/>
    <trkpt lat="51.402866" lon="0.102996"/>
    <trkpt lat="51.402848" lon="0.102983"/>
    <trkpt lat="51.402830" lon="0.102971"/>
    <trkpt lat="51.402812" lon="0.102960"/>
    <trkpt lat="51.402795" lon="0.102950"/>
    <trkpt lat="51.402776" lon="0.102940"/>
    <trkpt lat="51.402756" lon="0.102933"/>
    <trkpt lat="51.402739" lon="0.102924"/>
    <trkpt lat="51.402722" lon="0.102915"/>
    <trkpt lat="51.402706" lon="0.102906"/>
    <trkpt lat="51.402686" lon="0.102900"/>
    <trkpt lat="51.402668" lon="0.102893"/>
    <trkpt lat="51.402650" lon="0.102883"/>
    <trkpt lat="51.402632" lon="0.102870"/>
    <trkpt lat="51.402615" lon="0.102854"/>
    <trkpt lat="51.402596" lon="0.102839"/>
    <trkpt lat="51.402582" lon="0.102822"/>
    <trkpt lat="51.402565" lon="0.102810"/>
    <trkpt lat="51.402547" lon="0.102799"/>
    <trkpt lat="51.402527" lon="0.102791"/>
    <trkpt lat="51.402510" lon="0.102780"/>
    <trkpt lat="51.402491" lon="0.102770"/>
    <trkpt lat="51.402471" lon="0.102760"/>
    <trkpt lat="51.402454" lon="0.102750"/>
    <trkpt lat="51.402435" lon="0.102744"/>
    <trkpt lat="51.402413" lon="0.102734"/>
    <trkpt lat="51.402393" lon="0.102722"/>
    <trkpt lat="51.402377" lon="0.102708"/>
    <trkpt lat="51.402366" lon="0.102687"/>
    <trkpt lat="51.402366" lon="0.102663"/>
    <trkpt lat="51.402373" lon="0.102629"/>
    <trkpt lat="51.402379" lon="0.102596"/>
    <trkpt lat="51.402385" lon="0.102566"/>
    <trkpt lat="51.402397" lon="0.102533"/>
    <trkpt lat="51.402403" lon="0.102493"/>
    <trkpt lat="51.402410" lon="0.102455"/>
    <trkpt lat="51.402416" lon="0.102418"/>
    <trkpt lat="51.402421" lon="0.102380"/>
    <trkpt lat="51.402429" lon="0.102348"/>
    <trkpt lat="51.402439" lon="0.102314"/>
    <trkpt lat="51.402444" lon="0.102275"/>
    <trkpt lat="51.402449" lon="0.102238"/>
    <trkpt lat="51.402454" lon="0.102205"/>
    <trkpt lat="51.402459" lon="0.102170"/>
    <trkpt lat="51.402463" lon="0.102135"/>
    <trkpt lat="51.402469" lon="0.102098"/>
    <trkpt lat="51.402476" lon="0.102065"/>
    <trkpt lat="51.402483" lon="0.102033"/>
    <trkpt lat="51.402492" lon="0.102002"/>
    <trkpt lat="51.402497" lon="0.101970"/>
    <trkpt lat="51.402502" lon="0.101938"/>
    <trkpt lat="51.402510" lon="0.101901"/>
    <trkpt lat="51.402516" lon="0.101868"/>
    <trkpt lat="51.402521" lon="0.101839"/>
    <trkpt lat="51.402527" lon="0.101805"/>
    <trkpt lat="51.402533" lon="0.101770"/>
    <trkpt lat="51.402538" lon="0.101735"/>
    <trkpt lat="51.402543" lon="0.101701"/>
    <trkpt lat="51.402548" lon="0.101668"/>
    <trkpt lat="51.402552" lon="0.101637"/>
    <trkpt lat="51.402556" lon="0.101610"/>
    <trkpt lat="51.402561" lon="0.101580"/>
    <trkpt lat="51.402570" lon="0.101545"/>
    <trkpt lat="51.402576" lon="0.101513"/>
    <trkpt lat="51.402583" lon="0.101478"/>
    <trkpt lat="51.402588" lon="0.101441"/>
    <trkpt lat="51.402593" lon="0.101404"/>
    <trkpt lat="51.402597" lon="0.101370"/>
    <trkpt lat="51.402602" lon="0.101337"/>
    <trkpt lat="51.402610" lon="0.101304"/>
    <trkpt lat="51.402616" lon="0.101271"/>
    <trkpt lat="51.402620" lon="0.101240"/>
    <trkpt lat="51.402625" lon="0.101208"/>
    <trkpt lat="51.402633" lon="0.101179"/>
    <trkpt lat="51.402639" lon="0.101149"/>
    <trkpt lat="51.402644" lon="0.101118"/>
    <trkpt lat="51.402650" lon="0.101087"/>
    <trkpt lat="51.402656" lon="0.101054"/>
    <trkpt lat="51.402663" lon="0.101019"/>
    <trkpt lat="51.402670" lon="0.100989"/>
    <trkpt lat="51.402676" lon="0.100957"/>
    <trkpt lat="51.402682" lon="0.100929"/>
    <trkpt lat="51.402688" lon="0.100900"/>
    <trkpt lat="51.402695" lon="0.100871"/>
    <trkpt lat="51.402702" lon="0.100842"/>
    <trkpt lat="51.402707" lon="0.100811"/>
    <trkpt lat="51.402711" lon="0.100780"/>
    <trkpt lat="51.402717" lon="0.100748"/>
    <trkpt lat="51.402723" lon="0.100717"/>
    <trkpt lat="51.402729" lon="0.100687"/>
    <trkpt lat="51.402735" lon="0.100656"/>
    <trkpt lat="51.402739" lon="0.100626"/>
    <trkpt lat="51.402744" lon="0.100595"/>
    <trkpt lat="51.402750" lon="0.100562"/>
    <trkpt lat="51.402754" lon="0.100529"/>
    <trkpt lat="51.402760" lon="0.100495"/>
    <trkpt lat="51.402767" lon="0.100461"/>
    <trkpt lat="51.402770" lon="0.100427"/>
    <trkpt lat="51.402774" lon="0.100394"/>
    <trkpt lat="51.402780" lon="0.100359"/>
    <trkpt lat="51.402784" lon="0.100326"/>
    <trkpt lat="51.402784" lon="0.100293"/>
    <trkpt lat="51.402784" lon="0.100267"/>
    <trkpt lat="51.402786" lon="0.100225"/>
    <trkpt lat="51.402789" lon="0.100196"/>
    <trkpt lat="51.402792" lon="0.100158"/>
    <trkpt lat="51.402794" lon="0.100126"/>
    <trkpt lat="51.402797" lon="0.100092"/>
    <trkpt lat="51.402799" lon="0.100059"/>
    <trkpt lat="51.402796" lon="0.100027"/>
    <trkpt lat="51.402790" lon="0.099997"/>
    <trkpt lat="51.402780" lon="0.099973"/>
    <trkpt lat="51.402765" lon="0.099954"/>
    <trkpt lat="51.402747" lon="0.099946"/>
    <trkpt lat="51.402728" lon="0.099943"/>
    <trkpt lat="51.402708" lon="0.099936"/>
    <trkpt lat="51.402689" lon="0.099926"/>
    <trkpt lat="51.402669" lon="0.099918"/>
    <trkpt lat="51.402650" lon="0.099908"/>
    <trkpt lat="51.402630" lon="0.099901"/>
    <trkpt lat="51.402609" lon="0.099897"/>
    <trkpt lat="51.402589" lon="0.099892"/>
    <trkpt lat="51.402568" lon="0.099888"/>
    <trkpt lat="51.402548" lon="0.099887"/>
    <trkpt lat="51.402529" lon="0.099885"/>
    <trkpt lat="51.402515" lon="0.099885"/>
    <trkpt lat="51.402491" lon="0.099885"/>
    <trkpt lat="51.402470" lon="0.099884"/>
    <trkpt lat="51.402451" lon="0.099883"/>
    <trkpt lat="51.402430" lon="0.099882"/>
    <trkpt lat="51.402408" lon="0.099880"/>
    <trkpt lat="51.402387" lon="0.099878"/>
    <trkpt lat="51.402368" lon="0.099877"/>
    <trkpt lat="51.402347" lon="0.099874"/>
    <trkpt lat="51.402325" lon="0.099873"/>
    <trkpt lat="51.402304" lon="0.099871"/>
    <trkpt lat="51.402283" lon="0.099871"/>
    <trkpt lat="51.402264" lon="0.099865"/>
    <trkpt lat="51.402244" lon="0.099861"/>
    <trkpt lat="51.402223" lon="0.099859"/>
    <trkpt lat="51.402202" lon="0.099856"/>
    <trkpt lat="51.402181" lon="0.099853"/>
    <trkpt lat="51.402161" lon="0.099849"/>
    <trkpt lat="51.402141" lon="0.099844"/>
    <trkpt lat="51.402119" lon="0.099838"/>
    <trkpt lat="51.402098" lon="0.099834"/>
    <trkpt lat="51.402078" lon="0.099832"/>
    <trkpt lat="51.402059" lon="0.099831"/>
    <trkpt lat="51.402037" lon="0.099830"/>
    <trkpt lat="51.402014" lon="0.099825"/>
    <trkpt lat="51.401995" lon="0.099821"/>
    <trkpt lat="51.401977" lon="0.099817"/>
    <trkpt lat="51.401957" lon="0.099812"/>
    <trkpt lat="51.401937" lon="0.099808"/>
    <trkpt lat="51.401919" lon="0.099804"/>
    <trkpt lat="51.401901" lon="0.099803"/>
    <trkpt lat="51.401880" lon="0.099805"/>
    <trkpt lat="51.401857" lon="0.099810"/>
    <trkpt lat="51.401838" lon="0.099816"/>
    <trkpt lat="51.401820" lon="0.099827"/>
    <trkpt lat="51.401803" lon="0.099850"/>
    <trkpt lat="51.401791" lon="0.099878"/>
    <trkpt lat="51.401782" lon="0.099904"/>
    <trkpt lat="51.401775" lon="0.099932"/>
    <trkpt lat="51.401765" lon="0.099965"/>
    <trkpt lat="51.401756" lon="0.099993"/>
    <trkpt lat="51.401749" lon="0.100027"/>
    <trkpt lat="51.401746" lon="0.100070"/>
    <trkpt lat="51.401743" lon="0.100109"/>
    <trkpt lat="51.401739" lon="0.100146"/>
    <trkpt lat="51.401736" lon="0.100183"/>
    <trkpt lat="51.401734" lon="0.100218"/>
    <trkpt lat="51.401733" lon="0.100252"/>
    <trkpt lat="51.401731" lon="0.100288"/>
    <trkpt lat="51.401726" lon="0.100326"/>
    <trkpt lat="51.401722" lon="0.100363"/>
    <trkpt lat="51.401720" lon="0.100399"/>
    <trkpt lat="51.401716" lon="0.100438"/>
    <trkpt lat="51.401711" lon="0.100476"/>
    <trkpt lat="51.401708" lon="0.100516"/>
    <trkpt lat="51.401705" lon="0.100553"/>
    <trkpt lat="51.401700" lon="0.100588"/>
    <trkpt lat="51.401696" lon="0.100624"/>
    <trkpt lat="51.401692" lon="0.100659"/>
    <trkpt lat="51.401685" lon="0.100694"/>
    <trkpt lat="51.401682" lon="0.100731"/>
    <trkpt lat="51.401678" lon="0.100770"/>
    <trkpt lat="51.401675" lon="0.100808"/>
    <trkpt lat="51.401672" lon="0.100843"/>
    <trkpt lat="51.401668" lon="0.100877"/>
    <trkpt lat="51.401669" lon="0.100916"/>
    <trkpt lat="51.401668" lon="0.100954"/>
    <trkpt lat="51.401666" lon="0.100991"/>
    <trkpt lat="51.401660" lon="0.101029"/>
    <trkpt lat="51.401657" lon="0.101065"/>
    <trkpt lat="51.401658" lon="0.101099"/>
    <trkpt lat="51.401656" lon="0.101126"/>
    <trkpt lat="51.401653" lon="0.101170"/>
    <trkpt lat="51.401648" lon="0.101205"/>
    <trkpt lat="51.401642" lon="0.101240"/>
    <trkpt lat="51.401636" lon="0.101275"/>
    <trkpt lat="51.401632" lon="0.101310"/>
    <trkpt lat="51.401626" lon="0.101343"/>
    <trkpt lat="51.401622" lon="0.101379"/>
    <trkpt lat="51.401615" lon="0.101418"/>
    <trkpt lat="51.401612" lon="0.101454"/>
    <trkpt lat="51.401610" lon="0.101488"/>
    <trkpt lat="51.401606" lon="0.101525"/>
    <trkpt lat="51.401603" lon="0.101559"/>
    <trkpt lat="51.401599" lon="0.101594"/>
    <trkpt lat="51.401593" lon="0.101630"/>
    <trkpt lat="51.401588" lon="0.101666"/>
    <trkpt lat="51.401582" lon="0.101701"/>
    <trkpt lat="51.401582" lon="0.101736"/>
    <trkpt lat="51.401580" lon="0.101769"/>
    <trkpt lat="51.401576" lon="0.101801"/>
    <trkpt lat="51.401571" lon="0.101836"/>
    <trkpt lat="51.401565" lon="0.101870"/>
    <trkpt lat="51.401559" lon="0.101906"/>
    <trkpt lat="51.401555" lon="0.101940"/>
    <trkpt lat="51.401552" lon="0.101972"/>
    <trkpt lat="51.401547" lon="0.102004"/>
    <trkpt lat="51.401539" lon="0.102037"/>
    <trkpt lat="51.401533" lon="0.102066"/>
    <trkpt lat="51.401524" lon="0.102095"/>
    <trkpt lat="51.401514" lon="0.102127"/>
    <trkpt lat="51.401505" lon="0.102156"/>
    <trkpt lat="51.401495" lon="0.102186"/>
    <trkpt lat="51.401481" lon="0.102210"/>
    <trkpt lat="51.401468" lon="0.102237"/>
    <trkpt lat="51.401458" lon="0.102262"/>
    <trkpt lat="51.401444" lon="0.102287"/>
    <trkpt lat="51.401428" lon="0.102314"/>
    <trkpt lat="51.401410" lon="0.102343"/>
    <trkpt lat="51.401393" lon="0.102373"/>
    <trkpt lat="51.401375" lon="0.102398"/>
    <trkpt lat="51.401355" lon="0.102419"/>
    <trkpt lat="51.401335" lon="0.102442"/>
    <trkpt lat="51.401316" lon="0.102458"/>
    <trkpt lat="51.401296" lon="0.102467"/>
    <trkpt lat="51.401274" lon="0.102474"/>
    <trkpt lat="51.401252" lon="0.102478"/>
    <trkpt lat="51.401230" lon="0.102484"/>
    <trkpt lat="51.401207" lon="0.102492"/>
    <trkpt lat="51.401183" lon="0.102495"/>
    <trkpt lat="51.401159" lon="0.102485"/>
    <trkpt lat="51.401143" lon="0.102468"/>
    <trkpt lat="51.401133" lon="0.102441"/>
    <trkpt lat="51.401124" lon="0.102408"/>
    <trkpt lat="51.401117" lon="0.102384"/>
    <trkpt lat="51.401108" lon="0.102351"/>
    <trkpt lat="51.401103" lon="0.102327"/>
    <trkpt lat="51.401094" lon="0.102289"/>
    <trkpt lat="51.401085" lon="0.102264"/>
    <trkpt lat="51.401075" lon="0.102239"/>
    <trkpt lat="51.401066" lon="0.102205"/>
    <trkpt lat="51.401058" lon="0.102175"/>
    <trkpt lat="51.401047" lon="0.102151"/>
    <trkpt lat="51.401040" lon="0.102123"/>
    <trkpt lat="51.401034" lon="0.102091"/>
    <trkpt lat="51.401028" lon="0.102057"/>
    <trkpt lat="51.401021" lon="0.102034"/>
    <trkpt lat="51.401015" lon="0.101997"/>
    <trkpt lat="51.401013" lon="0.101967"/>
    <trkpt lat="51.401006" lon="0.101943"/>
    <trkpt lat="51.400998" lon="0.101916"/>
    <trkpt lat="51.400992" lon="0.101886"/>
    <trkpt lat="51.400988" lon="0.101856"/>
    <trkpt lat="51.400978" lon="0.101835"/>
    <trkpt lat="51.400968" lon="0.101813"/>
    <trkpt lat="51.400961" lon="0.101787"/>
    <trkpt lat="51.400956" lon="0.101763"/>
    <trkpt lat="51.400952" lon="0.101746"/>
    <trkpt lat="51.400948" lon="0.101724"/>
    <trkpt lat="51.400946" lon="0.101698"/>
    <trkpt lat="51.400938" lon="0.101671"/>
    <trkpt lat="51.400929" lon="0.101642"/>
    <trkpt lat="51.400924" lon="0.101607"/>
    <trkpt lat="51.400919" lon="0.101571"/>
    <trkpt lat="51.400913" lon="0.101543"/>
    <trkpt lat="51.400904" lon="0.101514"/>
    <trkpt lat="51.400897" lon="0.101483"/>
    <trkpt lat="51.400890" lon="0.101453"/>
    <trkpt lat="51.400883" lon="0.101425"/>
    <trkpt lat="51.400877" lon="0.101393"/>
    <trkpt lat="51.400872" lon="0.101357"/>
    <trkpt lat="51.400866" lon="0.101326"/>
    <trkpt lat="51.400858" lon="0.101299"/>
    <trkpt lat="51.400849" lon="0.101273"/>
    <trkpt lat="51.400839" lon="0.101243"/>
    <trkpt lat="51.400829" lon="0.101216"/>
    <trkpt lat="51.400824" lon="0.101184"/>
    <trkpt lat="51.400813" lon="0.101150"/>
    <trkpt lat="51.400807" lon="0.101121"/>
    <trkpt lat="51.400798" lon="0.101082"/>
    <trkpt lat="51.400788" lon="0.101049"/>
    <trkpt lat="51.400778" lon="0.101014"/>
    <trkpt lat="51.400771" lon="0.100976"/>
    <trkpt lat="51.400767" lon="0.100939"/>
    <trkpt lat="51.400760" lon="0.100902"/>
    <trkpt lat="51.400753" lon="0.100868"/>
    <trkpt lat="51.400749" lon="0.100837"/>
    <trkpt lat="51.400744" lon="0.100807"/>
    <trkpt lat="51.400739" lon="0.100770"/>
    <trkpt lat="51.400734" lon="0.100735"/>
    <trkpt lat="51.400729" lon="0.100697"/>
    <trkpt lat="51.400723" lon="0.100660"/>
    <trkpt lat="51.400719" lon="0.100625"/>
    <trkpt lat="51.400714" lon="0.100592"/>
    <trkpt lat="51.400707" lon="0.100561"/>
    <trkpt lat="51.400699" lon="0.100529"/>
    <trkpt lat="51.400695" lon="0.100497"/>
    <trkpt lat="51.400688" lon="0.100465"/>
    <trkpt lat="51.400683" lon="0.100436"/>
    <trkpt lat="51.400678" lon="0.100403"/>
    <trkpt lat="51.400675" lon="0.100369"/>
    <trkpt lat="51.400672" lon="0.100334"/>
    <trkpt lat="51.400670" lon="0.100297"/>
    <trkpt lat="51.400671" lon="0.100260"/>
    <trkpt lat="51.400671" lon="0.100223"/>
    <trkpt lat="51.400672" lon="0.100186"/>
    <trkpt lat="51.400674" lon="0.100148"/>
    <trkpt lat="51.400676" lon="0.100112"/>
    <trkpt lat="51.400678" lon="0.100076"/>
    <trkpt lat="51.400679" lon="0.100037"/>
    <trkpt lat="51.400680" lon="0.099997"/>
    <trkpt lat="51.400682" lon="0.099959"/>
    <trkpt lat="51.400683" lon="0.099922"/>
    <trkpt lat="51.400680" lon="0.099885"/>
    <trkpt lat="51.400681" lon="0.099851"/>
    <trkpt lat="51.400682" lon="0.099815"/>
    <trkpt lat="51.400685" lon="0.099777"/>
    <trkpt lat="51.400687" lon="0.099739"/>
    <trkpt lat="51.400688" lon="0.099701"/>
    <trkpt lat="51.400688" lon="0.099662"/>
    <trkpt lat="51.400690" lon="0.099617"/>
    <trkpt lat="51.400694" lon="0.099578"/>
    <trkpt lat="51.400698" lon="0.099543"/>
    <trkpt lat="51.400699" lon="0.099514"/>
    <trkpt lat="51.400702" lon="0.099471"/>
    <trkpt lat="51.400703" lon="0.099435"/>
    <trkpt lat="51.400703" lon="0.099396"/>
    <trkpt lat="51.400704" lon="0.099354"/>
    <trkpt lat="51.400706" lon="0.099320"/>
    <trkpt lat="51.400706" lon="0.099287"/>
    <trkpt lat="51.400709" lon="0.099251"/>
    <trkpt lat="51.400713" lon="0.099216"/>
    <trkpt lat="51.400715" lon="0.099182"/>
    <trkpt lat="51.400718" lon="0.099140"/>
    <trkpt lat="51.400724" lon="0.099102"/>
    <trkpt lat="51.400726" lon="0.099063"/>
    <trkpt lat="51.400729" lon="0.099018"/>
    <trkpt lat="51.400735" lon="0.098974"/>
    <trkpt lat="51.400750" lon="0.098946"/>
    <trkpt lat="51.400773" lon="0.098932"/>
    <trkpt lat="51.400799" lon="0.098931"/>
    <trkpt lat="51.400831" lon="0.098933"/>
    <trkpt lat="51.400861" lon="0.098936"/>
    <trkpt lat="51.400893" lon="0.098941"/>
    <trkpt lat="51.400924" lon="0.098944"/>
    <trkpt lat="51.400958" lon="0.098945"/>
    <trkpt lat="51.400995" lon="0.098947"/>
    <trkpt lat="51.401023" lon="0.098949"/>
    <trkpt lat="51.401051" lon="0.098950"/>
    <trkpt lat="51.401078" lon="0.098951"/>
    <trkpt lat="51.401106" lon="0.098954"/>
    <trkpt lat="51.401137" lon="0.098955"/>
    <trkpt lat="51.401167" lon="0.098955"/>
    <trkpt lat="51.401192" lon="0.098955"/>
    <trkpt lat="51.401220" lon="0.098949"/>
    <trkpt lat="51.401249" lon="0.098949"/>
    <trkpt lat="51.401277" lon="0.098947"/>
    <trkpt lat="51.401304" lon="0.098947"/>
    <trkpt lat="51.401329" lon="0.098947"/>
    <trkpt lat="51.401346" lon="0.098949"/>
  </trkseg></trk>
</gpx>
