<?xml version="1.0" encoding="UTF-8"?>
<gpx version="1.1" creator="5k-9am-osm-route-cache v0.8.3" xmlns="http://www.topografix.com/GPX/1/1">
  <metadata><desc>Derived from OpenStreetMap ((c) OpenStreetMap contributors, ODbL). source=osm_9am_trace_doubled; built_by=v0.8.3</desc></metadata>
  <trk><name>Livingston parkrun</name><trkseg>
    <trkpt lat="55.886936" lon="-3.519157"/>
    <trkpt lat="55.886923" lon="-3.519142"/>
    <trkpt lat="55.886904" lon="-3.519130"/>
    <trkpt lat="55.886886" lon="-3.519116"/>
    <trkpt lat="55.886866" lon="-3.519100"/>
    <trkpt lat="55.886843" lon="-3.519082"/>
    <trkpt lat="55.886820" lon="-3.519059"/>
    <trkpt lat="55.886796" lon="-3.519032"/>
    <trkpt lat="55.886772" lon="-3.519001"/>
    <trkpt lat="55.886747" lon="-3.518964"/>
    <trkpt lat="55.886723" lon="-3.518923"/>
    <trkpt lat="55.886698" lon="-3.518879"/>
    <trkpt lat="55.886672" lon="-3.518832"/>
    <trkpt lat="55.886647" lon="-3.518782"/>
    <trkpt lat="55.886622" lon="-3.518730"/>
    <trkpt lat="55.886598" lon="-3.518675"/>
    <trkpt lat="55.886575" lon="-3.518618"/>
    <trkpt lat="55.886553" lon="-3.518559"/>
    <trkpt lat="55.886532" lon="-3.518497"/>
    <trkpt lat="55.886512" lon="-3.518433"/>
    <trkpt lat="55.886494" lon="-3.518368"/>
    <trkpt lat="55.886476" lon="-3.518300"/>
    <trkpt lat="55.886460" lon="-3.518231"/>
    <trkpt lat="55.886445" lon="-3.518162"/>
    <trkpt lat="55.886431" lon="-3.518091"/>
    <trkpt lat="55.886418" lon="-3.518020"/>
    <trkpt lat="55.886406" lon="-3.517950"/>
    <trkpt lat="55.886396" lon="-3.517878"/>
    <trkpt lat="55.886387" lon="-3.517807"/>
    <trkpt lat="55.886380" lon="-3.517737"/>
    <trkpt lat="55.886373" lon="-3.517667"/>
    <trkpt lat="55.886368" lon="-3.517598"/>
    <trkpt lat="55.886362" lon="-3.517531"/>
    <trkpt lat="55.886358" lon="-3.517463"/>
    <trkpt lat="55.886354" lon="-3.517397"/>
    <trkpt lat="55.886350" lon="-3.517333"/>
    <trkpt lat="55.886347" lon="-3.517268"/>
    <trkpt lat="55.886344" lon="-3.517205"/>
    <trkpt lat="55.886342" lon="-3.517142"/>
    <trkpt lat="55.886340" lon="-3.517080"/>
    <trkpt lat="55.886338" lon="-3.517018"/>
    <trkpt lat="55.886337" lon="-3.516958"/>
    <trkpt lat="55.886337" lon="-3.516897"/>
    <trkpt lat="55.886336" lon="-3.516838"/>
    <trkpt lat="55.886337" lon="-3.516779"/>
    <trkpt lat="55.886337" lon="-3.516720"/>
    <trkpt lat="55.886339" lon="-3.516662"/>
    <trkpt lat="55.886341" lon="-3.516604"/>
    <trkpt lat="55.886344" lon="-3.516547"/>
    <trkpt lat="55.886349" lon="-3.516488"/>
    <trkpt lat="55.886354" lon="-3.516430"/>
    <trkpt lat="55.886360" lon="-3.516371"/>
    <trkpt lat="55.886366" lon="-3.516310"/>
    <trkpt lat="55.886372" lon="-3.516248"/>
    <trkpt lat="55.886379" lon="-3.516185"/>
    <trkpt lat="55.886387" lon="-3.516119"/>
    <trkpt lat="55.886395" lon="-3.516053"/>
    <trkpt lat="55.886404" lon="-3.515987"/>
    <trkpt lat="55.886414" lon="-3.515921"/>
    <trkpt lat="55.886425" lon="-3.515855"/>
    <trkpt lat="55.886437" lon="-3.515789"/>
    <trkpt lat="55.886449" lon="-3.515724"/>
    <trkpt lat="55.886461" lon="-3.515659"/>
    <trkpt lat="55.886474" lon="-3.515595"/>
    <trkpt lat="55.886486" lon="-3.515531"/>
    <trkpt lat="55.886499" lon="-3.515469"/>
    <trkpt lat="55.886512" lon="-3.515407"/>
    <trkpt lat="55.886525" lon="-3.515345"/>
    <trkpt lat="55.886539" lon="-3.515284"/>
    <trkpt lat="55.886552" lon="-3.515222"/>
    <trkpt lat="55.886565" lon="-3.515161"/>
    <trkpt lat="55.886578" lon="-3.515099"/>
    <trkpt lat="55.886589" lon="-3.515037"/>
    <trkpt lat="55.886599" lon="-3.514974"/>
    <trkpt lat="55.886609" lon="-3.514911"/>
    <trkpt lat="55.886617" lon="-3.514848"/>
    <trkpt lat="55.886624" lon="-3.514784"/>
    <trkpt lat="55.886631" lon="-3.514719"/>
    <trkpt lat="55.886637" lon="-3.514655"/>
    <trkpt lat="55.886643" lon="-3.514591"/>
    <trkpt lat="55.886648" lon="-3.514527"/>
    <trkpt lat="55.886653" lon="-3.514464"/>
    <trkpt lat="55.886657" lon="-3.514400"/>
    <trkpt lat="55.886662" lon="-3.514337"/>
    <trkpt lat="55.886667" lon="-3.514275"/>
    <trkpt lat="55.886674" lon="-3.514212"/>
    <trkpt lat="55.886683" lon="-3.514150"/>
    <trkpt lat="55.886693" lon="-3.514087"/>
    <trkpt lat="55.886705" lon="-3.514025"/>
    <trkpt lat="55.886718" lon="-3.513962"/>
    <trkpt lat="55.886732" lon="-3.513901"/>
    <trkpt lat="55.886745" lon="-3.513842"/>
    <trkpt lat="55.886759" lon="-3.513786"/>
    <trkpt lat="55.886774" lon="-3.513731"/>
    <trkpt lat="55.886790" lon="-3.513679"/>
    <trkpt lat="55.886808" lon="-3.513629"/>
    <trkpt lat="55.886829" lon="-3.513582"/>
    <trkpt lat="55.886851" lon="-3.513537"/>
    <trkpt lat="55.886875" lon="-3.513494"/>
    <trkpt lat="55.886899" lon="-3.513454"/>
    <trkpt lat="55.886925" lon="-3.513416"/>
    <trkpt lat="55.886952" lon="-3.513379"/>
    <trkpt lat="55.886979" lon="-3.513343"/>
    <trkpt lat="55.887006" lon="-3.513307"/>
    <trkpt lat="55.887034" lon="-3.513272"/>
    <trkpt lat="55.887062" lon="-3.513236"/>
    <trkpt lat="55.887090" lon="-3.513200"/>
    <trkpt lat="55.887119" lon="-3.513164"/>
    <trkpt lat="55.887148" lon="-3.513129"/>
    <trkpt lat="55.887176" lon="-3.513094"/>
    <trkpt lat="55.887204" lon="-3.513060"/>
    <trkpt lat="55.887232" lon="-3.513028"/>
    <trkpt lat="55.887258" lon="-3.512997"/>
    <trkpt lat="55.887284" lon="-3.512966"/>
    <trkpt lat="55.887306" lon="-3.512933"/>
    <trkpt lat="55.887322" lon="-3.512898"/>
    <trkpt lat="55.887328" lon="-3.512865"/>
    <trkpt lat="55.887323" lon="-3.512837"/>
    <trkpt lat="55.887308" lon="-3.512817"/>
    <trkpt lat="55.887282" lon="-3.512808"/>
    <trkpt lat="55.887251" lon="-3.512811"/>
    <trkpt lat="55.887218" lon="-3.512822"/>
    <trkpt lat="55.887182" lon="-3.512837"/>
    <trkpt lat="55.887146" lon="-3.512855"/>
    <trkpt lat="55.887110" lon="-3.512875"/>
    <trkpt lat="55.887073" lon="-3.512898"/>
    <trkpt lat="55.887038" lon="-3.512924"/>
    <trkpt lat="55.887003" lon="-3.512951"/>
    <trkpt lat="55.886968" lon="-3.512979"/>
    <trkpt lat="55.886935" lon="-3.513009"/>
    <trkpt lat="55.886903" lon="-3.513040"/>
    <trkpt lat="55.886872" lon="-3.513071"/>
    <trkpt lat="55.886843" lon="-3.513102"/>
    <trkpt lat="55.886815" lon="-3.513135"/>
    <trkpt lat="55.886788" lon="-3.513168"/>
    <trkpt lat="55.886762" lon="-3.513202"/>
    <trkpt lat="55.886736" lon="-3.513238"/>
    <trkpt lat="55.886711" lon="-3.513276"/>
    <trkpt lat="55.886687" lon="-3.513315"/>
    <trkpt lat="55.886662" lon="-3.513356"/>
    <trkpt lat="55.886638" lon="-3.513399"/>
    <trkpt lat="55.886615" lon="-3.513444"/>
    <trkpt lat="55.886592" lon="-3.513492"/>
    <trkpt lat="55.886570" lon="-3.513541"/>
    <trkpt lat="55.886550" lon="-3.513591"/>
    <trkpt lat="55.886530" lon="-3.513643"/>
    <trkpt lat="55.886511" lon="-3.513693"/>
    <trkpt lat="55.886494" lon="-3.513743"/>
    <trkpt lat="55.886477" lon="-3.513793"/>
    <trkpt lat="55.886461" lon="-3.513842"/>
    <trkpt lat="55.886446" lon="-3.513892"/>
    <trkpt lat="55.886432" lon="-3.513945"/>
    <trkpt lat="55.886419" lon="-3.513999"/>
    <trkpt lat="55.886406" lon="-3.514057"/>
    <trkpt lat="55.886394" lon="-3.514117"/>
    <trkpt lat="55.886382" lon="-3.514179"/>
    <trkpt lat="55.886369" lon="-3.514243"/>
    <trkpt lat="55.886357" lon="-3.514309"/>
    <trkpt lat="55.886344" lon="-3.514375"/>
    <trkpt lat="55.886332" lon="-3.514442"/>
    <trkpt lat="55.886319" lon="-3.514510"/>
    <trkpt lat="55.886307" lon="-3.514578"/>
    <trkpt lat="55.886296" lon="-3.514646"/>
    <trkpt lat="55.886286" lon="-3.514714"/>
    <trkpt lat="55.886276" lon="-3.514781"/>
    <trkpt lat="55.886267" lon="-3.514848"/>
    <trkpt lat="55.886260" lon="-3.514913"/>
    <trkpt lat="55.886253" lon="-3.514977"/>
    <trkpt lat="55.886247" lon="-3.515039"/>
    <trkpt lat="55.886241" lon="-3.515099"/>
    <trkpt lat="55.886235" lon="-3.515157"/>
    <trkpt lat="55.886229" lon="-3.515214"/>
    <trkpt lat="55.886223" lon="-3.515267"/>
    <trkpt lat="55.886217" lon="-3.515318"/>
    <trkpt lat="55.886212" lon="-3.515368"/>
    <trkpt lat="55.886207" lon="-3.515416"/>
    <trkpt lat="55.886203" lon="-3.515462"/>
    <trkpt lat="55.886199" lon="-3.515508"/>
    <trkpt lat="55.886196" lon="-3.515554"/>
    <trkpt lat="55.886192" lon="-3.515598"/>
    <trkpt lat="55.886188" lon="-3.515643"/>
    <trkpt lat="55.886184" lon="-3.515689"/>
    <trkpt lat="55.886180" lon="-3.515734"/>
    <trkpt lat="55.886176" lon="-3.515780"/>
    <trkpt lat="55.886173" lon="-3.515825"/>
    <trkpt lat="55.886169" lon="-3.515869"/>
    <trkpt lat="55.886165" lon="-3.515914"/>
    <trkpt lat="55.886161" lon="-3.515958"/>
    <trkpt lat="55.886157" lon="-3.516002"/>
    <trkpt lat="55.886153" lon="-3.516045"/>
    <trkpt lat="55.886148" lon="-3.516089"/>
    <trkpt lat="55.886143" lon="-3.516132"/>
    <trkpt lat="55.886139" lon="-3.516175"/>
    <trkpt lat="55.886134" lon="-3.516219"/>
    <trkpt lat="55.886130" lon="-3.516263"/>
    <trkpt lat="55.886128" lon="-3.516308"/>
    <trkpt lat="55.886127" lon="-3.516353"/>
    <trkpt lat="55.886128" lon="-3.516399"/>
    <trkpt lat="55.886130" lon="-3.516446"/>
    <trkpt lat="55.886132" lon="-3.516493"/>
    <trkpt lat="55.886133" lon="-3.516542"/>
    <trkpt lat="55.886132" lon="-3.516589"/>
    <trkpt lat="55.886129" lon="-3.516637"/>
    <trkpt lat="55.886124" lon="-3.516686"/>
    <trkpt lat="55.886118" lon="-3.516735"/>
    <trkpt lat="55.886111" lon="-3.516787"/>
    <trkpt lat="55.886103" lon="-3.516842"/>
    <trkpt lat="55.886095" lon="-3.516900"/>
    <trkpt lat="55.886087" lon="-3.516962"/>
    <trkpt lat="55.886078" lon="-3.517027"/>
    <trkpt lat="55.886069" lon="-3.517094"/>
    <trkpt lat="55.886061" lon="-3.517164"/>
    <trkpt lat="55.886053" lon="-3.517236"/>
    <trkpt lat="55.886045" lon="-3.517310"/>
    <trkpt lat="55.886036" lon="-3.517384"/>
    <trkpt lat="55.886025" lon="-3.517457"/>
    <trkpt lat="55.886012" lon="-3.517529"/>
    <trkpt lat="55.885997" lon="-3.517599"/>
    <trkpt lat="55.885981" lon="-3.517666"/>
    <trkpt lat="55.885964" lon="-3.517731"/>
    <trkpt lat="55.885947" lon="-3.517793"/>
    <trkpt lat="55.885930" lon="-3.517853"/>
    <trkpt lat="55.885913" lon="-3.517911"/>
    <trkpt lat="55.885898" lon="-3.517969"/>
    <trkpt lat="55.885885" lon="-3.518026"/>
    <trkpt lat="55.885873" lon="-3.518084"/>
    <trkpt lat="55.885864" lon="-3.518144"/>
    <trkpt lat="55.885858" lon="-3.518203"/>
    <trkpt lat="55.885854" lon="-3.518262"/>
    <trkpt lat="55.885852" lon="-3.518321"/>
    <trkpt lat="55.885854" lon="-3.518379"/>
    <trkpt lat="55.885857" lon="-3.518434"/>
    <trkpt lat="55.885863" lon="-3.518487"/>
    <trkpt lat="55.885872" lon="-3.518535"/>
    <trkpt lat="55.885885" lon="-3.518577"/>
    <trkpt lat="55.885902" lon="-3.518613"/>
    <trkpt lat="55.885921" lon="-3.518642"/>
    <trkpt lat="55.885943" lon="-3.518663"/>
    <trkpt lat="55.885967" lon="-3.518679"/>
    <trkpt lat="55.885993" lon="-3.518692"/>
    <trkpt lat="55.886019" lon="-3.518701"/>
    <trkpt lat="55.886046" lon="-3.518710"/>
    <trkpt lat="55.886073" lon="-3.518718"/>
    <trkpt lat="55.886102" lon="-3.518724"/>
    <trkpt lat="55.886131" lon="-3.518733"/>
    <trkpt lat="55.886161" lon="-3.518742"/>
    <trkpt lat="55.886191" lon="-3.518753"/>
    <trkpt lat="55.886222" lon="-3.518768"/>
    <trkpt lat="55.886252" lon="-3.518786"/>
    <trkpt lat="55.886282" lon="-3.518806"/>
    <trkpt lat="55.886311" lon="-3.518826"/>
    <trkpt lat="55.886341" lon="-3.518846"/>
    <trkpt lat="55.886370" lon="-3.518862"/>
    <trkpt lat="55.886399" lon="-3.518874"/>
    <trkpt lat="55.886428" lon="-3.518883"/>
    <trkpt lat="55.886459" lon="-3.518889"/>
    <trkpt lat="55.886491" lon="-3.518894"/>
    <trkpt lat="55.886525" lon="-3.518900"/>
    <trkpt lat="55.886559" lon="-3.518907"/>
    <trkpt lat="55.886594" lon="-3.518916"/>
    <trkpt lat="55.886629" lon="-3.518929"/>
    <trkpt lat="55.886664" lon="-3.518944"/>
    <trkpt lat="55.886699" lon="-3.518960"/>
    <trkpt lat="55.886734" lon="-3.518978"/>
    <trkpt lat="55.886769" lon="-3.518996"/>
    <trkpt lat="55.886804" lon="-3.519013"/>
    <trkpt lat="55.886839" lon="-3.519030"/>
    <trkpt lat="55.886873" lon="-3.519047"/>
    <trkpt lat="55.886905" lon="-3.519063"/>
    <trkpt lat="55.886936" lon="-3.519078"/>
    <trkpt lat="55.886967" lon="-3.519092"/>
    <trkpt lat="55.886998" lon="-3.519107"/>
    <trkpt lat="55.887029" lon="-3.519122"/>
    <trkpt lat="55.887060" lon="-3.519137"/>
    <trkpt lat="55.887090" lon="-3.519151"/>
    <trkpt lat="55.887122" lon="-3.519165"/>
    <trkpt lat="55.887154" lon="-3.519179"/>
    <trkpt lat="55.887187" lon="-3.519191"/>
    <trkpt lat="55.887220" lon="-3.519205"/>
    <trkpt lat="55.887253" lon="-3.519221"/>
    <trkpt lat="55.887286" lon="-3.519240"/>
    <trkpt lat="55.887319" lon="-3.519263"/>
    <trkpt lat="55.887350" lon="-3.519288"/>
    <trkpt lat="55.887381" lon="-3.519315"/>
    <trkpt lat="55.887412" lon="-3.519344"/>
    <trkpt lat="55.887442" lon="-3.519373"/>
    <trkpt lat="55.887471" lon="-3.519403"/>
    <trkpt lat="55.887500" lon="-3.519435"/>
    <trkpt lat="55.887528" lon="-3.519469"/>
    <trkpt lat="55.887554" lon="-3.519504"/>
    <trkpt lat="55.887580" lon="-3.519540"/>
    <trkpt lat="55.887604" lon="-3.519576"/>
    <trkpt lat="55.887627" lon="-3.519612"/>
    <trkpt lat="55.887649" lon="-3.519648"/>
    <trkpt lat="55.887671" lon="-3.519682"/>
    <trkpt lat="55.887692" lon="-3.519715"/>
    <trkpt lat="55.887714" lon="-3.519746"/>
    <trkpt lat="55.887735" lon="-3.519774"/>
    <trkpt lat="55.887757" lon="-3.519801"/>
    <trkpt lat="55.887778" lon="-3.519827"/>
    <trkpt lat="55.887799" lon="-3.519854"/>
    <trkpt lat="55.887820" lon="-3.519882"/>
    <trkpt lat="55.887840" lon="-3.519915"/>
    <trkpt lat="55.887860" lon="-3.519951"/>
    <trkpt lat="55.887877" lon="-3.519992"/>
    <trkpt lat="55.887893" lon="-3.520037"/>
    <trkpt lat="55.887906" lon="-3.520086"/>
    <trkpt lat="55.887917" lon="-3.520136"/>
    <trkpt lat="55.887926" lon="-3.520189"/>
    <trkpt lat="55.887935" lon="-3.520243"/>
    <trkpt lat="55.887943" lon="-3.520300"/>
    <trkpt lat="55.887953" lon="-3.520358"/>
    <trkpt lat="55.887963" lon="-3.520417"/>
    <trkpt lat="55.887973" lon="-3.520479"/>
    <trkpt lat="55.887983" lon="-3.520542"/>
    <trkpt lat="55.887992" lon="-3.520604"/>
    <trkpt lat="55.888000" lon="-3.520665"/>
    <trkpt lat="55.888007" lon="-3.520725"/>
    <trkpt lat="55.888014" lon="-3.520784"/>
    <trkpt lat="55.888019" lon="-3.520843"/>
    <trkpt lat="55.888025" lon="-3.520901"/>
    <trkpt lat="55.888030" lon="-3.520959"/>
    <trkpt lat="55.888035" lon="-3.521017"/>
    <trkpt lat="55.888039" lon="-3.521074"/>
    <trkpt lat="55.888042" lon="-3.521131"/>
    <trkpt lat="55.888045" lon="-3.521189"/>
    <trkpt lat="55.888046" lon="-3.521247"/>
    <trkpt lat="55.888047" lon="-3.521307"/>
    <trkpt lat="55.888047" lon="-3.521367"/>
    <trkpt lat="55.888047" lon="-3.521427"/>
    <trkpt lat="55.888047" lon="-3.521486"/>
    <trkpt lat="55.888047" lon="-3.521545"/>
    <trkpt lat="55.888048" lon="-3.521604"/>
    <trkpt lat="55.888049" lon="-3.521662"/>
    <trkpt lat="55.888050" lon="-3.521720"/>
    <trkpt lat="55.888053" lon="-3.521779"/>
    <trkpt lat="55.888056" lon="-3.521838"/>
    <trkpt lat="55.888060" lon="-3.521897"/>
    <trkpt lat="55.888064" lon="-3.521956"/>
    <trkpt lat="55.888068" lon="-3.522016"/>
    <trkpt lat="55.888073" lon="-3.522077"/>
    <trkpt lat="55.888077" lon="-3.522139"/>
    <trkpt lat="55.888080" lon="-3.522200"/>
    <trkpt lat="55.888083" lon="-3.522261"/>
    <trkpt lat="55.888086" lon="-3.522320"/>
    <trkpt lat="55.888087" lon="-3.522377"/>
    <trkpt lat="55.888089" lon="-3.522433"/>
    <trkpt lat="55.888092" lon="-3.522487"/>
    <trkpt lat="55.888094" lon="-3.522542"/>
    <trkpt lat="55.888097" lon="-3.522596"/>
    <trkpt lat="55.888100" lon="-3.522651"/>
    <trkpt lat="55.888101" lon="-3.522708"/>
    <trkpt lat="55.888102" lon="-3.522765"/>
    <trkpt lat="55.888101" lon="-3.522822"/>
    <trkpt lat="55.888099" lon="-3.522880"/>
    <trkpt lat="55.888096" lon="-3.522938"/>
    <trkpt lat="55.888092" lon="-3.522995"/>
    <trkpt lat="55.888086" lon="-3.523052"/>
    <trkpt lat="55.888081" lon="-3.523108"/>
    <trkpt lat="55.888074" lon="-3.523162"/>
    <trkpt lat="55.888068" lon="-3.523216"/>
    <trkpt lat="55.888062" lon="-3.523269"/>
    <trkpt lat="55.888056" lon="-3.523321"/>
    <trkpt lat="55.888051" lon="-3.523372"/>
    <trkpt lat="55.888046" lon="-3.523423"/>
    <trkpt lat="55.888041" lon="-3.523474"/>
    <trkpt lat="55.888036" lon="-3.523525"/>
    <trkpt lat="55.888031" lon="-3.523576"/>
    <trkpt lat="55.888026" lon="-3.523628"/>
    <trkpt lat="55.888020" lon="-3.523680"/>
    <trkpt lat="55.888012" lon="-3.523731"/>
    <trkpt lat="55.888004" lon="-3.523784"/>
    <trkpt lat="55.887994" lon="-3.523838"/>
    <trkpt lat="55.887983" lon="-3.523894"/>
    <trkpt lat="55.887973" lon="-3.523949"/>
    <trkpt lat="55.887962" lon="-3.524006"/>
    <trkpt lat="55.887951" lon="-3.524062"/>
    <trkpt lat="55.887940" lon="-3.524119"/>
    <trkpt lat="55.887928" lon="-3.524176"/>
    <trkpt lat="55.887916" lon="-3.524231"/>
    <trkpt lat="55.887902" lon="-3.524287"/>
    <trkpt lat="55.887889" lon="-3.524341"/>
    <trkpt lat="55.887875" lon="-3.524395"/>
    <trkpt lat="55.887863" lon="-3.524446"/>
    <trkpt lat="55.887852" lon="-3.524497"/>
    <trkpt lat="55.887842" lon="-3.524549"/>
    <trkpt lat="55.887835" lon="-3.524600"/>
    <trkpt lat="55.887829" lon="-3.524650"/>
    <trkpt lat="55.887825" lon="-3.524700"/>
    <trkpt lat="55.887821" lon="-3.524748"/>
    <trkpt lat="55.887818" lon="-3.524796"/>
    <trkpt lat="55.887815" lon="-3.524843"/>
    <trkpt lat="55.887811" lon="-3.524889"/>
    <trkpt lat="55.887808" lon="-3.524936"/>
    <trkpt lat="55.887805" lon="-3.524983"/>
    <trkpt lat="55.887804" lon="-3.525031"/>
    <trkpt lat="55.887804" lon="-3.525078"/>
    <trkpt lat="55.887804" lon="-3.525126"/>
    <trkpt lat="55.887805" lon="-3.525173"/>
    <trkpt lat="55.887804" lon="-3.525220"/>
    <trkpt lat="55.887802" lon="-3.525268"/>
    <trkpt lat="55.887797" lon="-3.525316"/>
    <trkpt lat="55.887789" lon="-3.525363"/>
    <trkpt lat="55.887779" lon="-3.525410"/>
    <trkpt lat="55.887766" lon="-3.525456"/>
    <trkpt lat="55.887751" lon="-3.525501"/>
    <trkpt lat="55.887734" lon="-3.525545"/>
    <trkpt lat="55.887717" lon="-3.525589"/>
    <trkpt lat="55.887699" lon="-3.525633"/>
    <trkpt lat="55.887682" lon="-3.525677"/>
    <trkpt lat="55.887666" lon="-3.525722"/>
    <trkpt lat="55.887652" lon="-3.525768"/>
    <trkpt lat="55.887640" lon="-3.525816"/>
    <trkpt lat="55.887631" lon="-3.525864"/>
    <trkpt lat="55.887625" lon="-3.525913"/>
    <trkpt lat="55.887621" lon="-3.525964"/>
    <trkpt lat="55.887619" lon="-3.526014"/>
    <trkpt lat="55.887617" lon="-3.526064"/>
    <trkpt lat="55.887615" lon="-3.526114"/>
    <trkpt lat="55.887612" lon="-3.526164"/>
    <trkpt lat="55.887608" lon="-3.526211"/>
    <trkpt lat="55.887605" lon="-3.526259"/>
    <trkpt lat="55.887603" lon="-3.526305"/>
    <trkpt lat="55.887603" lon="-3.526351"/>
    <trkpt lat="55.887603" lon="-3.526396"/>
    <trkpt lat="55.887606" lon="-3.526440"/>
    <trkpt lat="55.887609" lon="-3.526482"/>
    <trkpt lat="55.887613" lon="-3.526523"/>
    <trkpt lat="55.887617" lon="-3.526562"/>
    <trkpt lat="55.887622" lon="-3.526600"/>
    <trkpt lat="55.887626" lon="-3.526638"/>
    <trkpt lat="55.887631" lon="-3.526676"/>
    <trkpt lat="55.887634" lon="-3.526715"/>
    <trkpt lat="55.887637" lon="-3.526756"/>
    <trkpt lat="55.887638" lon="-3.526800"/>
    <trkpt lat="55.887638" lon="-3.526844"/>
    <trkpt lat="55.887637" lon="-3.526890"/>
    <trkpt lat="55.887636" lon="-3.526937"/>
    <trkpt lat="55.887636" lon="-3.526984"/>
    <trkpt lat="55.887637" lon="-3.527030"/>
    <trkpt lat="55.887641" lon="-3.527076"/>
    <trkpt lat="55.887646" lon="-3.527121"/>
    <trkpt lat="55.887653" lon="-3.527165"/>
    <trkpt lat="55.887662" lon="-3.527208"/>
    <trkpt lat="55.887671" lon="-3.527251"/>
    <trkpt lat="55.887681" lon="-3.527294"/>
    <trkpt lat="55.887691" lon="-3.527338"/>
    <trkpt lat="55.887699" lon="-3.527385"/>
    <trkpt lat="55.887706" lon="-3.527434"/>
    <trkpt lat="55.887709" lon="-3.527486"/>
    <trkpt lat="55.887709" lon="-3.527540"/>
    <trkpt lat="55.887705" lon="-3.527595"/>
    <trkpt lat="55.887694" lon="-3.527648"/>
    <trkpt lat="55.887677" lon="-3.527698"/>
    <trkpt lat="55.887655" lon="-3.527742"/>
    <trkpt lat="55.887629" lon="-3.527780"/>
    <trkpt lat="55.887600" lon="-3.527811"/>
    <trkpt lat="55.887572" lon="-3.527837"/>
    <trkpt lat="55.887544" lon="-3.527863"/>
    <trkpt lat="55.887518" lon="-3.527890"/>
    <trkpt lat="55.887495" lon="-3.527919"/>
    <trkpt lat="55.887474" lon="-3.527952"/>
    <trkpt lat="55.887454" lon="-3.527987"/>
    <trkpt lat="55.887435" lon="-3.528022"/>
    <trkpt lat="55.887416" lon="-3.528059"/>
    <trkpt lat="55.887397" lon="-3.528097"/>
    <trkpt lat="55.887378" lon="-3.528136"/>
    <trkpt lat="55.887361" lon="-3.528176"/>
    <trkpt lat="55.887344" lon="-3.528216"/>
    <trkpt lat="55.887327" lon="-3.528255"/>
    <trkpt lat="55.887311" lon="-3.528293"/>
    <trkpt lat="55.887295" lon="-3.528329"/>
    <trkpt lat="55.887277" lon="-3.528360"/>
    <trkpt lat="55.887258" lon="-3.528385"/>
    <trkpt lat="55.887235" lon="-3.528404"/>
    <trkpt lat="55.887210" lon="-3.528416"/>
    <trkpt lat="55.887181" lon="-3.528419"/>
    <trkpt lat="55.887149" lon="-3.528414"/>
    <trkpt lat="55.887116" lon="-3.528403"/>
    <trkpt lat="55.887082" lon="-3.528385"/>
    <trkpt lat="55.887047" lon="-3.528364"/>
    <trkpt lat="55.887013" lon="-3.528341"/>
    <trkpt lat="55.886977" lon="-3.528317"/>
    <trkpt lat="55.886939" lon="-3.528293"/>
    <trkpt lat="55.886899" lon="-3.528269"/>
    <trkpt lat="55.886856" lon="-3.528248"/>
    <trkpt lat="55.886812" lon="-3.528228"/>
    <trkpt lat="55.886766" lon="-3.528213"/>
    <trkpt lat="55.886721" lon="-3.528202"/>
    <trkpt lat="55.886677" lon="-3.528198"/>
    <trkpt lat="55.886636" lon="-3.528199"/>
    <trkpt lat="55.886598" lon="-3.528208"/>
    <trkpt lat="55.886564" lon="-3.528222"/>
    <trkpt lat="55.886532" lon="-3.528242"/>
    <trkpt lat="55.886501" lon="-3.528266"/>
    <trkpt lat="55.886472" lon="-3.528294"/>
    <trkpt lat="55.886443" lon="-3.528323"/>
    <trkpt lat="55.886416" lon="-3.528356"/>
    <trkpt lat="55.886389" lon="-3.528392"/>
    <trkpt lat="55.886364" lon="-3.528431"/>
    <trkpt lat="55.886341" lon="-3.528473"/>
    <trkpt lat="55.886319" lon="-3.528517"/>
    <trkpt lat="55.886298" lon="-3.528563"/>
    <trkpt lat="55.886277" lon="-3.528608"/>
    <trkpt lat="55.886256" lon="-3.528654"/>
    <trkpt lat="55.886236" lon="-3.528701"/>
    <trkpt lat="55.886215" lon="-3.528748"/>
    <trkpt lat="55.886195" lon="-3.528794"/>
    <trkpt lat="55.886175" lon="-3.528841"/>
    <trkpt lat="55.886155" lon="-3.528888"/>
    <trkpt lat="55.886136" lon="-3.528933"/>
    <trkpt lat="55.886117" lon="-3.528979"/>
    <trkpt lat="55.886098" lon="-3.529025"/>
    <trkpt lat="55.886078" lon="-3.529072"/>
    <trkpt lat="55.886057" lon="-3.529118"/>
    <trkpt lat="55.886035" lon="-3.529165"/>
    <trkpt lat="55.886013" lon="-3.529211"/>
    <trkpt lat="55.885991" lon="-3.529259"/>
    <trkpt lat="55.885969" lon="-3.529309"/>
    <trkpt lat="55.885947" lon="-3.529360"/>
    <trkpt lat="55.885926" lon="-3.529412"/>
    <trkpt lat="55.885904" lon="-3.529465"/>
    <trkpt lat="55.885883" lon="-3.529517"/>
    <trkpt lat="55.885862" lon="-3.529567"/>
    <trkpt lat="55.885841" lon="-3.529617"/>
    <trkpt lat="55.885821" lon="-3.529666"/>
    <trkpt lat="55.885801" lon="-3.529717"/>
    <trkpt lat="55.885781" lon="-3.529768"/>
    <trkpt lat="55.885760" lon="-3.529820"/>
    <trkpt lat="55.885740" lon="-3.529874"/>
    <trkpt lat="55.885719" lon="-3.529927"/>
    <trkpt lat="55.885699" lon="-3.529981"/>
    <trkpt lat="55.885679" lon="-3.530035"/>
    <trkpt lat="55.885659" lon="-3.530087"/>
    <trkpt lat="55.885639" lon="-3.530139"/>
    <trkpt lat="55.885620" lon="-3.530189"/>
    <trkpt lat="55.885601" lon="-3.530238"/>
    <trkpt lat="55.885582" lon="-3.530287"/>
    <trkpt lat="55.885565" lon="-3.530335"/>
    <trkpt lat="55.885548" lon="-3.530385"/>
    <trkpt lat="55.885532" lon="-3.530436"/>
    <trkpt lat="55.885517" lon="-3.530487"/>
    <trkpt lat="55.885501" lon="-3.530538"/>
    <trkpt lat="55.885484" lon="-3.530589"/>
    <trkpt lat="55.885466" lon="-3.530638"/>
    <trkpt lat="55.885445" lon="-3.530686"/>
    <trkpt lat="55.885423" lon="-3.530731"/>
    <trkpt lat="55.885400" lon="-3.530775"/>
    <trkpt lat="55.885376" lon="-3.530818"/>
    <trkpt lat="55.885353" lon="-3.530860"/>
    <trkpt lat="55.885330" lon="-3.530901"/>
    <trkpt lat="55.885308" lon="-3.530943"/>
    <trkpt lat="55.885286" lon="-3.530984"/>
    <trkpt lat="55.885264" lon="-3.531026"/>
    <trkpt lat="55.885242" lon="-3.531067"/>
    <trkpt lat="55.885221" lon="-3.531108"/>
    <trkpt lat="55.885200" lon="-3.531150"/>
    <trkpt lat="55.885179" lon="-3.531192"/>
    <trkpt lat="55.885159" lon="-3.531235"/>
    <trkpt lat="55.885139" lon="-3.531278"/>
    <trkpt lat="55.885120" lon="-3.531321"/>
    <trkpt lat="55.885101" lon="-3.531363"/>
    <trkpt lat="55.885081" lon="-3.531405"/>
    <trkpt lat="55.885061" lon="-3.531446"/>
    <trkpt lat="55.885040" lon="-3.531488"/>
    <trkpt lat="55.885019" lon="-3.531529"/>
    <trkpt lat="55.884997" lon="-3.531571"/>
    <trkpt lat="55.884974" lon="-3.531613"/>
    <trkpt lat="55.884951" lon="-3.531655"/>
    <trkpt lat="55.884927" lon="-3.531698"/>
    <trkpt lat="55.884903" lon="-3.531741"/>
    <trkpt lat="55.884878" lon="-3.531785"/>
    <trkpt lat="55.884854" lon="-3.531829"/>
    <trkpt lat="55.884831" lon="-3.531874"/>
    <trkpt lat="55.884808" lon="-3.531920"/>
    <trkpt lat="55.884787" lon="-3.531967"/>
    <trkpt lat="55.884768" lon="-3.532015"/>
    <trkpt lat="55.884750" lon="-3.532063"/>
    <trkpt lat="55.884733" lon="-3.532111"/>
    <trkpt lat="55.884718" lon="-3.532159"/>
    <trkpt lat="55.884703" lon="-3.532207"/>
    <trkpt lat="55.884688" lon="-3.532255"/>
    <trkpt lat="55.884673" lon="-3.532302"/>
    <trkpt lat="55.884659" lon="-3.532350"/>
    <trkpt lat="55.884644" lon="-3.532399"/>
    <trkpt lat="55.884629" lon="-3.532447"/>
    <trkpt lat="55.884615" lon="-3.532497"/>
    <trkpt lat="55.884600" lon="-3.532547"/>
    <trkpt lat="55.884586" lon="-3.532597"/>
    <trkpt lat="55.884573" lon="-3.532647"/>
    <trkpt lat="55.884560" lon="-3.532697"/>
    <trkpt lat="55.884547" lon="-3.532746"/>
    <trkpt lat="55.884535" lon="-3.532794"/>
    <trkpt lat="55.884524" lon="-3.532843"/>
    <trkpt lat="55.884515" lon="-3.532891"/>
    <trkpt lat="55.884506" lon="-3.532939"/>
    <trkpt lat="55.884498" lon="-3.532988"/>
    <trkpt lat="55.884492" lon="-3.533037"/>
    <trkpt lat="55.884487" lon="-3.533085"/>
    <trkpt lat="55.884484" lon="-3.533133"/>
    <trkpt lat="55.884483" lon="-3.533179"/>
    <trkpt lat="55.884482" lon="-3.533224"/>
    <trkpt lat="55.884482" lon="-3.533269"/>
    <trkpt lat="55.883741" lon="-3.533245"/>
    <trkpt lat="55.883742" lon="-3.533180"/>
    <trkpt lat="55.883747" lon="-3.533117"/>
    <trkpt lat="55.883756" lon="-3.533058"/>
    <trkpt lat="55.883770" lon="-3.533004"/>
    <trkpt lat="55.883787" lon="-3.532953"/>
    <trkpt lat="55.883806" lon="-3.532908"/>
    <trkpt lat="55.883824" lon="-3.532865"/>
    <trkpt lat="55.883842" lon="-3.532825"/>
    <trkpt lat="55.883858" lon="-3.532786"/>
    <trkpt lat="55.883873" lon="-3.532747"/>
    <trkpt lat="55.883887" lon="-3.532706"/>
    <trkpt lat="55.883901" lon="-3.532665"/>
    <trkpt lat="55.883915" lon="-3.532622"/>
    <trkpt lat="55.883928" lon="-3.532576"/>
    <trkpt lat="55.883941" lon="-3.532529"/>
    <trkpt lat="55.883954" lon="-3.532481"/>
    <trkpt lat="55.883966" lon="-3.532430"/>
    <trkpt lat="55.883978" lon="-3.532379"/>
    <trkpt lat="55.883990" lon="-3.532328"/>
    <trkpt lat="55.884003" lon="-3.532276"/>
    <trkpt lat="55.884017" lon="-3.532224"/>
    <trkpt lat="55.884034" lon="-3.532172"/>
    <trkpt lat="55.884054" lon="-3.532120"/>
    <trkpt lat="55.884077" lon="-3.532068"/>
    <trkpt lat="55.884102" lon="-3.532017"/>
    <trkpt lat="55.884129" lon="-3.531966"/>
    <trkpt lat="55.884155" lon="-3.531916"/>
    <trkpt lat="55.884182" lon="-3.531865"/>
    <trkpt lat="55.884208" lon="-3.531816"/>
    <trkpt lat="55.884234" lon="-3.531767"/>
    <trkpt lat="55.884259" lon="-3.531719"/>
    <trkpt lat="55.884283" lon="-3.531672"/>
    <trkpt lat="55.884307" lon="-3.531627"/>
    <trkpt lat="55.884329" lon="-3.531582"/>
    <trkpt lat="55.884350" lon="-3.531540"/>
    <trkpt lat="55.884370" lon="-3.531497"/>
    <trkpt lat="55.884388" lon="-3.531456"/>
    <trkpt lat="55.884406" lon="-3.531413"/>
    <trkpt lat="55.884423" lon="-3.531370"/>
    <trkpt lat="55.884439" lon="-3.531325"/>
    <trkpt lat="55.884456" lon="-3.531279"/>
    <trkpt lat="55.884473" lon="-3.531232"/>
    <trkpt lat="55.884491" lon="-3.531183"/>
    <trkpt lat="55.884511" lon="-3.531134"/>
    <trkpt lat="55.884531" lon="-3.531086"/>
    <trkpt lat="55.884553" lon="-3.531037"/>
    <trkpt lat="55.884576" lon="-3.530989"/>
    <trkpt lat="55.884598" lon="-3.530941"/>
    <trkpt lat="55.884621" lon="-3.530895"/>
    <trkpt lat="55.884642" lon="-3.530850"/>
    <trkpt lat="55.884663" lon="-3.530807"/>
    <trkpt lat="55.884683" lon="-3.530765"/>
    <trkpt lat="55.884702" lon="-3.530725"/>
    <trkpt lat="55.884720" lon="-3.530686"/>
    <trkpt lat="55.884739" lon="-3.530649"/>
    <trkpt lat="55.884757" lon="-3.530613"/>
    <trkpt lat="55.884777" lon="-3.530578"/>
    <trkpt lat="55.884796" lon="-3.530542"/>
    <trkpt lat="55.884816" lon="-3.530506"/>
    <trkpt lat="55.884836" lon="-3.530467"/>
    <trkpt lat="55.884855" lon="-3.530425"/>
    <trkpt lat="55.884874" lon="-3.530381"/>
    <trkpt lat="55.884892" lon="-3.530335"/>
    <trkpt lat="55.884910" lon="-3.530289"/>
    <trkpt lat="55.884927" lon="-3.530243"/>
    <trkpt lat="55.884945" lon="-3.530198"/>
    <trkpt lat="55.884964" lon="-3.530153"/>
    <trkpt lat="55.884983" lon="-3.530108"/>
    <trkpt lat="55.885004" lon="-3.530063"/>
    <trkpt lat="55.885025" lon="-3.530017"/>
    <trkpt lat="55.885046" lon="-3.529971"/>
    <trkpt lat="55.885067" lon="-3.529925"/>
    <trkpt lat="55.885086" lon="-3.529879"/>
    <trkpt lat="55.885105" lon="-3.529833"/>
    <trkpt lat="55.885122" lon="-3.529785"/>
    <trkpt lat="55.885138" lon="-3.529736"/>
    <trkpt lat="55.885154" lon="-3.529686"/>
    <trkpt lat="55.885169" lon="-3.529636"/>
    <trkpt lat="55.885184" lon="-3.529589"/>
    <trkpt lat="55.885199" lon="-3.529543"/>
    <trkpt lat="55.885216" lon="-3.529500"/>
    <trkpt lat="55.885233" lon="-3.529459"/>
    <trkpt lat="55.885251" lon="-3.529418"/>
    <trkpt lat="55.885270" lon="-3.529377"/>
    <trkpt lat="55.885290" lon="-3.529335"/>
    <trkpt lat="55.885311" lon="-3.529292"/>
    <trkpt lat="55.885331" lon="-3.529246"/>
    <trkpt lat="55.885351" lon="-3.529198"/>
    <trkpt lat="55.885370" lon="-3.529148"/>
    <trkpt lat="55.885389" lon="-3.529097"/>
    <trkpt lat="55.885407" lon="-3.529044"/>
    <trkpt lat="55.885424" lon="-3.528989"/>
    <trkpt lat="55.885439" lon="-3.528933"/>
    <trkpt lat="55.885454" lon="-3.528878"/>
    <trkpt lat="55.885469" lon="-3.528821"/>
  </trkseg></trk>
</gpx>
