<?xml version="1.0" encoding="UTF-8"?>
<gpx version="1.1" creator="5k-9am-osm-route-cache v0.6.9" xmlns="http://www.topografix.com/GPX/1/1">
  <metadata><desc>Derived from OpenStreetMap ((c) OpenStreetMap contributors, ODbL). source=osm_relation; built_by=v0.6.9</desc></metadata>
  <trk><name>Oaklands College parkrun</name><trkseg>
    <trkpt lat="51.754321" lon="-0.288552"/>
    <trkpt lat="51.754340" lon="-0.285808"/>
    <trkpt lat="51.754331" lon="-0.285733"/>
    <trkpt lat="51.754307" lon="-0.285657"/>
    <trkpt lat="51.754274" lon="-0.285599"/>
    <trkpt lat="51.754274" lon="-0.285599"/>
    <trkpt lat="51.753424" lon="-0.285224"/>
    <trkpt lat="51.753365" lon="-0.285209"/>
    <trkpt lat="51.753336" lon="-0.285212"/>
    <trkpt lat="51.753310" lon="-0.285227"/>
    <trkpt lat="51.753310" lon="-0.285227"/>
    <trkpt lat="51.753284" lon="-0.285164"/>
    <trkpt lat="51.753277" lon="-0.285121"/>
    <trkpt lat="51.753276" lon="-0.285077"/>
    <trkpt lat="51.753279" lon="-0.285010"/>
    <trkpt lat="51.753322" lon="-0.284332"/>
    <trkpt lat="51.753352" lon="-0.283775"/>
    <trkpt lat="51.753353" lon="-0.283715"/>
    <trkpt lat="51.753350" lon="-0.283655"/>
    <trkpt lat="51.753343" lon="-0.283595"/>
    <trkpt lat="51.753326" lon="-0.283511"/>
    <trkpt lat="51.753300" lon="-0.283432"/>
    <trkpt lat="51.753215" lon="-0.283186"/>
    <trkpt lat="51.753189" lon="-0.283080"/>
    <trkpt lat="51.753171" lon="-0.282970"/>
    <trkpt lat="51.753161" lon="-0.282882"/>
    <trkpt lat="51.753157" lon="-0.282792"/>
    <trkpt lat="51.753155" lon="-0.282735"/>
    <trkpt lat="51.753161" lon="-0.282679"/>
    <trkpt lat="51.753173" lon="-0.282626"/>
    <trkpt lat="51.753188" lon="-0.282587"/>
    <trkpt lat="51.753205" lon="-0.282551"/>
    <trkpt lat="51.753226" lon="-0.282521"/>
    <trkpt lat="51.753311" lon="-0.282435"/>
    <trkpt lat="51.753311" lon="-0.282435"/>
    <trkpt lat="51.753316" lon="-0.282395"/>
    <trkpt lat="51.753313" lon="-0.282376"/>
    <trkpt lat="51.753303" lon="-0.282352"/>
    <trkpt lat="51.753303" lon="-0.282352"/>
    <trkpt lat="51.753295" lon="-0.282347"/>
    <trkpt lat="51.753074" lon="-0.282226"/>
    <trkpt lat="51.752597" lon="-0.281987"/>
    <trkpt lat="51.752144" lon="-0.281786"/>
    <trkpt lat="51.751769" lon="-0.281613"/>
    <trkpt lat="51.751769" lon="-0.281613"/>
    <trkpt lat="51.751739" lon="-0.281806"/>
    <trkpt lat="51.751677" lon="-0.282410"/>
    <trkpt lat="51.751627" lon="-0.283015"/>
    <trkpt lat="51.751590" lon="-0.283471"/>
    <trkpt lat="51.751566" lon="-0.284027"/>
    <trkpt lat="51.751539" lon="-0.284833"/>
    <trkpt lat="51.751521" lon="-0.285808"/>
    <trkpt lat="51.751487" lon="-0.287262"/>
    <trkpt lat="51.751461" lon="-0.288569"/>
    <trkpt lat="51.751461" lon="-0.288569"/>
    <trkpt lat="51.751467" lon="-0.288588"/>
    <trkpt lat="51.751467" lon="-0.288596"/>
    <trkpt lat="51.751464" lon="-0.288600"/>
    <trkpt lat="51.751461" lon="-0.288600"/>
    <trkpt lat="51.751458" lon="-0.288600"/>
    <trkpt lat="51.751456" lon="-0.288595"/>
    <trkpt lat="51.751456" lon="-0.288589"/>
    <trkpt lat="51.751461" lon="-0.288569"/>
    <trkpt lat="51.751461" lon="-0.288569"/>
    <trkpt lat="51.751487" lon="-0.287262"/>
    <trkpt lat="51.751521" lon="-0.285808"/>
    <trkpt lat="51.751539" lon="-0.284833"/>
    <trkpt lat="51.751566" lon="-0.284027"/>
    <trkpt lat="51.751590" lon="-0.283471"/>
    <trkpt lat="51.751627" lon="-0.283015"/>
    <trkpt lat="51.751677" lon="-0.282410"/>
    <trkpt lat="51.751739" lon="-0.281806"/>
    <trkpt lat="51.751769" lon="-0.281613"/>
    <trkpt lat="51.751769" lon="-0.281613"/>
    <trkpt lat="51.751798" lon="-0.281424"/>
    <trkpt lat="51.752196" lon="-0.279494"/>
    <trkpt lat="51.752639" lon="-0.277732"/>
    <trkpt lat="51.752977" lon="-0.276396"/>
    <trkpt lat="51.753264" lon="-0.275326"/>
    <trkpt lat="51.753315" lon="-0.275243"/>
    <trkpt lat="51.753392" lon="-0.275224"/>
    <trkpt lat="51.753475" lon="-0.275235"/>
    <trkpt lat="51.753574" lon="-0.275270"/>
    <trkpt lat="51.753684" lon="-0.275369"/>
    <trkpt lat="51.753763" lon="-0.275484"/>
    <trkpt lat="51.753955" lon="-0.275763"/>
    <trkpt lat="51.754026" lon="-0.275853"/>
    <trkpt lat="51.754128" lon="-0.275943"/>
    <trkpt lat="51.754178" lon="-0.275969"/>
    <trkpt lat="51.754216" lon="-0.275975"/>
    <trkpt lat="51.754279" lon="-0.275969"/>
    <trkpt lat="51.754508" lon="-0.275919"/>
    <trkpt lat="51.754671" lon="-0.275908"/>
    <trkpt lat="51.754898" lon="-0.275921"/>
    <trkpt lat="51.755062" lon="-0.275935"/>
    <trkpt lat="51.755140" lon="-0.275921"/>
    <trkpt lat="51.755602" lon="-0.275830"/>
    <trkpt lat="51.756103" lon="-0.275723"/>
    <trkpt lat="51.756847" lon="-0.275561"/>
    <trkpt lat="51.756909" lon="-0.275564"/>
    <trkpt lat="51.756949" lon="-0.275585"/>
    <trkpt lat="51.756987" lon="-0.275635"/>
    <trkpt lat="51.757277" lon="-0.276080"/>
    <trkpt lat="51.757277" lon="-0.276080"/>
    <trkpt lat="51.757307" lon="-0.276089"/>
    <trkpt lat="51.757314" lon="-0.276108"/>
    <trkpt lat="51.757310" lon="-0.276129"/>
    <trkpt lat="51.757310" lon="-0.276129"/>
    <trkpt lat="51.757299" lon="-0.276138"/>
    <trkpt lat="51.757291" lon="-0.276129"/>
    <trkpt lat="51.757277" lon="-0.276080"/>
    <trkpt lat="51.757277" lon="-0.276080"/>
    <trkpt lat="51.756987" lon="-0.275635"/>
    <trkpt lat="51.756949" lon="-0.275585"/>
    <trkpt lat="51.756909" lon="-0.275564"/>
    <trkpt lat="51.756847" lon="-0.275561"/>
    <trkpt lat="51.756103" lon="-0.275723"/>
    <trkpt lat="51.755602" lon="-0.275830"/>
    <trkpt lat="51.755140" lon="-0.275921"/>
    <trkpt lat="51.755062" lon="-0.275935"/>
    <trkpt lat="51.754898" lon="-0.275921"/>
    <trkpt lat="51.754671" lon="-0.275908"/>
    <trkpt lat="51.754508" lon="-0.275919"/>
    <trkpt lat="51.754279" lon="-0.275969"/>
    <trkpt lat="51.754216" lon="-0.275975"/>
    <trkpt lat="51.754178" lon="-0.275969"/>
    <trkpt lat="51.754128" lon="-0.275943"/>
    <trkpt lat="51.754026" lon="-0.275853"/>
    <trkpt lat="51.753955" lon="-0.275763"/>
    <trkpt lat="51.753763" lon="-0.275484"/>
    <trkpt lat="51.753684" lon="-0.275369"/>
    <trkpt lat="51.753574" lon="-0.275270"/>
    <trkpt lat="51.753475" lon="-0.275235"/>
    <trkpt lat="51.753392" lon="-0.275224"/>
    <trkpt lat="51.753315" lon="-0.275243"/>
    <trkpt lat="51.753264" lon="-0.275326"/>
    <trkpt lat="51.752977" lon="-0.276396"/>
    <trkpt lat="51.752639" lon="-0.277732"/>
    <trkpt lat="51.752196" lon="-0.279494"/>
    <trkpt lat="51.751798" lon="-0.281424"/>
    <trkpt lat="51.751769" lon="-0.281613"/>
    <trkpt lat="51.751769" lon="-0.281613"/>
    <trkpt lat="51.752144" lon="-0.281786"/>
    <trkpt lat="51.752597" lon="-0.281987"/>
    <trkpt lat="51.753074" lon="-0.282226"/>
    <trkpt lat="51.753295" lon="-0.282347"/>
    <trkpt lat="51.753303" lon="-0.282352"/>
    <trkpt lat="51.753303" lon="-0.282352"/>
    <trkpt lat="51.753387" lon="-0.282402"/>
    <trkpt lat="51.753387" lon="-0.282402"/>
    <trkpt lat="51.753411" lon="-0.282406"/>
    <trkpt lat="51.753534" lon="-0.282465"/>
    <trkpt lat="51.753989" lon="-0.282695"/>
    <trkpt lat="51.754108" lon="-0.282749"/>
    <trkpt lat="51.754318" lon="-0.282823"/>
    <trkpt lat="51.754443" lon="-0.282854"/>
    <trkpt lat="51.754874" lon="-0.283019"/>
    <trkpt lat="51.755375" lon="-0.283189"/>
    <trkpt lat="51.755857" lon="-0.283335"/>
    <trkpt lat="51.755857" lon="-0.283335"/>
    <trkpt lat="51.755872" lon="-0.283326"/>
    <trkpt lat="51.755883" lon="-0.283330"/>
    <trkpt lat="51.755886" lon="-0.283336"/>
    <trkpt lat="51.755886" lon="-0.283344"/>
    <trkpt lat="51.755883" lon="-0.283352"/>
    <trkpt lat="51.755879" lon="-0.283356"/>
    <trkpt lat="51.755870" lon="-0.283353"/>
    <trkpt lat="51.755857" lon="-0.283335"/>
    <trkpt lat="51.755857" lon="-0.283335"/>
    <trkpt lat="51.755375" lon="-0.283189"/>
    <trkpt lat="51.754874" lon="-0.283019"/>
    <trkpt lat="51.754443" lon="-0.282854"/>
    <trkpt lat="51.754318" lon="-0.282823"/>
    <trkpt lat="51.754108" lon="-0.282749"/>
    <trkpt lat="51.753989" lon="-0.282695"/>
    <trkpt lat="51.753534" lon="-0.282465"/>
    <trkpt lat="51.753411" lon="-0.282406"/>
    <trkpt lat="51.753387" lon="-0.282402"/>
    <trkpt lat="51.753387" lon="-0.282402"/>
    <trkpt lat="51.753363" lon="-0.282404"/>
    <trkpt lat="51.753336" lon="-0.282415"/>
    <trkpt lat="51.753311" lon="-0.282435"/>
    <trkpt lat="51.753311" lon="-0.282435"/>
    <trkpt lat="51.753226" lon="-0.282521"/>
    <trkpt lat="51.753205" lon="-0.282551"/>
    <trkpt lat="51.753188" lon="-0.282587"/>
    <trkpt lat="51.753173" lon="-0.282626"/>
    <trkpt lat="51.753161" lon="-0.282679"/>
    <trkpt lat="51.753155" lon="-0.282735"/>
    <trkpt lat="51.753157" lon="-0.282792"/>
    <trkpt lat="51.753161" lon="-0.282882"/>
    <trkpt lat="51.753171" lon="-0.282970"/>
    <trkpt lat="51.753189" lon="-0.283080"/>
    <trkpt lat="51.753215" lon="-0.283186"/>
    <trkpt lat="51.753300" lon="-0.283432"/>
    <trkpt lat="51.753326" lon="-0.283511"/>
    <trkpt lat="51.753343" lon="-0.283595"/>
    <trkpt lat="51.753350" lon="-0.283655"/>
    <trkpt lat="51.753353" lon="-0.283715"/>
    <trkpt lat="51.753352" lon="-0.283775"/>
    <trkpt lat="51.753322" lon="-0.284332"/>
    <trkpt lat="51.753279" lon="-0.285010"/>
    <trkpt lat="51.753276" lon="-0.285077"/>
    <trkpt lat="51.753277" lon="-0.285121"/>
    <trkpt lat="51.753284" lon="-0.285164"/>
    <trkpt lat="51.753310" lon="-0.285227"/>
    <trkpt lat="51.753310" lon="-0.285227"/>
    <trkpt lat="51.753336" lon="-0.285212"/>
    <trkpt lat="51.753365" lon="-0.285209"/>
    <trkpt lat="51.753424" lon="-0.285224"/>
    <trkpt lat="51.754274" lon="-0.285599"/>
    <trkpt lat="51.754274" lon="-0.285599"/>
    <trkpt lat="51.754366" lon="-0.285638"/>
    <trkpt lat="51.754366" lon="-0.285638"/>
    <trkpt lat="51.754399" lon="-0.285765"/>
    <trkpt lat="51.754449" lon="-0.285957"/>
    <trkpt lat="51.754506" lon="-0.286173"/>
    <trkpt lat="51.754536" lon="-0.286511"/>
    <trkpt lat="51.754556" lon="-0.286923"/>
    <trkpt lat="51.754593" lon="-0.287116"/>
    <trkpt lat="51.754624" lon="-0.287156"/>
    <trkpt lat="51.754666" lon="-0.287173"/>
    <trkpt lat="51.754743" lon="-0.287345"/>
    <trkpt lat="51.754788" lon="-0.287431"/>
    <trkpt lat="51.754792" lon="-0.287460"/>
    <trkpt lat="51.754786" lon="-0.287505"/>
    <trkpt lat="51.754786" lon="-0.287505"/>
    <trkpt lat="51.754615" lon="-0.287745"/>
    <trkpt lat="51.754525" lon="-0.287890"/>
    <trkpt lat="51.754500" lon="-0.287957"/>
    <trkpt lat="51.754485" lon="-0.288044"/>
    <trkpt lat="51.754486" lon="-0.288132"/>
    <trkpt lat="51.754517" lon="-0.288670"/>
    <trkpt lat="51.754515" lon="-0.288819"/>
    <trkpt lat="51.754500" lon="-0.288938"/>
  </trkseg></trk>
</gpx>
