<?xml version="1.0" encoding="UTF-8"?>
<gpx version="1.1" creator="5k-9am-osm-route-cache v0.8.4" xmlns="http://www.topografix.com/GPX/1/1">
  <metadata><desc>Derived from OpenStreetMap ((c) OpenStreetMap contributors, ODbL). source=osm_9am_trace_doubled; built_by=v0.8.4</desc></metadata>
  <trk><name>Old Railway Trail parkrun, Llangollen</name><trkseg>
    <trkpt lat="52.970004" lon="-3.159091"/>
    <trkpt lat="52.969995" lon="-3.159055"/>
    <trkpt lat="52.969992" lon="-3.159043"/>
    <trkpt lat="52.969988" lon="-3.159017"/>
    <trkpt lat="52.969987" lon="-3.158988"/>
    <trkpt lat="52.969983" lon="-3.158965"/>
    <trkpt lat="52.969980" lon="-3.158939"/>
    <trkpt lat="52.969976" lon="-3.158912"/>
    <trkpt lat="52.969977" lon="-3.158886"/>
    <trkpt lat="52.969980" lon="-3.158857"/>
    <trkpt lat="52.969985" lon="-3.158837"/>
    <trkpt lat="52.969990" lon="-3.158815"/>
    <trkpt lat="52.969991" lon="-3.158789"/>
    <trkpt lat="52.969990" lon="-3.158765"/>
    <trkpt lat="52.969986" lon="-3.158735"/>
    <trkpt lat="52.969981" lon="-3.158711"/>
    <trkpt lat="52.969978" lon="-3.158685"/>
    <trkpt lat="52.969978" lon="-3.158659"/>
    <trkpt lat="52.969980" lon="-3.158633"/>
    <trkpt lat="52.969984" lon="-3.158608"/>
    <trkpt lat="52.969990" lon="-3.158583"/>
    <trkpt lat="52.969998" lon="-3.158559"/>
    <trkpt lat="52.970005" lon="-3.158537"/>
    <trkpt lat="52.970012" lon="-3.158516"/>
    <trkpt lat="52.970021" lon="-3.158496"/>
    <trkpt lat="52.970030" lon="-3.158475"/>
    <trkpt lat="52.970036" lon="-3.158453"/>
    <trkpt lat="52.970039" lon="-3.158429"/>
    <trkpt lat="52.970036" lon="-3.158376"/>
    <trkpt lat="52.970032" lon="-3.158352"/>
    <trkpt lat="52.970028" lon="-3.158329"/>
    <trkpt lat="52.970024" lon="-3.158304"/>
    <trkpt lat="52.970020" lon="-3.158278"/>
    <trkpt lat="52.970018" lon="-3.158253"/>
    <trkpt lat="52.970017" lon="-3.158230"/>
    <trkpt lat="52.970015" lon="-3.158206"/>
    <trkpt lat="52.970013" lon="-3.158181"/>
    <trkpt lat="52.970013" lon="-3.158157"/>
    <trkpt lat="52.970013" lon="-3.158131"/>
    <trkpt lat="52.970011" lon="-3.158107"/>
    <trkpt lat="52.970011" lon="-3.158079"/>
    <trkpt lat="52.970010" lon="-3.158050"/>
    <trkpt lat="52.970011" lon="-3.158025"/>
    <trkpt lat="52.970013" lon="-3.157998"/>
    <trkpt lat="52.970014" lon="-3.157972"/>
    <trkpt lat="52.970016" lon="-3.157946"/>
    <trkpt lat="52.970018" lon="-3.157920"/>
    <trkpt lat="52.970020" lon="-3.157893"/>
    <trkpt lat="52.970022" lon="-3.157866"/>
    <trkpt lat="52.970022" lon="-3.157841"/>
    <trkpt lat="52.970021" lon="-3.157815"/>
    <trkpt lat="52.970022" lon="-3.157790"/>
    <trkpt lat="52.970025" lon="-3.157766"/>
    <trkpt lat="52.970025" lon="-3.157739"/>
    <trkpt lat="52.970025" lon="-3.157711"/>
    <trkpt lat="52.970022" lon="-3.157686"/>
    <trkpt lat="52.970019" lon="-3.157660"/>
    <trkpt lat="52.970016" lon="-3.157635"/>
    <trkpt lat="52.970014" lon="-3.157609"/>
    <trkpt lat="52.970011" lon="-3.157580"/>
    <trkpt lat="52.970007" lon="-3.157555"/>
    <trkpt lat="52.970002" lon="-3.157533"/>
    <trkpt lat="52.969996" lon="-3.157503"/>
    <trkpt lat="52.969993" lon="-3.157475"/>
    <trkpt lat="52.969987" lon="-3.157448"/>
    <trkpt lat="52.969981" lon="-3.157422"/>
    <trkpt lat="52.969973" lon="-3.157376"/>
    <trkpt lat="52.969971" lon="-3.157362"/>
    <trkpt lat="52.969968" lon="-3.157335"/>
    <trkpt lat="52.969964" lon="-3.157303"/>
    <trkpt lat="52.969959" lon="-3.157258"/>
    <trkpt lat="52.969956" lon="-3.157243"/>
    <trkpt lat="52.969951" lon="-3.157212"/>
    <trkpt lat="52.969948" lon="-3.157185"/>
    <trkpt lat="52.969944" lon="-3.157154"/>
    <trkpt lat="52.969942" lon="-3.157126"/>
    <trkpt lat="52.969938" lon="-3.157079"/>
    <trkpt lat="52.969936" lon="-3.157065"/>
    <trkpt lat="52.969933" lon="-3.157037"/>
    <trkpt lat="52.969931" lon="-3.157007"/>
    <trkpt lat="52.969929" lon="-3.156977"/>
    <trkpt lat="52.969928" lon="-3.156949"/>
    <trkpt lat="52.969929" lon="-3.156917"/>
    <trkpt lat="52.969929" lon="-3.156888"/>
    <trkpt lat="52.969933" lon="-3.156859"/>
    <trkpt lat="52.969935" lon="-3.156830"/>
    <trkpt lat="52.969939" lon="-3.156785"/>
    <trkpt lat="52.969940" lon="-3.156769"/>
    <trkpt lat="52.969943" lon="-3.156740"/>
    <trkpt lat="52.969946" lon="-3.156713"/>
    <trkpt lat="52.969949" lon="-3.156666"/>
    <trkpt lat="52.969949" lon="-3.156652"/>
    <trkpt lat="52.969952" lon="-3.156606"/>
    <trkpt lat="52.969953" lon="-3.156587"/>
    <trkpt lat="52.969956" lon="-3.156558"/>
    <trkpt lat="52.969959" lon="-3.156528"/>
    <trkpt lat="52.969960" lon="-3.156499"/>
    <trkpt lat="52.969961" lon="-3.156468"/>
    <trkpt lat="52.969963" lon="-3.156438"/>
    <trkpt lat="52.969964" lon="-3.156412"/>
    <trkpt lat="52.969964" lon="-3.156385"/>
    <trkpt lat="52.969965" lon="-3.156360"/>
    <trkpt lat="52.969965" lon="-3.156336"/>
    <trkpt lat="52.969967" lon="-3.156309"/>
    <trkpt lat="52.969972" lon="-3.156257"/>
    <trkpt lat="52.969973" lon="-3.156242"/>
    <trkpt lat="52.969975" lon="-3.156213"/>
    <trkpt lat="52.969975" lon="-3.156185"/>
    <trkpt lat="52.969976" lon="-3.156155"/>
    <trkpt lat="52.969977" lon="-3.156129"/>
    <trkpt lat="52.969978" lon="-3.156082"/>
    <trkpt lat="52.969978" lon="-3.156067"/>
    <trkpt lat="52.969981" lon="-3.156021"/>
    <trkpt lat="52.969982" lon="-3.156005"/>
    <trkpt lat="52.969984" lon="-3.155976"/>
    <trkpt lat="52.969986" lon="-3.155948"/>
    <trkpt lat="52.969987" lon="-3.155920"/>
    <trkpt lat="52.969988" lon="-3.155893"/>
    <trkpt lat="52.969987" lon="-3.155845"/>
    <trkpt lat="52.969986" lon="-3.155830"/>
    <trkpt lat="52.969987" lon="-3.155801"/>
    <trkpt lat="52.969990" lon="-3.155773"/>
    <trkpt lat="52.969992" lon="-3.155745"/>
    <trkpt lat="52.969996" lon="-3.155717"/>
    <trkpt lat="52.970001" lon="-3.155691"/>
    <trkpt lat="52.970006" lon="-3.155665"/>
    <trkpt lat="52.970012" lon="-3.155639"/>
    <trkpt lat="52.970018" lon="-3.155614"/>
    <trkpt lat="52.970028" lon="-3.155567"/>
    <trkpt lat="52.970030" lon="-3.155552"/>
    <trkpt lat="52.970033" lon="-3.155523"/>
    <trkpt lat="52.970037" lon="-3.155494"/>
    <trkpt lat="52.970041" lon="-3.155464"/>
    <trkpt lat="52.970044" lon="-3.155436"/>
    <trkpt lat="52.970048" lon="-3.155408"/>
    <trkpt lat="52.970052" lon="-3.155382"/>
    <trkpt lat="52.970056" lon="-3.155355"/>
    <trkpt lat="52.970058" lon="-3.155329"/>
    <trkpt lat="52.970061" lon="-3.155304"/>
    <trkpt lat="52.970064" lon="-3.155278"/>
    <trkpt lat="52.970067" lon="-3.155252"/>
    <trkpt lat="52.970069" lon="-3.155226"/>
    <trkpt lat="52.970071" lon="-3.155198"/>
    <trkpt lat="52.970074" lon="-3.155172"/>
    <trkpt lat="52.970084" lon="-3.155131"/>
    <trkpt lat="52.970089" lon="-3.155116"/>
    <trkpt lat="52.970097" lon="-3.155091"/>
    <trkpt lat="52.970102" lon="-3.155068"/>
    <trkpt lat="52.970106" lon="-3.155044"/>
    <trkpt lat="52.970111" lon="-3.155020"/>
    <trkpt lat="52.970115" lon="-3.154997"/>
    <trkpt lat="52.970122" lon="-3.154949"/>
    <trkpt lat="52.970125" lon="-3.154923"/>
    <trkpt lat="52.970129" lon="-3.154900"/>
    <trkpt lat="52.970133" lon="-3.154878"/>
    <trkpt lat="52.970137" lon="-3.154855"/>
    <trkpt lat="52.970144" lon="-3.154831"/>
    <trkpt lat="52.970152" lon="-3.154801"/>
    <trkpt lat="52.970157" lon="-3.154774"/>
    <trkpt lat="52.970159" lon="-3.154747"/>
    <trkpt lat="52.970160" lon="-3.154720"/>
    <trkpt lat="52.970161" lon="-3.154695"/>
    <trkpt lat="52.970163" lon="-3.154670"/>
    <trkpt lat="52.970165" lon="-3.154622"/>
    <trkpt lat="52.970169" lon="-3.154597"/>
    <trkpt lat="52.970176" lon="-3.154558"/>
    <trkpt lat="52.970178" lon="-3.154544"/>
    <trkpt lat="52.970180" lon="-3.154530"/>
    <trkpt lat="52.970181" lon="-3.154505"/>
    <trkpt lat="52.970182" lon="-3.154474"/>
    <trkpt lat="52.970186" lon="-3.154447"/>
    <trkpt lat="52.970191" lon="-3.154423"/>
    <trkpt lat="52.970195" lon="-3.154399"/>
    <trkpt lat="52.970200" lon="-3.154375"/>
    <trkpt lat="52.970206" lon="-3.154351"/>
    <trkpt lat="52.970213" lon="-3.154328"/>
    <trkpt lat="52.970226" lon="-3.154285"/>
    <trkpt lat="52.970229" lon="-3.154272"/>
    <trkpt lat="52.970236" lon="-3.154246"/>
    <trkpt lat="52.970243" lon="-3.154220"/>
    <trkpt lat="52.970248" lon="-3.154195"/>
    <trkpt lat="52.970253" lon="-3.154171"/>
    <trkpt lat="52.970259" lon="-3.154149"/>
    <trkpt lat="52.970266" lon="-3.154121"/>
    <trkpt lat="52.970273" lon="-3.154097"/>
    <trkpt lat="52.970277" lon="-3.154073"/>
    <trkpt lat="52.970281" lon="-3.154049"/>
    <trkpt lat="52.970289" lon="-3.154017"/>
    <trkpt lat="52.970296" lon="-3.153992"/>
    <trkpt lat="52.970301" lon="-3.153966"/>
    <trkpt lat="52.970304" lon="-3.153938"/>
    <trkpt lat="52.970307" lon="-3.153912"/>
    <trkpt lat="52.970311" lon="-3.153887"/>
    <trkpt lat="52.970315" lon="-3.153865"/>
    <trkpt lat="52.970319" lon="-3.153843"/>
    <trkpt lat="52.970327" lon="-3.153822"/>
    <trkpt lat="52.970337" lon="-3.153794"/>
    <trkpt lat="52.970344" lon="-3.153770"/>
    <trkpt lat="52.970352" lon="-3.153748"/>
    <trkpt lat="52.970364" lon="-3.153698"/>
    <trkpt lat="52.970372" lon="-3.153673"/>
    <trkpt lat="52.970379" lon="-3.153649"/>
    <trkpt lat="52.970385" lon="-3.153624"/>
    <trkpt lat="52.970391" lon="-3.153599"/>
    <trkpt lat="52.970398" lon="-3.153574"/>
    <trkpt lat="52.970405" lon="-3.153549"/>
    <trkpt lat="52.970411" lon="-3.153526"/>
    <trkpt lat="52.970419" lon="-3.153502"/>
    <trkpt lat="52.970425" lon="-3.153479"/>
    <trkpt lat="52.970431" lon="-3.153457"/>
    <trkpt lat="52.970435" lon="-3.153432"/>
    <trkpt lat="52.970442" lon="-3.153409"/>
    <trkpt lat="52.970449" lon="-3.153387"/>
    <trkpt lat="52.970455" lon="-3.153364"/>
    <trkpt lat="52.970464" lon="-3.153333"/>
    <trkpt lat="52.970470" lon="-3.153308"/>
    <trkpt lat="52.970476" lon="-3.153282"/>
    <trkpt lat="52.970484" lon="-3.153258"/>
    <trkpt lat="52.970493" lon="-3.153234"/>
    <trkpt lat="52.970502" lon="-3.153209"/>
    <trkpt lat="52.970510" lon="-3.153184"/>
    <trkpt lat="52.970518" lon="-3.153140"/>
    <trkpt lat="52.970521" lon="-3.153126"/>
    <trkpt lat="52.970527" lon="-3.153099"/>
    <trkpt lat="52.970533" lon="-3.153070"/>
    <trkpt lat="52.970540" lon="-3.153046"/>
    <trkpt lat="52.970548" lon="-3.153023"/>
    <trkpt lat="52.970554" lon="-3.153000"/>
    <trkpt lat="52.970564" lon="-3.152972"/>
    <trkpt lat="52.970571" lon="-3.152949"/>
    <trkpt lat="52.970579" lon="-3.152920"/>
    <trkpt lat="52.970586" lon="-3.152896"/>
    <trkpt lat="52.970594" lon="-3.152872"/>
    <trkpt lat="52.970602" lon="-3.152848"/>
    <trkpt lat="52.970610" lon="-3.152823"/>
    <trkpt lat="52.970618" lon="-3.152801"/>
    <trkpt lat="52.970624" lon="-3.152774"/>
    <trkpt lat="52.970629" lon="-3.152747"/>
    <trkpt lat="52.970636" lon="-3.152719"/>
    <trkpt lat="52.970643" lon="-3.152694"/>
    <trkpt lat="52.970651" lon="-3.152669"/>
    <trkpt lat="52.970659" lon="-3.152645"/>
    <trkpt lat="52.970668" lon="-3.152620"/>
    <trkpt lat="52.970678" lon="-3.152594"/>
    <trkpt lat="52.970687" lon="-3.152569"/>
    <trkpt lat="52.970695" lon="-3.152546"/>
    <trkpt lat="52.970702" lon="-3.152524"/>
    <trkpt lat="52.970710" lon="-3.152496"/>
    <trkpt lat="52.970716" lon="-3.152471"/>
    <trkpt lat="52.970721" lon="-3.152447"/>
    <trkpt lat="52.970726" lon="-3.152416"/>
    <trkpt lat="52.970733" lon="-3.152390"/>
    <trkpt lat="52.970740" lon="-3.152366"/>
    <trkpt lat="52.970747" lon="-3.152340"/>
    <trkpt lat="52.970754" lon="-3.152316"/>
    <trkpt lat="52.970762" lon="-3.152291"/>
    <trkpt lat="52.970771" lon="-3.152264"/>
    <trkpt lat="52.970780" lon="-3.152239"/>
    <trkpt lat="52.970789" lon="-3.152216"/>
    <trkpt lat="52.970809" lon="-3.152183"/>
    <trkpt lat="52.970816" lon="-3.152172"/>
    <trkpt lat="52.970828" lon="-3.152152"/>
    <trkpt lat="52.970839" lon="-3.152130"/>
    <trkpt lat="52.970854" lon="-3.152092"/>
    <trkpt lat="52.970858" lon="-3.152079"/>
    <trkpt lat="52.970865" lon="-3.152053"/>
    <trkpt lat="52.970868" lon="-3.152021"/>
    <trkpt lat="52.970873" lon="-3.151995"/>
    <trkpt lat="52.970875" lon="-3.151963"/>
    <trkpt lat="52.970879" lon="-3.151935"/>
    <trkpt lat="52.970886" lon="-3.151908"/>
    <trkpt lat="52.970892" lon="-3.151880"/>
    <trkpt lat="52.970898" lon="-3.151853"/>
    <trkpt lat="52.970906" lon="-3.151825"/>
    <trkpt lat="52.970915" lon="-3.151802"/>
    <trkpt lat="52.970931" lon="-3.151765"/>
    <trkpt lat="52.970936" lon="-3.151753"/>
    <trkpt lat="52.970945" lon="-3.151728"/>
    <trkpt lat="52.970953" lon="-3.151704"/>
    <trkpt lat="52.970962" lon="-3.151681"/>
    <trkpt lat="52.970972" lon="-3.151658"/>
    <trkpt lat="52.970980" lon="-3.151632"/>
    <trkpt lat="52.970989" lon="-3.151606"/>
    <trkpt lat="52.970999" lon="-3.151581"/>
    <trkpt lat="52.971010" lon="-3.151557"/>
    <trkpt lat="52.971026" lon="-3.151520"/>
    <trkpt lat="52.971031" lon="-3.151507"/>
    <trkpt lat="52.971041" lon="-3.151483"/>
    <trkpt lat="52.971051" lon="-3.151459"/>
    <trkpt lat="52.971062" lon="-3.151416"/>
    <trkpt lat="52.971066" lon="-3.151402"/>
    <trkpt lat="52.971075" lon="-3.151376"/>
    <trkpt lat="52.971085" lon="-3.151351"/>
    <trkpt lat="52.971096" lon="-3.151325"/>
    <trkpt lat="52.971105" lon="-3.151304"/>
    <trkpt lat="52.971118" lon="-3.151263"/>
    <trkpt lat="52.971122" lon="-3.151250"/>
    <trkpt lat="52.971129" lon="-3.151224"/>
    <trkpt lat="52.971136" lon="-3.151198"/>
    <trkpt lat="52.971145" lon="-3.151172"/>
    <trkpt lat="52.971154" lon="-3.151146"/>
    <trkpt lat="52.971164" lon="-3.151122"/>
    <trkpt lat="52.971174" lon="-3.151098"/>
    <trkpt lat="52.971183" lon="-3.151075"/>
    <trkpt lat="52.971192" lon="-3.151051"/>
    <trkpt lat="52.971201" lon="-3.151026"/>
    <trkpt lat="52.971207" lon="-3.151003"/>
    <trkpt lat="52.971213" lon="-3.150982"/>
    <trkpt lat="52.971228" lon="-3.150938"/>
    <trkpt lat="52.971234" lon="-3.150916"/>
    <trkpt lat="52.971239" lon="-3.150896"/>
    <trkpt lat="52.971245" lon="-3.150875"/>
    <trkpt lat="52.971250" lon="-3.150855"/>
    <trkpt lat="52.971255" lon="-3.150833"/>
    <trkpt lat="52.971261" lon="-3.150810"/>
    <trkpt lat="52.971269" lon="-3.150780"/>
    <trkpt lat="52.971276" lon="-3.150756"/>
    <trkpt lat="52.971283" lon="-3.150733"/>
    <trkpt lat="52.971297" lon="-3.150686"/>
    <trkpt lat="52.971302" lon="-3.150661"/>
    <trkpt lat="52.971308" lon="-3.150640"/>
    <trkpt lat="52.971313" lon="-3.150620"/>
    <trkpt lat="52.971319" lon="-3.150599"/>
    <trkpt lat="52.971325" lon="-3.150573"/>
    <trkpt lat="52.971332" lon="-3.150547"/>
    <trkpt lat="52.971338" lon="-3.150523"/>
    <trkpt lat="52.971343" lon="-3.150498"/>
    <trkpt lat="52.971351" lon="-3.150468"/>
    <trkpt lat="52.971359" lon="-3.150443"/>
    <trkpt lat="52.971367" lon="-3.150418"/>
    <trkpt lat="52.971375" lon="-3.150394"/>
    <trkpt lat="52.971384" lon="-3.150368"/>
    <trkpt lat="52.971395" lon="-3.150345"/>
    <trkpt lat="52.971405" lon="-3.150322"/>
    <trkpt lat="52.971414" lon="-3.150298"/>
    <trkpt lat="52.971422" lon="-3.150276"/>
    <trkpt lat="52.971431" lon="-3.150252"/>
    <trkpt lat="52.971448" lon="-3.150212"/>
    <trkpt lat="52.971453" lon="-3.150196"/>
    <trkpt lat="52.971466" lon="-3.150187"/>
    <trkpt lat="52.971466" lon="-3.150187"/>
    <trkpt lat="52.971479" lon="-3.150159"/>
    <trkpt lat="52.971477" lon="-3.150158"/>
    <trkpt lat="52.971481" lon="-3.150144"/>
    <trkpt lat="52.971491" lon="-3.150115"/>
    <trkpt lat="52.971495" lon="-3.150088"/>
    <trkpt lat="52.971498" lon="-3.150059"/>
    <trkpt lat="52.971507" lon="-3.150002"/>
    <trkpt lat="52.971509" lon="-3.149985"/>
    <trkpt lat="52.971520" lon="-3.149936"/>
    <trkpt lat="52.971524" lon="-3.149920"/>
    <trkpt lat="52.971537" lon="-3.149878"/>
    <trkpt lat="52.971542" lon="-3.149863"/>
    <trkpt lat="52.971558" lon="-3.149823"/>
    <trkpt lat="52.971563" lon="-3.149810"/>
    <trkpt lat="52.971579" lon="-3.149773"/>
    <trkpt lat="52.971584" lon="-3.149760"/>
    <trkpt lat="52.971593" lon="-3.149733"/>
    <trkpt lat="52.971602" lon="-3.149708"/>
    <trkpt lat="52.971610" lon="-3.149684"/>
    <trkpt lat="52.971619" lon="-3.149659"/>
    <trkpt lat="52.971628" lon="-3.149637"/>
    <trkpt lat="52.971640" lon="-3.149611"/>
    <trkpt lat="52.971650" lon="-3.149586"/>
    <trkpt lat="52.971661" lon="-3.149563"/>
    <trkpt lat="52.971671" lon="-3.149542"/>
    <trkpt lat="52.971680" lon="-3.149518"/>
    <trkpt lat="52.971690" lon="-3.149492"/>
    <trkpt lat="52.971699" lon="-3.149468"/>
    <trkpt lat="52.971705" lon="-3.149443"/>
    <trkpt lat="52.971712" lon="-3.149418"/>
    <trkpt lat="52.971718" lon="-3.149393"/>
    <trkpt lat="52.971723" lon="-3.149369"/>
    <trkpt lat="52.971729" lon="-3.149345"/>
    <trkpt lat="52.971734" lon="-3.149322"/>
    <trkpt lat="52.971743" lon="-3.149292"/>
    <trkpt lat="52.971749" lon="-3.149268"/>
    <trkpt lat="52.971757" lon="-3.149244"/>
    <trkpt lat="52.971764" lon="-3.149220"/>
    <trkpt lat="52.971777" lon="-3.149179"/>
    <trkpt lat="52.971781" lon="-3.149166"/>
    <trkpt lat="52.971787" lon="-3.149141"/>
    <trkpt lat="52.971795" lon="-3.149116"/>
    <trkpt lat="52.971802" lon="-3.149092"/>
    <trkpt lat="52.971809" lon="-3.149065"/>
    <trkpt lat="52.971816" lon="-3.149039"/>
    <trkpt lat="52.971822" lon="-3.149012"/>
    <trkpt lat="52.971829" lon="-3.148988"/>
    <trkpt lat="52.971837" lon="-3.148964"/>
    <trkpt lat="52.971845" lon="-3.148939"/>
    <trkpt lat="52.971854" lon="-3.148915"/>
    <trkpt lat="52.971863" lon="-3.148891"/>
    <trkpt lat="52.971871" lon="-3.148867"/>
    <trkpt lat="52.971880" lon="-3.148842"/>
    <trkpt lat="52.971888" lon="-3.148818"/>
    <trkpt lat="52.971895" lon="-3.148793"/>
    <trkpt lat="52.971900" lon="-3.148767"/>
    <trkpt lat="52.971905" lon="-3.148741"/>
    <trkpt lat="52.971911" lon="-3.148715"/>
    <trkpt lat="52.971917" lon="-3.148690"/>
    <trkpt lat="52.971925" lon="-3.148665"/>
    <trkpt lat="52.971933" lon="-3.148640"/>
    <trkpt lat="52.971939" lon="-3.148616"/>
    <trkpt lat="52.971945" lon="-3.148592"/>
    <trkpt lat="52.971955" lon="-3.148565"/>
    <trkpt lat="52.971964" lon="-3.148542"/>
    <trkpt lat="52.971973" lon="-3.148520"/>
    <trkpt lat="52.971982" lon="-3.148492"/>
    <trkpt lat="52.971990" lon="-3.148467"/>
    <trkpt lat="52.971997" lon="-3.148442"/>
    <trkpt lat="52.972006" lon="-3.148417"/>
    <trkpt lat="52.972014" lon="-3.148391"/>
    <trkpt lat="52.972021" lon="-3.148367"/>
    <trkpt lat="52.972028" lon="-3.148342"/>
    <trkpt lat="52.972036" lon="-3.148320"/>
    <trkpt lat="52.972044" lon="-3.148298"/>
    <trkpt lat="52.972053" lon="-3.148275"/>
    <trkpt lat="52.972063" lon="-3.148252"/>
    <trkpt lat="52.972073" lon="-3.148227"/>
    <trkpt lat="52.972083" lon="-3.148202"/>
    <trkpt lat="52.972092" lon="-3.148176"/>
    <trkpt lat="52.972102" lon="-3.148148"/>
    <trkpt lat="52.972110" lon="-3.148125"/>
    <trkpt lat="52.972117" lon="-3.148103"/>
    <trkpt lat="52.972125" lon="-3.148075"/>
    <trkpt lat="52.972132" lon="-3.148049"/>
    <trkpt lat="52.972138" lon="-3.148026"/>
    <trkpt lat="52.972145" lon="-3.148001"/>
    <trkpt lat="52.972153" lon="-3.147975"/>
    <trkpt lat="52.972161" lon="-3.147949"/>
    <trkpt lat="52.972169" lon="-3.147924"/>
    <trkpt lat="52.972177" lon="-3.147897"/>
    <trkpt lat="52.972185" lon="-3.147873"/>
    <trkpt lat="52.972191" lon="-3.147849"/>
    <trkpt lat="52.972198" lon="-3.147821"/>
    <trkpt lat="52.972204" lon="-3.147797"/>
    <trkpt lat="52.972211" lon="-3.147775"/>
    <trkpt lat="52.972217" lon="-3.147753"/>
    <trkpt lat="52.972228" lon="-3.147723"/>
    <trkpt lat="52.972237" lon="-3.147699"/>
    <trkpt lat="52.972246" lon="-3.147674"/>
    <trkpt lat="52.972254" lon="-3.147649"/>
    <trkpt lat="52.972264" lon="-3.147625"/>
    <trkpt lat="52.972274" lon="-3.147602"/>
    <trkpt lat="52.972284" lon="-3.147579"/>
    <trkpt lat="52.972293" lon="-3.147558"/>
    <trkpt lat="52.972305" lon="-3.147533"/>
    <trkpt lat="52.972316" lon="-3.147510"/>
    <trkpt lat="52.972325" lon="-3.147485"/>
    <trkpt lat="52.972335" lon="-3.147459"/>
    <trkpt lat="52.972342" lon="-3.147435"/>
    <trkpt lat="52.972350" lon="-3.147409"/>
    <trkpt lat="52.972356" lon="-3.147384"/>
    <trkpt lat="52.972364" lon="-3.147361"/>
    <trkpt lat="52.972370" lon="-3.147338"/>
    <trkpt lat="52.972378" lon="-3.147309"/>
    <trkpt lat="52.972385" lon="-3.147284"/>
    <trkpt lat="52.972394" lon="-3.147257"/>
    <trkpt lat="52.972403" lon="-3.147231"/>
    <trkpt lat="52.972411" lon="-3.147207"/>
    <trkpt lat="52.972418" lon="-3.147183"/>
    <trkpt lat="52.972425" lon="-3.147160"/>
    <trkpt lat="52.972433" lon="-3.147136"/>
    <trkpt lat="52.972441" lon="-3.147115"/>
    <trkpt lat="52.972449" lon="-3.147087"/>
    <trkpt lat="52.972456" lon="-3.147061"/>
    <trkpt lat="52.972463" lon="-3.147035"/>
    <trkpt lat="52.972471" lon="-3.147009"/>
    <trkpt lat="52.972480" lon="-3.146982"/>
    <trkpt lat="52.972487" lon="-3.146960"/>
    <trkpt lat="52.972496" lon="-3.146937"/>
    <trkpt lat="52.972504" lon="-3.146914"/>
    <trkpt lat="52.972513" lon="-3.146891"/>
    <trkpt lat="52.972520" lon="-3.146871"/>
    <trkpt lat="52.972527" lon="-3.146849"/>
    <trkpt lat="52.972542" lon="-3.146807"/>
    <trkpt lat="52.972547" lon="-3.146795"/>
    <trkpt lat="52.972557" lon="-3.146770"/>
    <trkpt lat="52.972568" lon="-3.146760"/>
    <trkpt lat="52.972560" lon="-3.146784"/>
    <trkpt lat="52.972549" lon="-3.146808"/>
    <trkpt lat="52.972539" lon="-3.146832"/>
    <trkpt lat="52.972530" lon="-3.146856"/>
    <trkpt lat="52.972520" lon="-3.146881"/>
    <trkpt lat="52.972512" lon="-3.146906"/>
    <trkpt lat="52.972503" lon="-3.146932"/>
    <trkpt lat="52.972495" lon="-3.146957"/>
    <trkpt lat="52.972487" lon="-3.146981"/>
    <trkpt lat="52.972479" lon="-3.147004"/>
    <trkpt lat="52.972472" lon="-3.147026"/>
    <trkpt lat="52.972457" lon="-3.147068"/>
    <trkpt lat="52.972450" lon="-3.147090"/>
    <trkpt lat="52.972443" lon="-3.147112"/>
    <trkpt lat="52.972443" lon="-3.147112"/>
    <trkpt lat="52.972427" lon="-3.147163"/>
    <trkpt lat="52.972420" lon="-3.147186"/>
    <trkpt lat="52.972411" lon="-3.147210"/>
    <trkpt lat="52.972404" lon="-3.147230"/>
    <trkpt lat="52.972398" lon="-3.147249"/>
    <trkpt lat="52.972391" lon="-3.147269"/>
    <trkpt lat="52.972385" lon="-3.147292"/>
    <trkpt lat="52.972378" lon="-3.147312"/>
    <trkpt lat="52.972361" lon="-3.147352"/>
    <trkpt lat="52.972354" lon="-3.147375"/>
    <trkpt lat="52.972347" lon="-3.147398"/>
    <trkpt lat="52.972341" lon="-3.147421"/>
    <trkpt lat="52.972334" lon="-3.147445"/>
    <trkpt lat="52.972328" lon="-3.147468"/>
    <trkpt lat="52.972321" lon="-3.147491"/>
    <trkpt lat="52.972321" lon="-3.147491"/>
    <trkpt lat="52.972306" lon="-3.147536"/>
    <trkpt lat="52.972298" lon="-3.147559"/>
    <trkpt lat="52.972289" lon="-3.147580"/>
    <trkpt lat="52.972282" lon="-3.147600"/>
    <trkpt lat="52.972274" lon="-3.147620"/>
    <trkpt lat="52.972267" lon="-3.147640"/>
    <trkpt lat="52.972253" lon="-3.147679"/>
    <trkpt lat="52.972245" lon="-3.147701"/>
    <trkpt lat="52.972237" lon="-3.147721"/>
    <trkpt lat="52.972228" lon="-3.147744"/>
    <trkpt lat="52.972214" lon="-3.147787"/>
    <trkpt lat="52.972210" lon="-3.147800"/>
    <trkpt lat="52.972203" lon="-3.147820"/>
    <trkpt lat="52.972196" lon="-3.147839"/>
    <trkpt lat="52.972189" lon="-3.147859"/>
    <trkpt lat="52.972182" lon="-3.147881"/>
    <trkpt lat="52.972176" lon="-3.147904"/>
    <trkpt lat="52.972170" lon="-3.147926"/>
    <trkpt lat="52.972164" lon="-3.147948"/>
    <trkpt lat="52.972150" lon="-3.147994"/>
    <trkpt lat="52.972145" lon="-3.148007"/>
    <trkpt lat="52.972136" lon="-3.148030"/>
    <trkpt lat="52.972127" lon="-3.148052"/>
    <trkpt lat="52.972118" lon="-3.148076"/>
    <trkpt lat="52.972109" lon="-3.148100"/>
    <trkpt lat="52.972100" lon="-3.148126"/>
    <trkpt lat="52.972093" lon="-3.148149"/>
    <trkpt lat="52.972087" lon="-3.148174"/>
    <trkpt lat="52.972079" lon="-3.148197"/>
    <trkpt lat="52.972072" lon="-3.148218"/>
    <trkpt lat="52.972064" lon="-3.148242"/>
    <trkpt lat="52.972057" lon="-3.148261"/>
    <trkpt lat="52.972050" lon="-3.148281"/>
    <trkpt lat="52.972042" lon="-3.148302"/>
    <trkpt lat="52.972034" lon="-3.148323"/>
    <trkpt lat="52.972024" lon="-3.148345"/>
    <trkpt lat="52.972015" lon="-3.148365"/>
    <trkpt lat="52.972005" lon="-3.148385"/>
    <trkpt lat="52.971997" lon="-3.148406"/>
    <trkpt lat="52.971989" lon="-3.148428"/>
    <trkpt lat="52.971980" lon="-3.148452"/>
    <trkpt lat="52.971971" lon="-3.148475"/>
    <trkpt lat="52.971963" lon="-3.148498"/>
    <trkpt lat="52.971955" lon="-3.148522"/>
    <trkpt lat="52.971949" lon="-3.148544"/>
    <trkpt lat="52.971942" lon="-3.148565"/>
    <trkpt lat="52.971935" lon="-3.148587"/>
    <trkpt lat="52.971928" lon="-3.148608"/>
    <trkpt lat="52.971922" lon="-3.148630"/>
    <trkpt lat="52.971917" lon="-3.148652"/>
    <trkpt lat="52.971912" lon="-3.148675"/>
    <trkpt lat="52.971901" lon="-3.148719"/>
    <trkpt lat="52.971895" lon="-3.148739"/>
    <trkpt lat="52.971890" lon="-3.148763"/>
    <trkpt lat="52.971890" lon="-3.148763"/>
    <trkpt lat="52.971882" lon="-3.148793"/>
    <trkpt lat="52.971877" lon="-3.148818"/>
    <trkpt lat="52.971871" lon="-3.148841"/>
    <trkpt lat="52.971857" lon="-3.148884"/>
    <trkpt lat="52.971848" lon="-3.148905"/>
    <trkpt lat="52.971840" lon="-3.148926"/>
    <trkpt lat="52.971832" lon="-3.148948"/>
    <trkpt lat="52.971825" lon="-3.148969"/>
    <trkpt lat="52.971817" lon="-3.148991"/>
    <trkpt lat="52.971817" lon="-3.148991"/>
    <trkpt lat="52.971806" lon="-3.149023"/>
    <trkpt lat="52.971799" lon="-3.149043"/>
    <trkpt lat="52.971794" lon="-3.149064"/>
    <trkpt lat="52.971789" lon="-3.149085"/>
    <trkpt lat="52.971785" lon="-3.149108"/>
    <trkpt lat="52.971779" lon="-3.149138"/>
    <trkpt lat="52.971774" lon="-3.149163"/>
    <trkpt lat="52.971769" lon="-3.149186"/>
    <trkpt lat="52.971764" lon="-3.149210"/>
    <trkpt lat="52.971758" lon="-3.149232"/>
    <trkpt lat="52.971753" lon="-3.149254"/>
    <trkpt lat="52.971747" lon="-3.149275"/>
    <trkpt lat="52.971733" lon="-3.149320"/>
    <trkpt lat="52.971724" lon="-3.149357"/>
    <trkpt lat="52.971721" lon="-3.149368"/>
    <trkpt lat="52.971718" lon="-3.149380"/>
    <trkpt lat="52.971712" lon="-3.149406"/>
    <trkpt lat="52.971706" lon="-3.149429"/>
    <trkpt lat="52.971698" lon="-3.149451"/>
    <trkpt lat="52.971691" lon="-3.149475"/>
    <trkpt lat="52.971685" lon="-3.149496"/>
    <trkpt lat="52.971679" lon="-3.149517"/>
    <trkpt lat="52.971666" lon="-3.149559"/>
    <trkpt lat="52.971659" lon="-3.149581"/>
    <trkpt lat="52.971651" lon="-3.149601"/>
    <trkpt lat="52.971644" lon="-3.149623"/>
    <trkpt lat="52.971638" lon="-3.149645"/>
    <trkpt lat="52.971631" lon="-3.149668"/>
    <trkpt lat="52.971623" lon="-3.149690"/>
    <trkpt lat="52.971614" lon="-3.149711"/>
    <trkpt lat="52.971603" lon="-3.149740"/>
    <trkpt lat="52.971595" lon="-3.149763"/>
    <trkpt lat="52.971588" lon="-3.149784"/>
    <trkpt lat="52.971580" lon="-3.149805"/>
    <trkpt lat="52.971573" lon="-3.149826"/>
    <trkpt lat="52.971566" lon="-3.149849"/>
    <trkpt lat="52.971559" lon="-3.149870"/>
    <trkpt lat="52.971552" lon="-3.149893"/>
    <trkpt lat="52.971546" lon="-3.149915"/>
    <trkpt lat="52.971533" lon="-3.149961"/>
    <trkpt lat="52.971528" lon="-3.149973"/>
    <trkpt lat="52.971518" lon="-3.149997"/>
    <trkpt lat="52.971509" lon="-3.150018"/>
    <trkpt lat="52.971502" lon="-3.150038"/>
    <trkpt lat="52.971494" lon="-3.150065"/>
    <trkpt lat="52.971487" lon="-3.150090"/>
    <trkpt lat="52.971480" lon="-3.150115"/>
    <trkpt lat="52.971472" lon="-3.150142"/>
    <trkpt lat="52.971463" lon="-3.150165"/>
    <trkpt lat="52.971454" lon="-3.150188"/>
    <trkpt lat="52.971445" lon="-3.150212"/>
    <trkpt lat="52.971436" lon="-3.150238"/>
    <trkpt lat="52.971429" lon="-3.150261"/>
    <trkpt lat="52.971423" lon="-3.150283"/>
    <trkpt lat="52.971417" lon="-3.150304"/>
    <trkpt lat="52.971412" lon="-3.150327"/>
    <trkpt lat="52.971402" lon="-3.150375"/>
    <trkpt lat="52.971397" lon="-3.150400"/>
    <trkpt lat="52.971391" lon="-3.150424"/>
    <trkpt lat="52.971384" lon="-3.150448"/>
    <trkpt lat="52.971378" lon="-3.150472"/>
    <trkpt lat="52.971372" lon="-3.150496"/>
    <trkpt lat="52.971366" lon="-3.150520"/>
    <trkpt lat="52.971360" lon="-3.150543"/>
    <trkpt lat="52.971355" lon="-3.150565"/>
    <trkpt lat="52.971349" lon="-3.150587"/>
    <trkpt lat="52.971344" lon="-3.150611"/>
    <trkpt lat="52.971337" lon="-3.150632"/>
    <trkpt lat="52.971329" lon="-3.150653"/>
    <trkpt lat="52.971321" lon="-3.150674"/>
    <trkpt lat="52.971312" lon="-3.150695"/>
    <trkpt lat="52.971303" lon="-3.150715"/>
    <trkpt lat="52.971293" lon="-3.150734"/>
    <trkpt lat="52.971275" lon="-3.150774"/>
    <trkpt lat="52.971266" lon="-3.150794"/>
    <trkpt lat="52.971257" lon="-3.150814"/>
    <trkpt lat="52.971257" lon="-3.150814"/>
    <trkpt lat="52.971247" lon="-3.150840"/>
    <trkpt lat="52.971231" lon="-3.150884"/>
    <trkpt lat="52.971226" lon="-3.150895"/>
    <trkpt lat="52.971217" lon="-3.150918"/>
    <trkpt lat="52.971210" lon="-3.150942"/>
    <trkpt lat="52.971203" lon="-3.150967"/>
    <trkpt lat="52.971196" lon="-3.150992"/>
    <trkpt lat="52.971189" lon="-3.151017"/>
    <trkpt lat="52.971183" lon="-3.151040"/>
    <trkpt lat="52.971176" lon="-3.151065"/>
    <trkpt lat="52.971170" lon="-3.151090"/>
    <trkpt lat="52.971164" lon="-3.151115"/>
    <trkpt lat="52.971156" lon="-3.151140"/>
    <trkpt lat="52.971149" lon="-3.151165"/>
    <trkpt lat="52.971141" lon="-3.151189"/>
    <trkpt lat="52.971135" lon="-3.151211"/>
    <trkpt lat="52.971128" lon="-3.151239"/>
    <trkpt lat="52.971121" lon="-3.151263"/>
    <trkpt lat="52.971113" lon="-3.151288"/>
    <trkpt lat="52.971105" lon="-3.151312"/>
    <trkpt lat="52.971097" lon="-3.151335"/>
    <trkpt lat="52.971090" lon="-3.151359"/>
    <trkpt lat="52.971081" lon="-3.151384"/>
    <trkpt lat="52.971073" lon="-3.151410"/>
    <trkpt lat="52.971065" lon="-3.151431"/>
    <trkpt lat="52.971056" lon="-3.151451"/>
    <trkpt lat="52.971049" lon="-3.151471"/>
    <trkpt lat="52.971037" lon="-3.151515"/>
    <trkpt lat="52.971034" lon="-3.151528"/>
    <trkpt lat="52.971027" lon="-3.151554"/>
    <trkpt lat="52.971018" lon="-3.151579"/>
    <trkpt lat="52.971009" lon="-3.151603"/>
    <trkpt lat="52.971000" lon="-3.151627"/>
    <trkpt lat="52.970991" lon="-3.151653"/>
    <trkpt lat="52.970983" lon="-3.151675"/>
    <trkpt lat="52.970976" lon="-3.151696"/>
    <trkpt lat="52.970971" lon="-3.151720"/>
    <trkpt lat="52.970967" lon="-3.151745"/>
    <trkpt lat="52.970960" lon="-3.151777"/>
    <trkpt lat="52.970952" lon="-3.151800"/>
    <trkpt lat="52.970936" lon="-3.151843"/>
    <trkpt lat="52.970927" lon="-3.151864"/>
    <trkpt lat="52.970919" lon="-3.151886"/>
    <trkpt lat="52.970910" lon="-3.151909"/>
    <trkpt lat="52.970903" lon="-3.151932"/>
    <trkpt lat="52.970896" lon="-3.151957"/>
    <trkpt lat="52.970889" lon="-3.151980"/>
    <trkpt lat="52.970881" lon="-3.152003"/>
    <trkpt lat="52.970874" lon="-3.152028"/>
    <trkpt lat="52.970867" lon="-3.152053"/>
    <trkpt lat="52.970862" lon="-3.152077"/>
    <trkpt lat="52.970856" lon="-3.152100"/>
    <trkpt lat="52.970850" lon="-3.152122"/>
    <trkpt lat="52.970843" lon="-3.152145"/>
    <trkpt lat="52.970834" lon="-3.152174"/>
    <trkpt lat="52.970825" lon="-3.152196"/>
    <trkpt lat="52.970815" lon="-3.152220"/>
    <trkpt lat="52.970808" lon="-3.152242"/>
    <trkpt lat="52.970800" lon="-3.152266"/>
    <trkpt lat="52.970793" lon="-3.152290"/>
    <trkpt lat="52.970788" lon="-3.152315"/>
    <trkpt lat="52.970783" lon="-3.152340"/>
    <trkpt lat="52.970777" lon="-3.152365"/>
    <trkpt lat="52.970770" lon="-3.152391"/>
    <trkpt lat="52.970762" lon="-3.152416"/>
    <trkpt lat="52.970755" lon="-3.152441"/>
    <trkpt lat="52.970747" lon="-3.152465"/>
    <trkpt lat="52.970740" lon="-3.152490"/>
    <trkpt lat="52.970734" lon="-3.152515"/>
    <trkpt lat="52.970727" lon="-3.152539"/>
    <trkpt lat="52.970720" lon="-3.152562"/>
    <trkpt lat="52.970712" lon="-3.152582"/>
    <trkpt lat="52.970704" lon="-3.152602"/>
    <trkpt lat="52.970696" lon="-3.152623"/>
    <trkpt lat="52.970687" lon="-3.152652"/>
    <trkpt lat="52.970679" lon="-3.152673"/>
    <trkpt lat="52.970673" lon="-3.152699"/>
    <trkpt lat="52.970667" lon="-3.152724"/>
    <trkpt lat="52.970662" lon="-3.152749"/>
    <trkpt lat="52.970658" lon="-3.152774"/>
    <trkpt lat="52.970653" lon="-3.152799"/>
    <trkpt lat="52.970649" lon="-3.152823"/>
    <trkpt lat="52.970645" lon="-3.152850"/>
    <trkpt lat="52.970639" lon="-3.152877"/>
    <trkpt lat="52.970634" lon="-3.152900"/>
    <trkpt lat="52.970628" lon="-3.152924"/>
    <trkpt lat="52.970622" lon="-3.152947"/>
    <trkpt lat="52.970616" lon="-3.152970"/>
    <trkpt lat="52.970611" lon="-3.152993"/>
    <trkpt lat="52.970606" lon="-3.153015"/>
    <trkpt lat="52.970599" lon="-3.153036"/>
    <trkpt lat="52.970592" lon="-3.153058"/>
    <trkpt lat="52.970585" lon="-3.153079"/>
    <trkpt lat="52.970572" lon="-3.153120"/>
    <trkpt lat="52.970564" lon="-3.153140"/>
    <trkpt lat="52.970556" lon="-3.153160"/>
    <trkpt lat="52.970549" lon="-3.153182"/>
    <trkpt lat="52.970539" lon="-3.153199"/>
    <trkpt lat="52.970530" lon="-3.153216"/>
    <trkpt lat="52.970520" lon="-3.153233"/>
    <trkpt lat="52.970499" lon="-3.153219"/>
    <trkpt lat="52.970499" lon="-3.153184"/>
    <trkpt lat="52.970506" lon="-3.153135"/>
    <trkpt lat="52.970514" lon="-3.153085"/>
    <trkpt lat="52.970515" lon="-3.153068"/>
    <trkpt lat="52.970521" lon="-3.153020"/>
    <trkpt lat="52.970523" lon="-3.153005"/>
    <trkpt lat="52.970532" lon="-3.152953"/>
    <trkpt lat="52.970535" lon="-3.152937"/>
    <trkpt lat="52.970550" lon="-3.152893"/>
    <trkpt lat="52.970556" lon="-3.152879"/>
    <trkpt lat="52.970571" lon="-3.152840"/>
    <trkpt lat="52.970576" lon="-3.152827"/>
    <trkpt lat="52.970586" lon="-3.152802"/>
    <trkpt lat="52.970596" lon="-3.152777"/>
    <trkpt lat="52.970612" lon="-3.152739"/>
    <trkpt lat="52.970619" lon="-3.152726"/>
    <trkpt lat="52.970634" lon="-3.152688"/>
    <trkpt lat="52.970638" lon="-3.152674"/>
    <trkpt lat="52.970648" lon="-3.152649"/>
    <trkpt lat="52.970660" lon="-3.152626"/>
    <trkpt lat="52.970670" lon="-3.152603"/>
    <trkpt lat="52.970680" lon="-3.152580"/>
    <trkpt lat="52.970690" lon="-3.152557"/>
    <trkpt lat="52.970700" lon="-3.152534"/>
    <trkpt lat="52.970710" lon="-3.152510"/>
    <trkpt lat="52.970719" lon="-3.152486"/>
    <trkpt lat="52.970726" lon="-3.152465"/>
    <trkpt lat="52.970733" lon="-3.152440"/>
    <trkpt lat="52.970739" lon="-3.152416"/>
    <trkpt lat="52.970743" lon="-3.152392"/>
    <trkpt lat="52.970746" lon="-3.152365"/>
    <trkpt lat="52.970750" lon="-3.152336"/>
    <trkpt lat="52.970755" lon="-3.152309"/>
    <trkpt lat="52.970761" lon="-3.152283"/>
    <trkpt lat="52.970768" lon="-3.152257"/>
    <trkpt lat="52.970774" lon="-3.152230"/>
    <trkpt lat="52.970781" lon="-3.152207"/>
    <trkpt lat="52.970789" lon="-3.152186"/>
    <trkpt lat="52.970806" lon="-3.152152"/>
    <trkpt lat="52.970813" lon="-3.152138"/>
    <trkpt lat="52.970823" lon="-3.152117"/>
    <trkpt lat="52.970835" lon="-3.152092"/>
    <trkpt lat="52.970843" lon="-3.152067"/>
    <trkpt lat="52.970849" lon="-3.152040"/>
    <trkpt lat="52.970854" lon="-3.152014"/>
    <trkpt lat="52.970858" lon="-3.151987"/>
    <trkpt lat="52.970862" lon="-3.151961"/>
    <trkpt lat="52.970870" lon="-3.151932"/>
    <trkpt lat="52.970878" lon="-3.151904"/>
    <trkpt lat="52.970885" lon="-3.151879"/>
    <trkpt lat="52.970893" lon="-3.151856"/>
    <trkpt lat="52.970901" lon="-3.151833"/>
    <trkpt lat="52.970910" lon="-3.151811"/>
    <trkpt lat="52.970920" lon="-3.151783"/>
    <trkpt lat="52.970929" lon="-3.151759"/>
    <trkpt lat="52.970938" lon="-3.151736"/>
    <trkpt lat="52.970947" lon="-3.151711"/>
    <trkpt lat="52.970956" lon="-3.151688"/>
    <trkpt lat="52.970965" lon="-3.151664"/>
    <trkpt lat="52.970972" lon="-3.151640"/>
    <trkpt lat="52.970978" lon="-3.151616"/>
    <trkpt lat="52.970990" lon="-3.151568"/>
    <trkpt lat="52.970999" lon="-3.151545"/>
    <trkpt lat="52.971007" lon="-3.151526"/>
    <trkpt lat="52.971016" lon="-3.151506"/>
    <trkpt lat="52.971024" lon="-3.151487"/>
    <trkpt lat="52.971038" lon="-3.151448"/>
    <trkpt lat="52.971043" lon="-3.151435"/>
    <trkpt lat="52.971051" lon="-3.151411"/>
    <trkpt lat="52.971060" lon="-3.151387"/>
    <trkpt lat="52.971070" lon="-3.151359"/>
    <trkpt lat="52.971079" lon="-3.151336"/>
    <trkpt lat="52.971088" lon="-3.151312"/>
    <trkpt lat="52.971095" lon="-3.151287"/>
    <trkpt lat="52.971103" lon="-3.151263"/>
    <trkpt lat="52.971111" lon="-3.151239"/>
    <trkpt lat="52.971119" lon="-3.151214"/>
    <trkpt lat="52.971127" lon="-3.151189"/>
    <trkpt lat="52.971134" lon="-3.151164"/>
    <trkpt lat="52.971141" lon="-3.151139"/>
    <trkpt lat="52.971149" lon="-3.151112"/>
    <trkpt lat="52.971156" lon="-3.151087"/>
    <trkpt lat="52.971163" lon="-3.151061"/>
    <trkpt lat="52.971169" lon="-3.151036"/>
    <trkpt lat="52.971175" lon="-3.151010"/>
    <trkpt lat="52.971182" lon="-3.150985"/>
    <trkpt lat="52.971190" lon="-3.150960"/>
    <trkpt lat="52.971197" lon="-3.150937"/>
    <trkpt lat="52.971203" lon="-3.150914"/>
    <trkpt lat="52.971211" lon="-3.150887"/>
    <trkpt lat="52.971217" lon="-3.150862"/>
    <trkpt lat="52.971222" lon="-3.150839"/>
    <trkpt lat="52.971227" lon="-3.150816"/>
    <trkpt lat="52.971241" lon="-3.150773"/>
    <trkpt lat="52.971249" lon="-3.150750"/>
    <trkpt lat="52.971256" lon="-3.150731"/>
    <trkpt lat="52.971262" lon="-3.150711"/>
    <trkpt lat="52.971269" lon="-3.150692"/>
    <trkpt lat="52.971277" lon="-3.150670"/>
    <trkpt lat="52.971286" lon="-3.150642"/>
    <trkpt lat="52.971292" lon="-3.150618"/>
    <trkpt lat="52.971298" lon="-3.150594"/>
    <trkpt lat="52.971306" lon="-3.150568"/>
    <trkpt lat="52.971314" lon="-3.150545"/>
    <trkpt lat="52.971322" lon="-3.150521"/>
    <trkpt lat="52.971331" lon="-3.150498"/>
    <trkpt lat="52.971340" lon="-3.150473"/>
    <trkpt lat="52.971348" lon="-3.150452"/>
    <trkpt lat="52.971356" lon="-3.150425"/>
    <trkpt lat="52.971363" lon="-3.150399"/>
    <trkpt lat="52.971370" lon="-3.150375"/>
    <trkpt lat="52.971381" lon="-3.150350"/>
    <trkpt lat="52.971395" lon="-3.150311"/>
    <trkpt lat="52.971399" lon="-3.150297"/>
    <trkpt lat="52.971412" lon="-3.150253"/>
    <trkpt lat="52.971416" lon="-3.150238"/>
    <trkpt lat="52.971426" lon="-3.150213"/>
    <trkpt lat="52.971434" lon="-3.150187"/>
    <trkpt lat="52.971442" lon="-3.150161"/>
    <trkpt lat="52.971449" lon="-3.150135"/>
    <trkpt lat="52.971457" lon="-3.150108"/>
    <trkpt lat="52.971462" lon="-3.150083"/>
    <trkpt lat="52.971467" lon="-3.150056"/>
    <trkpt lat="52.971473" lon="-3.150031"/>
    <trkpt lat="52.971476" lon="-3.150006"/>
    <trkpt lat="52.971484" lon="-3.149978"/>
    <trkpt lat="52.971494" lon="-3.149956"/>
    <trkpt lat="52.971504" lon="-3.149932"/>
    <trkpt lat="52.971513" lon="-3.149908"/>
    <trkpt lat="52.971523" lon="-3.149884"/>
    <trkpt lat="52.971530" lon="-3.149861"/>
    <trkpt lat="52.971539" lon="-3.149832"/>
    <trkpt lat="52.971547" lon="-3.149807"/>
    <trkpt lat="52.971555" lon="-3.149784"/>
    <trkpt lat="52.971562" lon="-3.149761"/>
    <trkpt lat="52.971567" lon="-3.149738"/>
    <trkpt lat="52.971574" lon="-3.149713"/>
    <trkpt lat="52.971581" lon="-3.149684"/>
    <trkpt lat="52.971587" lon="-3.149660"/>
    <trkpt lat="52.971594" lon="-3.149636"/>
    <trkpt lat="52.971600" lon="-3.149612"/>
    <trkpt lat="52.971608" lon="-3.149587"/>
    <trkpt lat="52.971616" lon="-3.149565"/>
    <trkpt lat="52.971624" lon="-3.149542"/>
    <trkpt lat="52.971632" lon="-3.149520"/>
    <trkpt lat="52.971641" lon="-3.149498"/>
    <trkpt lat="52.971656" lon="-3.149450"/>
    <trkpt lat="52.971660" lon="-3.149435"/>
    <trkpt lat="52.971666" lon="-3.149408"/>
    <trkpt lat="52.971674" lon="-3.149382"/>
    <trkpt lat="52.971680" lon="-3.149356"/>
    <trkpt lat="52.971688" lon="-3.149329"/>
    <trkpt lat="52.971695" lon="-3.149304"/>
    <trkpt lat="52.971700" lon="-3.149279"/>
    <trkpt lat="52.971706" lon="-3.149256"/>
    <trkpt lat="52.971712" lon="-3.149232"/>
    <trkpt lat="52.971724" lon="-3.149184"/>
    <trkpt lat="52.971730" lon="-3.149164"/>
    <trkpt lat="52.971735" lon="-3.149144"/>
    <trkpt lat="52.971741" lon="-3.149124"/>
    <trkpt lat="52.971749" lon="-3.149100"/>
    <trkpt lat="52.971757" lon="-3.149076"/>
    <trkpt lat="52.971766" lon="-3.149053"/>
    <trkpt lat="52.971775" lon="-3.149029"/>
    <trkpt lat="52.971784" lon="-3.149009"/>
    <trkpt lat="52.971793" lon="-3.148990"/>
    <trkpt lat="52.971802" lon="-3.148970"/>
    <trkpt lat="52.971820" lon="-3.148929"/>
    <trkpt lat="52.971829" lon="-3.148910"/>
    <trkpt lat="52.971840" lon="-3.148890"/>
    <trkpt lat="52.971851" lon="-3.148869"/>
    <trkpt lat="52.971859" lon="-3.148848"/>
    <trkpt lat="52.971867" lon="-3.148827"/>
    <trkpt lat="52.971880" lon="-3.148786"/>
    <trkpt lat="52.971884" lon="-3.148774"/>
    <trkpt lat="52.971891" lon="-3.148751"/>
    <trkpt lat="52.971898" lon="-3.148728"/>
    <trkpt lat="52.971904" lon="-3.148704"/>
    <trkpt lat="52.971914" lon="-3.148682"/>
    <trkpt lat="52.971921" lon="-3.148660"/>
    <trkpt lat="52.971926" lon="-3.148638"/>
    <trkpt lat="52.971931" lon="-3.148615"/>
    <trkpt lat="52.971938" lon="-3.148592"/>
    <trkpt lat="52.971950" lon="-3.148550"/>
    <trkpt lat="52.971954" lon="-3.148534"/>
    <trkpt lat="52.971962" lon="-3.148510"/>
    <trkpt lat="52.971970" lon="-3.148486"/>
    <trkpt lat="52.971976" lon="-3.148464"/>
    <trkpt lat="52.971983" lon="-3.148442"/>
    <trkpt lat="52.971990" lon="-3.148421"/>
    <trkpt lat="52.972003" lon="-3.148382"/>
    <trkpt lat="52.972010" lon="-3.148362"/>
    <trkpt lat="52.972017" lon="-3.148342"/>
    <trkpt lat="52.972024" lon="-3.148322"/>
    <trkpt lat="52.972034" lon="-3.148297"/>
    <trkpt lat="52.972043" lon="-3.148278"/>
    <trkpt lat="52.972061" lon="-3.148243"/>
    <trkpt lat="52.972066" lon="-3.148232"/>
    <trkpt lat="52.972082" lon="-3.148199"/>
    <trkpt lat="52.972087" lon="-3.148189"/>
    <trkpt lat="52.972092" lon="-3.148178"/>
    <trkpt lat="52.972099" lon="-3.148155"/>
    <trkpt lat="52.972105" lon="-3.148132"/>
    <trkpt lat="52.972110" lon="-3.148109"/>
    <trkpt lat="52.972116" lon="-3.148086"/>
    <trkpt lat="52.972129" lon="-3.148044"/>
    <trkpt lat="52.972134" lon="-3.148021"/>
    <trkpt lat="52.972140" lon="-3.147996"/>
    <trkpt lat="52.972145" lon="-3.147971"/>
    <trkpt lat="52.972151" lon="-3.147946"/>
    <trkpt lat="52.972157" lon="-3.147922"/>
    <trkpt lat="52.972162" lon="-3.147897"/>
    <trkpt lat="52.972169" lon="-3.147873"/>
    <trkpt lat="52.972176" lon="-3.147848"/>
    <trkpt lat="52.972183" lon="-3.147824"/>
    <trkpt lat="52.972188" lon="-3.147802"/>
    <trkpt lat="52.972194" lon="-3.147780"/>
    <trkpt lat="52.972200" lon="-3.147758"/>
    <trkpt lat="52.972206" lon="-3.147737"/>
    <trkpt lat="52.972216" lon="-3.147711"/>
    <trkpt lat="52.972225" lon="-3.147686"/>
    <trkpt lat="52.972233" lon="-3.147662"/>
    <trkpt lat="52.972243" lon="-3.147640"/>
    <trkpt lat="52.972250" lon="-3.147616"/>
    <trkpt lat="52.972258" lon="-3.147593"/>
    <trkpt lat="52.972267" lon="-3.147569"/>
    <trkpt lat="52.972276" lon="-3.147544"/>
    <trkpt lat="52.972284" lon="-3.147522"/>
    <trkpt lat="52.972294" lon="-3.147502"/>
    <trkpt lat="52.972302" lon="-3.147479"/>
    <trkpt lat="52.972308" lon="-3.147458"/>
    <trkpt lat="52.972321" lon="-3.147413"/>
    <trkpt lat="52.972328" lon="-3.147391"/>
    <trkpt lat="52.972335" lon="-3.147371"/>
    <trkpt lat="52.972342" lon="-3.147349"/>
    <trkpt lat="52.972350" lon="-3.147328"/>
    <trkpt lat="52.972357" lon="-3.147305"/>
    <trkpt lat="52.972364" lon="-3.147283"/>
    <trkpt lat="52.972372" lon="-3.147261"/>
    <trkpt lat="52.972379" lon="-3.147238"/>
    <trkpt lat="52.972386" lon="-3.147213"/>
    <trkpt lat="52.972394" lon="-3.147191"/>
    <trkpt lat="52.972400" lon="-3.147168"/>
    <trkpt lat="52.972409" lon="-3.147138"/>
    <trkpt lat="52.972415" lon="-3.147116"/>
    <trkpt lat="52.972421" lon="-3.147096"/>
    <trkpt lat="52.972428" lon="-3.147074"/>
    <trkpt lat="52.972436" lon="-3.147052"/>
    <trkpt lat="52.972445" lon="-3.147021"/>
    <trkpt lat="52.972455" lon="-3.146997"/>
    <trkpt lat="52.972463" lon="-3.146971"/>
    <trkpt lat="52.972471" lon="-3.146943"/>
    <trkpt lat="52.972477" lon="-3.146920"/>
    <trkpt lat="52.972483" lon="-3.146898"/>
    <trkpt lat="52.972489" lon="-3.146876"/>
    <trkpt lat="52.972494" lon="-3.146854"/>
    <trkpt lat="52.972507" lon="-3.146812"/>
    <trkpt lat="52.972514" lon="-3.146792"/>
    <trkpt lat="52.972522" lon="-3.146770"/>
    <trkpt lat="52.972547" lon="-3.146766"/>
    <trkpt lat="52.972531" lon="-3.146805"/>
    <trkpt lat="52.972524" lon="-3.146823"/>
    <trkpt lat="52.972512" lon="-3.146863"/>
    <trkpt lat="52.972508" lon="-3.146880"/>
    <trkpt lat="52.972496" lon="-3.146931"/>
    <trkpt lat="52.972491" lon="-3.146948"/>
    <trkpt lat="52.972478" lon="-3.146991"/>
    <trkpt lat="52.972474" lon="-3.147004"/>
    <trkpt lat="52.972462" lon="-3.147045"/>
    <trkpt lat="52.972458" lon="-3.147059"/>
    <trkpt lat="52.972445" lon="-3.147090"/>
    <trkpt lat="52.972441" lon="-3.147101"/>
    <trkpt lat="52.972436" lon="-3.147111"/>
    <trkpt lat="52.972426" lon="-3.147130"/>
    <trkpt lat="52.972422" lon="-3.147141"/>
    <trkpt lat="52.972416" lon="-3.147162"/>
    <trkpt lat="52.972409" lon="-3.147186"/>
    <trkpt lat="52.972400" lon="-3.147213"/>
    <trkpt lat="52.972388" lon="-3.147256"/>
    <trkpt lat="52.972384" lon="-3.147271"/>
    <trkpt lat="52.972372" lon="-3.147322"/>
    <trkpt lat="52.972366" lon="-3.147340"/>
    <trkpt lat="52.972361" lon="-3.147362"/>
    <trkpt lat="52.972354" lon="-3.147386"/>
    <trkpt lat="52.972347" lon="-3.147409"/>
    <trkpt lat="52.972341" lon="-3.147430"/>
    <trkpt lat="52.972334" lon="-3.147447"/>
    <trkpt lat="52.972329" lon="-3.147460"/>
    <trkpt lat="52.972322" lon="-3.147479"/>
    <trkpt lat="52.972313" lon="-3.147509"/>
    <trkpt lat="52.972307" lon="-3.147524"/>
    <trkpt lat="52.972302" lon="-3.147539"/>
    <trkpt lat="52.972287" lon="-3.147581"/>
    <trkpt lat="52.972281" lon="-3.147595"/>
    <trkpt lat="52.972266" lon="-3.147638"/>
    <trkpt lat="52.972261" lon="-3.147651"/>
    <trkpt lat="52.972247" lon="-3.147693"/>
    <trkpt lat="52.972242" lon="-3.147707"/>
    <trkpt lat="52.972234" lon="-3.147730"/>
    <trkpt lat="52.972226" lon="-3.147749"/>
    <trkpt lat="52.972215" lon="-3.147778"/>
    <trkpt lat="52.972210" lon="-3.147789"/>
    <trkpt lat="52.972206" lon="-3.147801"/>
    <trkpt lat="52.972198" lon="-3.147826"/>
    <trkpt lat="52.972190" lon="-3.147849"/>
    <trkpt lat="52.972180" lon="-3.147872"/>
    <trkpt lat="52.972169" lon="-3.147892"/>
    <trkpt lat="52.972154" lon="-3.147934"/>
    <trkpt lat="52.972149" lon="-3.147948"/>
    <trkpt lat="52.972139" lon="-3.147994"/>
    <trkpt lat="52.972135" lon="-3.148010"/>
    <trkpt lat="52.972127" lon="-3.148035"/>
    <trkpt lat="52.972119" lon="-3.148057"/>
    <trkpt lat="52.972115" lon="-3.148073"/>
    <trkpt lat="52.972109" lon="-3.148089"/>
    <trkpt lat="52.972103" lon="-3.148110"/>
    <trkpt lat="52.972093" lon="-3.148159"/>
    <trkpt lat="52.972090" lon="-3.148171"/>
    <trkpt lat="52.972081" lon="-3.148219"/>
    <trkpt lat="52.972077" lon="-3.148235"/>
    <trkpt lat="52.972068" lon="-3.148278"/>
    <trkpt lat="52.972064" lon="-3.148293"/>
    <trkpt lat="52.972056" lon="-3.148314"/>
    <trkpt lat="52.972051" lon="-3.148331"/>
    <trkpt lat="52.972044" lon="-3.148341"/>
    <trkpt lat="52.972037" lon="-3.148352"/>
    <trkpt lat="52.972029" lon="-3.148369"/>
    <trkpt lat="52.972023" lon="-3.148385"/>
    <trkpt lat="52.972010" lon="-3.148425"/>
    <trkpt lat="52.972005" lon="-3.148439"/>
    <trkpt lat="52.971986" lon="-3.148486"/>
    <trkpt lat="52.971977" lon="-3.148503"/>
    <trkpt lat="52.971951" lon="-3.148545"/>
    <trkpt lat="52.971942" lon="-3.148561"/>
    <trkpt lat="52.971921" lon="-3.148617"/>
    <trkpt lat="52.971915" lon="-3.148636"/>
    <trkpt lat="52.971896" lon="-3.148688"/>
    <trkpt lat="52.971889" lon="-3.148706"/>
    <trkpt lat="52.971875" lon="-3.148761"/>
    <trkpt lat="52.971870" lon="-3.148779"/>
    <trkpt lat="52.971861" lon="-3.148831"/>
    <trkpt lat="52.971857" lon="-3.148849"/>
    <trkpt lat="52.971845" lon="-3.148898"/>
    <trkpt lat="52.971840" lon="-3.148913"/>
    <trkpt lat="52.971826" lon="-3.148967"/>
    <trkpt lat="52.971821" lon="-3.148984"/>
    <trkpt lat="52.971806" lon="-3.149035"/>
    <trkpt lat="52.971800" lon="-3.149050"/>
    <trkpt lat="52.971786" lon="-3.149100"/>
    <trkpt lat="52.971780" lon="-3.149118"/>
    <trkpt lat="52.971763" lon="-3.149159"/>
    <trkpt lat="52.971756" lon="-3.149174"/>
    <trkpt lat="52.971742" lon="-3.149227"/>
    <trkpt lat="52.971737" lon="-3.149244"/>
    <trkpt lat="52.971723" lon="-3.149298"/>
    <trkpt lat="52.971718" lon="-3.149316"/>
    <trkpt lat="52.971709" lon="-3.149367"/>
    <trkpt lat="52.971705" lon="-3.149384"/>
    <trkpt lat="52.971694" lon="-3.149433"/>
    <trkpt lat="52.971690" lon="-3.149447"/>
    <trkpt lat="52.971678" lon="-3.149497"/>
    <trkpt lat="52.971673" lon="-3.149513"/>
    <trkpt lat="52.971663" lon="-3.149548"/>
    <trkpt lat="52.971658" lon="-3.149564"/>
    <trkpt lat="52.971652" lon="-3.149580"/>
    <trkpt lat="52.971635" lon="-3.149617"/>
    <trkpt lat="52.971627" lon="-3.149628"/>
    <trkpt lat="52.971619" lon="-3.149638"/>
    <trkpt lat="52.971598" lon="-3.149699"/>
    <trkpt lat="52.971591" lon="-3.149722"/>
    <trkpt lat="52.971580" lon="-3.149769"/>
    <trkpt lat="52.971564" lon="-3.149830"/>
    <trkpt lat="52.971558" lon="-3.149851"/>
    <trkpt lat="52.971543" lon="-3.149910"/>
    <trkpt lat="52.971537" lon="-3.149932"/>
    <trkpt lat="52.971525" lon="-3.149973"/>
    <trkpt lat="52.971506" lon="-3.150029"/>
    <trkpt lat="52.971500" lon="-3.150047"/>
    <trkpt lat="52.971482" lon="-3.150101"/>
    <trkpt lat="52.971475" lon="-3.150118"/>
    <trkpt lat="52.971457" lon="-3.150168"/>
    <trkpt lat="52.971452" lon="-3.150185"/>
    <trkpt lat="52.971440" lon="-3.150237"/>
    <trkpt lat="52.971435" lon="-3.150255"/>
    <trkpt lat="52.971420" lon="-3.150307"/>
    <trkpt lat="52.971414" lon="-3.150327"/>
    <trkpt lat="52.971401" lon="-3.150377"/>
    <trkpt lat="52.971396" lon="-3.150393"/>
    <trkpt lat="52.971380" lon="-3.150440"/>
    <trkpt lat="52.971375" lon="-3.150455"/>
    <trkpt lat="52.971358" lon="-3.150505"/>
    <trkpt lat="52.971352" lon="-3.150520"/>
    <trkpt lat="52.971331" lon="-3.150571"/>
    <trkpt lat="52.971324" lon="-3.150588"/>
    <trkpt lat="52.971306" lon="-3.150639"/>
    <trkpt lat="52.971299" lon="-3.150655"/>
    <trkpt lat="52.971280" lon="-3.150700"/>
    <trkpt lat="52.971274" lon="-3.150714"/>
    <trkpt lat="52.971266" lon="-3.150738"/>
    <trkpt lat="52.971259" lon="-3.150763"/>
    <trkpt lat="52.971251" lon="-3.150784"/>
    <trkpt lat="52.971249" lon="-3.150809"/>
    <trkpt lat="52.971248" lon="-3.150833"/>
    <trkpt lat="52.971241" lon="-3.150856"/>
    <trkpt lat="52.971229" lon="-3.150871"/>
    <trkpt lat="52.971220" lon="-3.150885"/>
    <trkpt lat="52.971215" lon="-3.150902"/>
    <trkpt lat="52.971212" lon="-3.150918"/>
    <trkpt lat="52.971208" lon="-3.150937"/>
    <trkpt lat="52.971202" lon="-3.150961"/>
    <trkpt lat="52.971196" lon="-3.150993"/>
    <trkpt lat="52.971185" lon="-3.151049"/>
    <trkpt lat="52.971180" lon="-3.151067"/>
    <trkpt lat="52.971165" lon="-3.151114"/>
    <trkpt lat="52.971160" lon="-3.151127"/>
    <trkpt lat="52.971151" lon="-3.151153"/>
    <trkpt lat="52.971145" lon="-3.151174"/>
    <trkpt lat="52.971134" lon="-3.151204"/>
    <trkpt lat="52.971129" lon="-3.151218"/>
    <trkpt lat="52.971125" lon="-3.151231"/>
    <trkpt lat="52.971113" lon="-3.151277"/>
    <trkpt lat="52.971110" lon="-3.151287"/>
    <trkpt lat="52.971098" lon="-3.151335"/>
    <trkpt lat="52.971093" lon="-3.151352"/>
    <trkpt lat="52.971081" lon="-3.151395"/>
    <trkpt lat="52.971077" lon="-3.151410"/>
    <trkpt lat="52.971066" lon="-3.151442"/>
    <trkpt lat="52.971062" lon="-3.151455"/>
    <trkpt lat="52.971058" lon="-3.151467"/>
    <trkpt lat="52.971051" lon="-3.151489"/>
    <trkpt lat="52.971044" lon="-3.151517"/>
    <trkpt lat="52.971037" lon="-3.151541"/>
    <trkpt lat="52.971028" lon="-3.151569"/>
    <trkpt lat="52.971019" lon="-3.151598"/>
    <trkpt lat="52.971013" lon="-3.151623"/>
    <trkpt lat="52.971005" lon="-3.151648"/>
    <trkpt lat="52.970996" lon="-3.151666"/>
    <trkpt lat="52.970989" lon="-3.151681"/>
    <trkpt lat="52.970981" lon="-3.151698"/>
    <trkpt lat="52.970974" lon="-3.151710"/>
    <trkpt lat="52.970966" lon="-3.151725"/>
    <trkpt lat="52.970960" lon="-3.151740"/>
    <trkpt lat="52.970954" lon="-3.151760"/>
    <trkpt lat="52.970948" lon="-3.151786"/>
    <trkpt lat="52.970939" lon="-3.151814"/>
    <trkpt lat="52.970930" lon="-3.151842"/>
    <trkpt lat="52.970923" lon="-3.151866"/>
    <trkpt lat="52.970914" lon="-3.151891"/>
    <trkpt lat="52.970905" lon="-3.151912"/>
    <trkpt lat="52.970895" lon="-3.151944"/>
    <trkpt lat="52.970892" lon="-3.151956"/>
    <trkpt lat="52.970888" lon="-3.151968"/>
    <trkpt lat="52.970882" lon="-3.151987"/>
    <trkpt lat="52.970876" lon="-3.152008"/>
    <trkpt lat="52.970870" lon="-3.152033"/>
    <trkpt lat="52.970865" lon="-3.152063"/>
    <trkpt lat="52.970859" lon="-3.152108"/>
    <trkpt lat="52.970856" lon="-3.152123"/>
    <trkpt lat="52.970844" lon="-3.152168"/>
    <trkpt lat="52.970839" lon="-3.152181"/>
    <trkpt lat="52.970830" lon="-3.152203"/>
    <trkpt lat="52.970824" lon="-3.152221"/>
    <trkpt lat="52.970820" lon="-3.152238"/>
    <trkpt lat="52.970817" lon="-3.152255"/>
    <trkpt lat="52.970816" lon="-3.152277"/>
    <trkpt lat="52.970813" lon="-3.152300"/>
    <trkpt lat="52.970807" lon="-3.152328"/>
    <trkpt lat="52.970795" lon="-3.152376"/>
    <trkpt lat="52.970790" lon="-3.152393"/>
    <trkpt lat="52.970776" lon="-3.152448"/>
    <trkpt lat="52.970772" lon="-3.152464"/>
    <trkpt lat="52.970756" lon="-3.152512"/>
    <trkpt lat="52.970752" lon="-3.152524"/>
    <trkpt lat="52.970743" lon="-3.152549"/>
    <trkpt lat="52.970733" lon="-3.152575"/>
    <trkpt lat="52.970724" lon="-3.152595"/>
    <trkpt lat="52.970715" lon="-3.152609"/>
    <trkpt lat="52.970695" lon="-3.152632"/>
    <trkpt lat="52.970687" lon="-3.152644"/>
    <trkpt lat="52.970678" lon="-3.152657"/>
    <trkpt lat="52.970658" lon="-3.152693"/>
    <trkpt lat="52.970651" lon="-3.152709"/>
    <trkpt lat="52.970635" lon="-3.152752"/>
    <trkpt lat="52.970630" lon="-3.152768"/>
    <trkpt lat="52.970622" lon="-3.152798"/>
    <trkpt lat="52.970618" lon="-3.152822"/>
    <trkpt lat="52.970614" lon="-3.152841"/>
    <trkpt lat="52.970609" lon="-3.152856"/>
    <trkpt lat="52.970604" lon="-3.152870"/>
    <trkpt lat="52.970596" lon="-3.152905"/>
    <trkpt lat="52.970592" lon="-3.152920"/>
    <trkpt lat="52.970589" lon="-3.152935"/>
    <trkpt lat="52.970581" lon="-3.152980"/>
    <trkpt lat="52.970578" lon="-3.152996"/>
    <trkpt lat="52.970571" lon="-3.153044"/>
    <trkpt lat="52.970569" lon="-3.153059"/>
    <trkpt lat="52.970564" lon="-3.153088"/>
    <trkpt lat="52.970559" lon="-3.153115"/>
    <trkpt lat="52.970552" lon="-3.153144"/>
    <trkpt lat="52.970545" lon="-3.153167"/>
    <trkpt lat="52.970538" lon="-3.153186"/>
    <trkpt lat="52.970533" lon="-3.153202"/>
    <trkpt lat="52.970528" lon="-3.153215"/>
    <trkpt lat="52.970523" lon="-3.153226"/>
    <trkpt lat="52.970516" lon="-3.153242"/>
    <trkpt lat="52.970510" lon="-3.153258"/>
    <trkpt lat="52.970503" lon="-3.153280"/>
    <trkpt lat="52.970494" lon="-3.153308"/>
    <trkpt lat="52.970481" lon="-3.153359"/>
    <trkpt lat="52.970477" lon="-3.153378"/>
    <trkpt lat="52.970467" lon="-3.153431"/>
    <trkpt lat="52.970464" lon="-3.153445"/>
    <trkpt lat="52.970457" lon="-3.153476"/>
    <trkpt lat="52.970452" lon="-3.153501"/>
    <trkpt lat="52.970446" lon="-3.153519"/>
    <trkpt lat="52.970440" lon="-3.153534"/>
    <trkpt lat="52.970433" lon="-3.153551"/>
    <trkpt lat="52.970424" lon="-3.153583"/>
    <trkpt lat="52.970419" lon="-3.153597"/>
    <trkpt lat="52.970414" lon="-3.153610"/>
    <trkpt lat="52.970408" lon="-3.153630"/>
    <trkpt lat="52.970402" lon="-3.153650"/>
    <trkpt lat="52.970396" lon="-3.153670"/>
    <trkpt lat="52.970389" lon="-3.153695"/>
    <trkpt lat="52.970382" lon="-3.153722"/>
    <trkpt lat="52.970374" lon="-3.153748"/>
    <trkpt lat="52.970368" lon="-3.153773"/>
    <trkpt lat="52.970360" lon="-3.153798"/>
    <trkpt lat="52.970350" lon="-3.153816"/>
    <trkpt lat="52.970340" lon="-3.153840"/>
    <trkpt lat="52.970331" lon="-3.153863"/>
    <trkpt lat="52.970321" lon="-3.153906"/>
    <trkpt lat="52.970317" lon="-3.153924"/>
    <trkpt lat="52.970313" lon="-3.153950"/>
    <trkpt lat="52.970309" lon="-3.153978"/>
    <trkpt lat="52.970306" lon="-3.154004"/>
    <trkpt lat="52.970302" lon="-3.154030"/>
    <trkpt lat="52.970298" lon="-3.154056"/>
    <trkpt lat="52.970293" lon="-3.154082"/>
    <trkpt lat="52.970289" lon="-3.154107"/>
    <trkpt lat="52.970284" lon="-3.154133"/>
    <trkpt lat="52.970281" lon="-3.154158"/>
    <trkpt lat="52.970277" lon="-3.154183"/>
    <trkpt lat="52.970271" lon="-3.154211"/>
    <trkpt lat="52.970267" lon="-3.154236"/>
    <trkpt lat="52.970257" lon="-3.154274"/>
    <trkpt lat="52.970249" lon="-3.154298"/>
    <trkpt lat="52.970234" lon="-3.154336"/>
    <trkpt lat="52.970230" lon="-3.154349"/>
    <trkpt lat="52.970225" lon="-3.154362"/>
    <trkpt lat="52.970218" lon="-3.154385"/>
    <trkpt lat="52.970213" lon="-3.154410"/>
    <trkpt lat="52.970209" lon="-3.154435"/>
  </trkseg></trk>
</gpx>
