<?xml version="1.0" encoding="UTF-8"?>
<gpx version="1.1" creator="5k-9am-osm-route-cache v0.6.11" xmlns="http://www.topografix.com/GPX/1/1">
  <metadata><desc>Derived from OpenStreetMap ((c) OpenStreetMap contributors, ODbL). source=osm_relation; built_by=v0.6.11</desc></metadata>
  <trk><name>Richards Bay parkrun</name><trkseg>
    <trkpt lat="-28.797742" lon="32.095706"/>
    <trkpt lat="-28.797644" lon="32.095587"/>
    <trkpt lat="-28.797522" lon="32.095457"/>
    <trkpt lat="-28.797356" lon="32.095324"/>
    <trkpt lat="-28.797276" lon="32.095251"/>
    <trkpt lat="-28.797109" lon="32.095060"/>
    <trkpt lat="-28.796685" lon="32.094321"/>
    <trkpt lat="-28.796335" lon="32.093847"/>
    <trkpt lat="-28.796128" lon="32.093595"/>
    <trkpt lat="-28.795788" lon="32.093173"/>
    <trkpt lat="-28.795627" lon="32.092974"/>
    <trkpt lat="-28.795627" lon="32.092974"/>
    <trkpt lat="-28.795544" lon="32.092870"/>
    <trkpt lat="-28.795149" lon="32.092364"/>
    <trkpt lat="-28.795126" lon="32.092335"/>
    <trkpt lat="-28.794878" lon="32.091971"/>
    <trkpt lat="-28.794878" lon="32.091971"/>
    <trkpt lat="-28.794761" lon="32.091799"/>
    <trkpt lat="-28.794552" lon="32.091480"/>
    <trkpt lat="-28.794384" lon="32.091272"/>
    <trkpt lat="-28.794249" lon="32.091113"/>
    <trkpt lat="-28.793821" lon="32.090681"/>
    <trkpt lat="-28.793598" lon="32.090465"/>
    <trkpt lat="-28.793598" lon="32.090465"/>
    <trkpt lat="-28.793305" lon="32.090713"/>
    <trkpt lat="-28.793263" lon="32.090781"/>
    <trkpt lat="-28.793239" lon="32.090851"/>
    <trkpt lat="-28.793227" lon="32.090934"/>
    <trkpt lat="-28.793232" lon="32.091017"/>
    <trkpt lat="-28.793254" lon="32.091095"/>
    <trkpt lat="-28.793291" lon="32.091170"/>
    <trkpt lat="-28.793416" lon="32.091279"/>
    <trkpt lat="-28.793416" lon="32.091279"/>
    <trkpt lat="-28.792993" lon="32.091756"/>
    <trkpt lat="-28.792993" lon="32.091756"/>
    <trkpt lat="-28.792856" lon="32.091688"/>
    <trkpt lat="-28.792742" lon="32.091671"/>
    <trkpt lat="-28.792677" lon="32.091622"/>
    <trkpt lat="-28.792615" lon="32.091534"/>
    <trkpt lat="-28.792536" lon="32.091508"/>
    <trkpt lat="-28.792455" lon="32.091523"/>
    <trkpt lat="-28.792252" lon="32.091527"/>
    <trkpt lat="-28.792174" lon="32.091500"/>
    <trkpt lat="-28.792021" lon="32.091369"/>
    <trkpt lat="-28.791931" lon="32.091263"/>
    <trkpt lat="-28.791894" lon="32.091132"/>
    <trkpt lat="-28.791860" lon="32.091094"/>
    <trkpt lat="-28.791779" lon="32.091067"/>
    <trkpt lat="-28.791707" lon="32.091003"/>
    <trkpt lat="-28.791600" lon="32.090884"/>
    <trkpt lat="-28.791460" lon="32.090733"/>
    <trkpt lat="-28.791425" lon="32.090636"/>
    <trkpt lat="-28.791381" lon="32.090528"/>
    <trkpt lat="-28.791275" lon="32.090418"/>
    <trkpt lat="-28.791161" lon="32.090310"/>
    <trkpt lat="-28.791075" lon="32.090201"/>
    <trkpt lat="-28.790949" lon="32.090004"/>
    <trkpt lat="-28.790814" lon="32.089856"/>
    <trkpt lat="-28.790696" lon="32.089769"/>
    <trkpt lat="-28.790598" lon="32.089723"/>
    <trkpt lat="-28.790533" lon="32.089651"/>
    <trkpt lat="-28.790515" lon="32.089617"/>
    <trkpt lat="-28.790480" lon="32.089501"/>
    <trkpt lat="-28.790378" lon="32.089384"/>
    <trkpt lat="-28.790287" lon="32.089316"/>
    <trkpt lat="-28.790134" lon="32.089143"/>
    <trkpt lat="-28.789996" lon="32.088983"/>
    <trkpt lat="-28.789873" lon="32.088844"/>
    <trkpt lat="-28.789825" lon="32.088751"/>
    <trkpt lat="-28.789788" lon="32.088642"/>
    <trkpt lat="-28.789748" lon="32.088589"/>
    <trkpt lat="-28.789684" lon="32.088577"/>
    <trkpt lat="-28.789635" lon="32.088562"/>
    <trkpt lat="-28.789573" lon="32.088532"/>
    <trkpt lat="-28.789479" lon="32.088452"/>
    <trkpt lat="-28.789368" lon="32.088365"/>
    <trkpt lat="-28.788867" lon="32.087798"/>
    <trkpt lat="-28.788748" lon="32.087635"/>
    <trkpt lat="-28.788675" lon="32.087442"/>
    <trkpt lat="-28.788588" lon="32.087304"/>
    <trkpt lat="-28.788506" lon="32.087194"/>
    <trkpt lat="-28.788381" lon="32.086977"/>
    <trkpt lat="-28.788313" lon="32.086718"/>
    <trkpt lat="-28.788270" lon="32.086658"/>
    <trkpt lat="-28.788235" lon="32.086644"/>
    <trkpt lat="-28.788149" lon="32.086640"/>
    <trkpt lat="-28.788087" lon="32.086599"/>
    <trkpt lat="-28.788046" lon="32.086550"/>
    <trkpt lat="-28.788004" lon="32.086449"/>
    <trkpt lat="-28.787972" lon="32.086379"/>
    <trkpt lat="-28.787858" lon="32.086279"/>
    <trkpt lat="-28.787801" lon="32.086207"/>
    <trkpt lat="-28.787743" lon="32.086115"/>
    <trkpt lat="-28.787664" lon="32.086090"/>
    <trkpt lat="-28.787623" lon="32.086055"/>
    <trkpt lat="-28.787533" lon="32.085901"/>
    <trkpt lat="-28.787452" lon="32.085850"/>
    <trkpt lat="-28.787389" lon="32.085812"/>
    <trkpt lat="-28.787127" lon="32.085458"/>
    <trkpt lat="-28.787105" lon="32.085380"/>
    <trkpt lat="-28.787111" lon="32.085326"/>
    <trkpt lat="-28.787135" lon="32.085274"/>
    <trkpt lat="-28.787168" lon="32.085232"/>
    <trkpt lat="-28.787201" lon="32.085218"/>
    <trkpt lat="-28.787226" lon="32.085243"/>
    <trkpt lat="-28.787277" lon="32.085313"/>
    <trkpt lat="-28.787338" lon="32.085393"/>
    <trkpt lat="-28.787456" lon="32.085532"/>
    <trkpt lat="-28.787564" lon="32.085650"/>
    <trkpt lat="-28.787672" lon="32.085743"/>
    <trkpt lat="-28.787813" lon="32.085845"/>
    <trkpt lat="-28.787978" lon="32.085929"/>
    <trkpt lat="-28.788070" lon="32.085964"/>
    <trkpt lat="-28.788232" lon="32.086083"/>
    <trkpt lat="-28.788283" lon="32.086102"/>
    <trkpt lat="-28.788353" lon="32.086126"/>
    <trkpt lat="-28.788394" lon="32.086163"/>
    <trkpt lat="-28.788465" lon="32.086258"/>
    <trkpt lat="-28.788568" lon="32.086473"/>
    <trkpt lat="-28.788653" lon="32.086580"/>
    <trkpt lat="-28.788698" lon="32.086677"/>
    <trkpt lat="-28.788779" lon="32.086889"/>
    <trkpt lat="-28.788845" lon="32.087004"/>
    <trkpt lat="-28.788902" lon="32.087064"/>
    <trkpt lat="-28.789047" lon="32.087149"/>
    <trkpt lat="-28.789175" lon="32.087242"/>
    <trkpt lat="-28.789216" lon="32.087297"/>
    <trkpt lat="-28.789259" lon="32.087358"/>
    <trkpt lat="-28.789309" lon="32.087421"/>
    <trkpt lat="-28.789388" lon="32.087499"/>
    <trkpt lat="-28.789470" lon="32.087575"/>
    <trkpt lat="-28.789582" lon="32.087634"/>
    <trkpt lat="-28.789711" lon="32.087701"/>
    <trkpt lat="-28.789793" lon="32.087775"/>
    <trkpt lat="-28.789891" lon="32.087861"/>
    <trkpt lat="-28.789999" lon="32.087933"/>
    <trkpt lat="-28.790121" lon="32.088054"/>
    <trkpt lat="-28.790263" lon="32.088187"/>
    <trkpt lat="-28.790412" lon="32.088268"/>
    <trkpt lat="-28.790519" lon="32.088317"/>
    <trkpt lat="-28.790630" lon="32.088363"/>
    <trkpt lat="-28.790722" lon="32.088421"/>
    <trkpt lat="-28.790763" lon="32.088464"/>
    <trkpt lat="-28.790814" lon="32.088536"/>
    <trkpt lat="-28.790851" lon="32.088587"/>
    <trkpt lat="-28.790931" lon="32.088665"/>
    <trkpt lat="-28.791031" lon="32.088752"/>
    <trkpt lat="-28.791090" lon="32.088818"/>
    <trkpt lat="-28.791142" lon="32.088931"/>
    <trkpt lat="-28.791185" lon="32.088999"/>
    <trkpt lat="-28.791266" lon="32.089080"/>
    <trkpt lat="-28.791402" lon="32.089193"/>
    <trkpt lat="-28.791517" lon="32.089296"/>
    <trkpt lat="-28.791628" lon="32.089410"/>
    <trkpt lat="-28.791689" lon="32.089480"/>
    <trkpt lat="-28.791760" lon="32.089541"/>
    <trkpt lat="-28.791864" lon="32.089604"/>
    <trkpt lat="-28.791932" lon="32.089646"/>
    <trkpt lat="-28.791985" lon="32.089652"/>
    <trkpt lat="-28.792090" lon="32.089642"/>
    <trkpt lat="-28.792164" lon="32.089642"/>
    <trkpt lat="-28.792298" lon="32.089669"/>
    <trkpt lat="-28.792382" lon="32.089680"/>
    <trkpt lat="-28.792504" lon="32.089672"/>
    <trkpt lat="-28.792666" lon="32.089658"/>
    <trkpt lat="-28.792666" lon="32.089658"/>
    <trkpt lat="-28.793598" lon="32.090465"/>
    <trkpt lat="-28.793598" lon="32.090465"/>
    <trkpt lat="-28.793821" lon="32.090681"/>
    <trkpt lat="-28.794249" lon="32.091113"/>
    <trkpt lat="-28.794384" lon="32.091272"/>
    <trkpt lat="-28.794552" lon="32.091480"/>
    <trkpt lat="-28.794761" lon="32.091799"/>
    <trkpt lat="-28.794878" lon="32.091971"/>
    <trkpt lat="-28.794878" lon="32.091971"/>
    <trkpt lat="-28.794944" lon="32.091983"/>
    <trkpt lat="-28.795177" lon="32.092101"/>
    <trkpt lat="-28.795268" lon="32.092133"/>
    <trkpt lat="-28.795642" lon="32.092129"/>
    <trkpt lat="-28.795732" lon="32.092123"/>
    <trkpt lat="-28.795732" lon="32.092123"/>
    <trkpt lat="-28.796095" lon="32.091801"/>
    <trkpt lat="-28.797541" lon="32.090068"/>
    <trkpt lat="-28.797674" lon="32.089790"/>
    <trkpt lat="-28.797674" lon="32.089790"/>
    <trkpt lat="-28.797629" lon="32.089760"/>
    <trkpt lat="-28.797494" lon="32.089670"/>
    <trkpt lat="-28.797220" lon="32.089477"/>
    <trkpt lat="-28.796916" lon="32.089233"/>
    <trkpt lat="-28.796704" lon="32.088991"/>
    <trkpt lat="-28.796613" lon="32.088793"/>
    <trkpt lat="-28.796470" lon="32.088492"/>
    <trkpt lat="-28.796284" lon="32.088208"/>
    <trkpt lat="-28.796148" lon="32.087871"/>
    <trkpt lat="-28.796067" lon="32.087599"/>
    <trkpt lat="-28.796026" lon="32.087280"/>
    <trkpt lat="-28.795965" lon="32.086686"/>
    <trkpt lat="-28.795956" lon="32.086249"/>
    <trkpt lat="-28.795966" lon="32.085868"/>
    <trkpt lat="-28.795966" lon="32.085868"/>
    <trkpt lat="-28.795956" lon="32.086249"/>
    <trkpt lat="-28.795965" lon="32.086686"/>
    <trkpt lat="-28.796026" lon="32.087280"/>
    <trkpt lat="-28.796067" lon="32.087599"/>
    <trkpt lat="-28.796148" lon="32.087871"/>
    <trkpt lat="-28.796284" lon="32.088208"/>
    <trkpt lat="-28.796470" lon="32.088492"/>
    <trkpt lat="-28.796613" lon="32.088793"/>
    <trkpt lat="-28.796704" lon="32.088991"/>
    <trkpt lat="-28.796916" lon="32.089233"/>
    <trkpt lat="-28.797220" lon="32.089477"/>
    <trkpt lat="-28.797494" lon="32.089670"/>
    <trkpt lat="-28.797629" lon="32.089760"/>
    <trkpt lat="-28.797674" lon="32.089790"/>
    <trkpt lat="-28.797674" lon="32.089790"/>
    <trkpt lat="-28.797541" lon="32.090068"/>
    <trkpt lat="-28.796095" lon="32.091801"/>
    <trkpt lat="-28.795732" lon="32.092123"/>
    <trkpt lat="-28.795732" lon="32.092123"/>
    <trkpt lat="-28.795647" lon="32.092269"/>
    <trkpt lat="-28.795590" lon="32.092451"/>
    <trkpt lat="-28.795570" lon="32.092615"/>
    <trkpt lat="-28.795584" lon="32.092819"/>
    <trkpt lat="-28.795627" lon="32.092974"/>
    <trkpt lat="-28.795627" lon="32.092974"/>
    <trkpt lat="-28.795788" lon="32.093173"/>
    <trkpt lat="-28.796128" lon="32.093595"/>
    <trkpt lat="-28.796335" lon="32.093847"/>
    <trkpt lat="-28.796685" lon="32.094321"/>
    <trkpt lat="-28.797109" lon="32.095060"/>
    <trkpt lat="-28.797276" lon="32.095251"/>
    <trkpt lat="-28.797356" lon="32.095324"/>
    <trkpt lat="-28.797522" lon="32.095457"/>
    <trkpt lat="-28.797644" lon="32.095587"/>
    <trkpt lat="-28.797742" lon="32.095706"/>
  </trkseg></trk>
</gpx>
